{"type": "FeatureCollection", "features": [{"id": "0", "type": "Feature", "properties": {"line_id": "CAD_LINE_00001", "length_m": 3.536, "mean_confidence": 1.0, "num_vertices": 2, "is_ground_truth": true, "status": "Ground Truth"}, "geometry": {"type": "LineString", "coordinates": [[4.659788749971038, 52.29432003391735], [4.6598257609713425, 52.29429779155404]]}}, {"id": "1", "type": "Feature", "properties": {"line_id": "CAD_LINE_00002", "length_m": 2.828, "mean_confidence": 1.0, "num_vertices": 2, "is_ground_truth": true, "status": "Ground Truth"}, "geometry": {"type": "LineString", "coordinates": [[4.659782132171641, 52.294724453978716], [4.659811741247712, 52.29470666009254]]}}, {"id": "2", "type": "Feature", "properties": {"line_id": "CAD_LINE_00003", "length_m": 6.01, "mean_confidence": 1.0, "num_vertices": 2, "is_ground_truth": true, "status": "Ground Truth"}, "geometry": {"type": "LineString", "coordinates": [[4.6597740067950895, 52.295220991899406], [4.659836926765337, 52.29518317989152]]}}, {"id": "3", "type": "Feature", "properties": {"line_id": "CAD_LINE_00004", "length_m": 7.071, "mean_confidence": 1.0, "num_vertices": 2, "is_ground_truth": true, "status": "Ground Truth"}, "geometry": {"type": "LineString", "coordinates": [[4.659809878838596, 52.29526839965843], [4.6598839023652925, 52.295223914917784]]}}, {"id": "4", "type": "Feature", "properties": {"line_id": "CAD_LINE_00005", "length_m": 4.243, "mean_confidence": 1.0, "num_vertices": 2, "is_ground_truth": true, "status": "Ground Truth"}, "geometry": {"type": "LineString", "coordinates": [[4.659847894029467, 52.29428893968691], [4.659892307158816, 52.29426224882703]]}}, {"id": "5", "type": "Feature", "properties": {"line_id": "CAD_LINE_00006", "length_m": 12.021, "mean_confidence": 1.0, "num_vertices": 3, "is_ground_truth": true, "status": "Ground Truth"}, "geometry": {"type": "LineString", "coordinates": [[4.659849206695154, 52.29510461028861], [4.659919528751825, 52.29506234976083], [4.6599739433732195, 52.29509638949522]]}}, {"id": "6", "type": "Feature", "properties": {"line_id": "CAD_LINE_00007", "length_m": 6.01, "mean_confidence": 1.0, "num_vertices": 2, "is_ground_truth": true, "status": "Ground Truth"}, "geometry": {"type": "LineString", "coordinates": [[4.659937627746812, 52.2944040888581], [4.65987595883814, 52.29436551046842]]}}, {"id": "7", "type": "Feature", "properties": {"line_id": "CAD_LINE_00008", "length_m": 8.485, "mean_confidence": 1.0, "num_vertices": 2, "is_ground_truth": true, "status": "Ground Truth"}, "geometry": {"type": "LineString", "coordinates": [[4.65985941604167, 52.29537656056922], [4.659948244413429, 52.29532317883892]]}}, {"id": "8", "type": "Feature", "properties": {"line_id": "CAD_LINE_00009", "length_m": 3.182, "mean_confidence": 1.0, "num_vertices": 2, "is_ground_truth": true, "status": "Ground Truth"}, "geometry": {"type": "LineString", "coordinates": [[4.659939086630064, 52.294538918088094], [4.659906438271549, 52.2945184942395]]}}, {"id": "9", "type": "Feature", "properties": {"line_id": "CAD_LINE_00010", "length_m": 3.182, "mean_confidence": 1.0, "num_vertices": 2, "is_ground_truth": true, "status": "Ground Truth"}, "geometry": {"type": "LineString", "coordinates": [[4.659896182223696, 52.295145345310495], [4.659929492697791, 52.295125327157955]]}}, {"id": "10", "type": "Feature", "properties": {"line_id": "CAD_LINE_00011", "length_m": 2.828, "mean_confidence": 1.0, "num_vertices": 2, "is_ground_truth": true, "status": "Ground Truth"}, "geometry": {"type": "LineString", "coordinates": [[4.659919811288101, 52.295269075865804], [4.659949420673133, 52.29525128194754]]}}, {"id": "11", "type": "Feature", "properties": {"line_id": "CAD_LINE_00012", "length_m": 7.778, "mean_confidence": 1.0, "num_vertices": 2, "is_ground_truth": true, "status": "Ground Truth"}, "geometry": {"type": "LineString", "coordinates": [[4.660024043108598, 52.294946148338525], [4.6599442352382585, 52.29489622341901]]}}, {"id": "12", "type": "Feature", "properties": {"line_id": "CAD_LINE_00013", "length_m": 6.718, "mean_confidence": 1.0, "num_vertices": 2, "is_ground_truth": true, "status": "Ground Truth"}, "geometry": {"type": "LineString", "coordinates": [[4.660055768790885, 52.29435088733259], [4.659986844690822, 52.29430777037507]]}}, {"id": "13", "type": "Feature", "properties": {"line_id": "CAD_LINE_00014", "length_m": 8.132, "mean_confidence": 1.0, "num_vertices": 2, "is_ground_truth": true, "status": "Ground Truth"}, "geometry": {"type": "LineString", "coordinates": [[4.659969348759688, 52.29537723673099], [4.6600544758287, 52.295326079161455]]}}, {"id": "14", "type": "Feature", "properties": {"line_id": "CAD_LINE_00015", "length_m": 3.182, "mean_confidence": 1.0, "num_vertices": 2, "is_ground_truth": true, "status": "Ground Truth"}, "geometry": {"type": "LineString", "coordinates": [[4.6599741894051885, 52.29530536237703], [4.660007499964544, 52.29528534420331]]}}, {"id": "15", "type": "Feature", "properties": {"line_id": "CAD_LINE_00016", "length_m": 4.776, "mean_confidence": 1.0, "num_vertices": 2, "is_ground_truth": true, "status": "Ground Truth"}, "geometry": {"type": "LineString", "coordinates": [[4.660033970423955, 52.29501137250646], [4.659986847886433, 52.294979624650374]]}}, {"id": "16", "type": "Feature", "properties": {"line_id": "CAD_LINE_00017", "length_m": 3.182, "mean_confidence": 1.0, "num_vertices": 2, "is_ground_truth": true, "status": "Ground Truth"}, "geometry": {"type": "LineString", "coordinates": [[4.660008676127089, 52.29521344731064], [4.660041986601865, 52.295193429126705]]}}, {"id": "17", "type": "Feature", "properties": {"line_id": "CAD_LINE_00018", "length_m": 4.95, "mean_confidence": 1.0, "num_vertices": 3, "is_ground_truth": true, "status": "Ground Truth"}, "geometry": {"type": "LineString", "coordinates": [[4.660122771610254, 52.29473553707397], [4.660079240167367, 52.2947083053419], [4.6600718379269885, 52.29471275383096]]}}, {"id": "18", "type": "Feature", "properties": {"line_id": "CAD_LINE_00019", "length_m": 2.828, "mean_confidence": 1.0, "num_vertices": 2, "is_ground_truth": true, "status": "Ground Truth"}, "geometry": {"type": "LineString", "coordinates": [[4.660066755414758, 52.29524750953746], [4.660096364726729, 52.29522971558224]]}}, {"id": "19", "type": "Feature", "properties": {"line_id": "CAD_LINE_00020", "length_m": 5.303, "mean_confidence": 1.0, "num_vertices": 2, "is_ground_truth": true, "status": "Ground Truth"}, "geometry": {"type": "LineString", "coordinates": [[4.660144553304375, 52.295196306832956], [4.660090138429963, 52.29516226717733]]}}, {"id": "20", "type": "Feature", "properties": {"line_id": "CAD_LINE_00021", "length_m": 3.182, "mean_confidence": 1.0, "num_vertices": 2, "is_ground_truth": true, "status": "Ground Truth"}, "geometry": {"type": "LineString", "coordinates": [[4.660146421852785, 52.29440986688835], [4.660113773493216, 52.2943894430965]]}}, {"id": "21", "type": "Feature", "properties": {"line_id": "CAD_LINE_00022", "length_m": 4.596, "mean_confidence": 1.0, "num_vertices": 4, "is_ground_truth": true, "status": "Ground Truth"}, "geometry": {"type": "LineString", "coordinates": [[4.660105504902369, 52.29489496819109], [4.660138815094259, 52.29487494997811], [4.660142442729073, 52.294877219287876], [4.660153546119729, 52.29487054654774]]}}, {"id": "22", "type": "Feature", "properties": {"line_id": "CAD_LINE_00023", "length_m": 3.182, "mean_confidence": 1.0, "num_vertices": 2, "is_ground_truth": true, "status": "Ground Truth"}, "geometry": {"type": "LineString", "coordinates": [[4.660115432326248, 52.29496019235303], [4.66014874256271, 52.29494017413758]]}}, {"id": "23", "type": "Feature", "properties": {"line_id": "CAD_LINE_00024", "length_m": 7.778, "mean_confidence": 1.0, "num_vertices": 2, "is_ground_truth": true, "status": "Ground Truth"}, "geometry": {"type": "LineString", "coordinates": [[4.660146500948931, 52.29507722759899], [4.660227926099374, 52.29502829414672]]}}, {"id": "24", "type": "Feature", "properties": {"line_id": "CAD_LINE_00025", "length_m": 7.425, "mean_confidence": 1.0, "num_vertices": 4, "is_ground_truth": true, "status": "Ground Truth"}, "geometry": {"type": "LineString", "coordinates": [[4.660175789637217, 52.29485495428624], [4.6601868930173, 52.29484828154295], [4.660183265382564, 52.29484601223452], [4.660246184473257, 52.29480820000448]]}}, {"id": "25", "type": "Feature", "properties": {"line_id": "CAD_LINE_00026", "length_m": 4.243, "mean_confidence": 1.0, "num_vertices": 2, "is_ground_truth": true, "status": "Ground Truth"}, "geometry": {"type": "LineString", "coordinates": [[4.66018899767379, 52.294495514832725], [4.6602334108059615, 52.294468823845726]]}}, {"id": "26", "type": "Feature", "properties": {"line_id": "CAD_LINE_00027", "length_m": 2.828, "mean_confidence": 1.0, "num_vertices": 2, "is_ground_truth": true, "status": "Ground Truth"}, "geometry": {"type": "LineString", "coordinates": [[4.660179249838151, 52.29531561137494], [4.660208859150726, 52.295297817391734]]}}, {"id": "27", "type": "Feature", "properties": {"line_id": "CAD_LINE_00028", "length_m": 7.425, "mean_confidence": 1.0, "num_vertices": 2, "is_ground_truth": true, "status": "Ground Truth"}, "geometry": {"type": "LineString", "coordinates": [[4.66018554978302, 52.29537856621765], [4.660263274281788, 52.29533185699234]]}}, {"id": "28", "type": "Feature", "properties": {"line_id": "CAD_LINE_00029", "length_m": 5.303, "mean_confidence": 1.0, "num_vertices": 2, "is_ground_truth": true, "status": "Ground Truth"}, "geometry": {"type": "LineString", "coordinates": [[4.660257047718125, 52.295264408597056], [4.660202632674174, 52.29523036899333]]}}, {"id": "29", "type": "Feature", "properties": {"line_id": "CAD_LINE_00030", "length_m": 3.182, "mean_confidence": 1.0, "num_vertices": 2, "is_ground_truth": true, "status": "Ground Truth"}, "geometry": {"type": "LineString", "coordinates": [[4.660240205294018, 52.2949497244995], [4.660273515466584, 52.29492970624878]]}}, {"id": "30", "type": "Feature", "properties": {"line_id": "CAD_LINE_00031", "length_m": 4.95, "mean_confidence": 1.0, "num_vertices": 2, "is_ground_truth": true, "status": "Ground Truth"}, "geometry": {"type": "LineString", "coordinates": [[4.66031344678818, 52.29517712216239], [4.660262659470236, 52.29514535189015]]}}, {"id": "31", "type": "Feature", "properties": {"line_id": "CAD_LINE_00032", "length_m": 3.182, "mean_confidence": 1.0, "num_vertices": 2, "is_ground_truth": true, "status": "Ground Truth"}, "geometry": {"type": "LineString", "coordinates": [[4.660279421055018, 52.294792675307725], [4.660312731091921, 52.29477265704506]]}}, {"id": "32", "type": "Feature", "properties": {"line_id": "CAD_LINE_00033", "length_m": 3.182, "mean_confidence": 1.0, "num_vertices": 2, "is_ground_truth": true, "status": "Ground Truth"}, "geometry": {"type": "LineString", "coordinates": [[4.660285794552559, 52.29485113659517], [4.660319104630547, 52.29483111833101]]}}, {"id": "33", "type": "Feature", "properties": {"line_id": "CAD_LINE_00034", "length_m": 6.01, "mean_confidence": 1.0, "num_vertices": 2, "is_ground_truth": true, "status": "Ground Truth"}, "geometry": {"type": "LineString", "coordinates": [[4.660287181018687, 52.29499045936756], [4.660350100226342, 52.29495264708349]]}}, {"id": "34", "type": "Feature", "properties": {"line_id": "CAD_LINE_00035", "length_m": 8.839, "mean_confidence": 1.0, "num_vertices": 2, "is_ground_truth": true, "status": "Ground Truth"}, "geometry": {"type": "LineString", "coordinates": [[4.6602860420551755, 52.2950601094888], [4.660378570411536, 52.29500450317884]]}}, {"id": "35", "type": "Feature", "properties": {"line_id": "CAD_LINE_00036", "length_m": 14.142, "mean_confidence": 1.0, "num_vertices": 3, "is_ground_truth": true, "status": "Ground Truth"}, "geometry": {"type": "LineString", "coordinates": [[4.660295482512452, 52.29537924207617], [4.660373206897226, 52.295332532778424], [4.660442132957569, 52.295375649505864]]}}, {"id": "36", "type": "Feature", "properties": {"line_id": "CAD_LINE_00037", "length_m": 3.182, "mean_confidence": 1.0, "num_vertices": 2, "is_ground_truth": true, "status": "Ground Truth"}, "geometry": {"type": "LineString", "coordinates": [[4.660332770215344, 52.29489187144572], [4.6603660803028575, 52.29487185316852]]}}, {"id": "37", "type": "Feature", "properties": {"line_id": "CAD_LINE_00038", "length_m": 12.064, "mean_confidence": 1.0, "num_vertices": 5, "is_ground_truth": true, "status": "Ground Truth"}, "geometry": {"type": "LineString", "coordinates": [[4.660436934653373, 52.29524529133445], [4.660425941413109, 52.29524522376643], [4.660375153936925, 52.29521345354262], [4.660320738864444, 52.295179413992905], [4.660331842304132, 52.29517274123652]]}}, {"id": "38", "type": "Feature", "properties": {"line_id": "CAD_LINE_00039", "length_m": 10.96, "mean_confidence": 1.0, "num_vertices": 2, "is_ground_truth": true, "status": "Ground Truth"}, "geometry": {"type": "LineString", "coordinates": [[4.660352414678527, 52.29481110005736], [4.6604671490585705, 52.294742148152984]]}}, {"id": "39", "type": "Feature", "properties": {"line_id": "CAD_LINE_00040", "length_m": 8.839, "mean_confidence": 1.0, "num_vertices": 2, "is_ground_truth": true, "status": "Ground Truth"}, "geometry": {"type": "LineString", "coordinates": [[4.660351560370754, 52.29508747629664], [4.66044408870254, 52.295031869935585]]}}, {"id": "40", "type": "Feature", "properties": {"line_id": "CAD_LINE_00041", "length_m": 2.642, "mean_confidence": 1.0, "num_vertices": 3, "is_ground_truth": true, "status": "Ground Truth"}, "geometry": {"type": "LineString", "coordinates": [[4.660431892257198, 52.29488124570676], [4.660424783892087, 52.29486771999196], [4.660413900947698, 52.29486091208829]]}}, {"id": "41", "type": "Feature", "properties": {"line_id": "CAD_LINE_00042", "length_m": 3.182, "mean_confidence": 1.0, "num_vertices": 2, "is_ground_truth": true, "status": "Ground Truth"}, "geometry": {"type": "LineString", "coordinates": [[4.660409639757899, 52.29512153835599], [4.660442949983537, 52.295101520058246]]}}, {"id": "42", "type": "Feature", "properties": {"line_id": "CAD_LINE_00043", "length_m": 2.828, "mean_confidence": 1.0, "num_vertices": 2, "is_ground_truth": true, "status": "Ground Truth"}, "geometry": {"type": "LineString", "coordinates": [[4.6604699773581215, 52.29456914622097], [4.660440956356338, 52.29455099181932]]}}, {"id": "43", "type": "Feature", "properties": {"line_id": "CAD_LINE_00044", "length_m": 5.657, "mean_confidence": 1.0, "num_vertices": 2, "is_ground_truth": true, "status": "Ground Truth"}, "geometry": {"type": "LineString", "coordinates": [[4.660456367516169, 52.29495330026532], [4.660515585412209, 52.29491771214883]]}}, {"id": "44", "type": "Feature", "properties": {"line_id": "CAD_LINE_00045", "length_m": 3.182, "mean_confidence": 1.0, "num_vertices": 2, "is_ground_truth": true, "status": "Ground Truth"}, "geometry": {"type": "LineString", "coordinates": [[4.660456615819024, 52.295162273156016], [4.660489926054192, 52.29514225484522]]}}, {"id": "45", "type": "Feature", "properties": {"line_id": "CAD_LINE_00046", "length_m": 8.839, "mean_confidence": 1.0, "num_vertices": 2, "is_ground_truth": true, "status": "Ground Truth"}, "geometry": {"type": "LineString", "coordinates": [[4.660548327804747, 52.295380796162924], [4.660457635501437, 52.29532406369965]]}}, {"id": "46", "type": "Feature", "properties": {"line_id": "CAD_LINE_00047", "length_m": 3.182, "mean_confidence": 1.0, "num_vertices": 2, "is_ground_truth": true, "status": "Ground Truth"}, "geometry": {"type": "LineString", "coordinates": [[4.660503058188068, 52.29478730892838], [4.660536368120518, 52.294767290602486]]}}, {"id": "47", "type": "Feature", "properties": {"line_id": "CAD_LINE_00048", "length_m": 4.95, "mean_confidence": 1.0, "num_vertices": 2, "is_ground_truth": true, "status": "Ground Truth"}, "geometry": {"type": "LineString", "coordinates": [[4.660503343443149, 52.29499403504783], [4.660555159122189, 52.294962895427226]]}}, {"id": "48", "type": "Feature", "properties": {"line_id": "CAD_LINE_00049", "length_m": 3.182, "mean_confidence": 1.0, "num_vertices": 2, "is_ground_truth": true, "status": "Ground Truth"}, "geometry": {"type": "LineString", "coordinates": [[4.660502204818268, 52.29506368517174], [4.660535514958853, 52.295043666847555]]}}, {"id": "49", "type": "Feature", "properties": {"line_id": "CAD_LINE_00050", "length_m": 3.182, "mean_confidence": 1.0, "num_vertices": 2, "is_ground_truth": true, "status": "Ground Truth"}, "geometry": {"type": "LineString", "coordinates": [[4.66054494560071, 52.294690945177564], [4.660578255441915, 52.294670926839345]]}}, {"id": "50", "type": "Feature", "properties": {"line_id": "CAD_LINE_00051", "length_m": 3.182, "mean_confidence": 1.0, "num_vertices": 2, "is_ground_truth": true, "status": "Ground Truth"}, "geometry": {"type": "LineString", "coordinates": [[4.6605574361951545, 52.294823595174435], [4.660590746130462, 52.29480357683342]]}}, {"id": "51", "type": "Feature", "properties": {"line_id": "CAD_LINE_00052", "length_m": 10.801, "mean_confidence": 1.0, "num_vertices": 3, "is_ground_truth": true, "status": "Ground Truth"}, "geometry": {"type": "LineString", "coordinates": [[4.660567723272802, 52.29509105185996], [4.660671354695224, 52.295028772540725], [4.660664136068802, 52.29502198717532]]}}, {"id": "52", "type": "Feature", "properties": {"line_id": "CAD_LINE_00053", "length_m": 3.018, "mean_confidence": 1.0, "num_vertices": 3, "is_ground_truth": true, "status": "Ground Truth"}, "geometry": {"type": "LineString", "coordinates": [[4.660595577590112, 52.294956402792415], [4.660584731323439, 52.294947348126264], [4.66060323689163, 52.29493622682292]]}}, {"id": "53", "type": "Feature", "properties": {"line_id": "CAD_LINE_00054", "length_m": 3.536, "mean_confidence": 1.0, "num_vertices": 2, "is_ground_truth": true, "status": "Ground Truth"}, "geometry": {"type": "LineString", "coordinates": [[4.660629569453185, 52.295343096327464], [4.660593292493151, 52.295320403375285]]}}, {"id": "54", "type": "Feature", "properties": {"line_id": "CAD_LINE_00055", "length_m": 2.828, "mean_confidence": 1.0, "num_vertices": 2, "is_ground_truth": true, "status": "Ground Truth"}, "geometry": {"type": "LineString", "coordinates": [[4.660614164627288, 52.29471608758173], [4.660643773365678, 52.29469829348648]]}}, {"id": "55", "type": "Feature", "properties": {"line_id": "CAD_LINE_00056", "length_m": 4.243, "mean_confidence": 1.0, "num_vertices": 2, "is_ground_truth": true, "status": "Ground Truth"}, "geometry": {"type": "LineString", "coordinates": [[4.660619253225848, 52.294853186094294], [4.660663666458904, 52.294826494947706]]}}, {"id": "56", "type": "Feature", "properties": {"line_id": "CAD_LINE_00057", "length_m": 2.828, "mean_confidence": 1.0, "num_vertices": 3, "is_ground_truth": true, "status": "Ground Truth"}, "geometry": {"type": "LineString", "coordinates": [[4.660662220907676, 52.29424226499979], [4.660654818803319, 52.29424671352594], [4.660633053150382, 52.29423309775877]]}}, {"id": "57", "type": "Feature", "properties": {"line_id": "CAD_LINE_00058", "length_m": 10.253, "mean_confidence": 1.0, "num_vertices": 2, "is_ground_truth": true, "status": "Ground Truth"}, "geometry": {"type": "LineString", "coordinates": [[4.66062206497934, 52.29512958485316], [4.660729397533327, 52.29506508122194]]}}, {"id": "58", "type": "Feature", "properties": {"line_id": "CAD_LINE_00059", "length_m": 3.182, "mean_confidence": 1.0, "num_vertices": 2, "is_ground_truth": true, "status": "Ground Truth"}, "geometry": {"type": "LineString", "coordinates": [[4.660650000441258, 52.29476574186964], [4.660683310291512, 52.29474572350213]]}}, {"id": "59", "type": "Feature", "properties": {"line_id": "CAD_LINE_00060", "length_m": 5.303, "mean_confidence": 1.0, "num_vertices": 2, "is_ground_truth": true, "status": "Ground Truth"}, "geometry": {"type": "LineString", "coordinates": [[4.660710429659314, 52.29465600996631], [4.660656015009689, 52.29462197056807]]}}, {"id": "60", "type": "Feature", "properties": {"line_id": "CAD_LINE_00061", "length_m": 3.182, "mean_confidence": 1.0, "num_vertices": 2, "is_ground_truth": true, "status": "Ground Truth"}, "geometry": {"type": "LineString", "coordinates": [[4.660662491369234, 52.294898391854176], [4.660695801313591, 52.294878373483805]]}}, {"id": "61", "type": "Feature", "properties": {"line_id": "CAD_LINE_00062", "length_m": 3.889, "mean_confidence": 1.0, "num_vertices": 2, "is_ground_truth": true, "status": "Ground Truth"}, "geometry": {"type": "LineString", "coordinates": [[4.660722920738453, 52.29478865994752], [4.660763632754613, 52.29476419302756]]}}, {"id": "62", "type": "Feature", "properties": {"line_id": "CAD_LINE_00063", "length_m": 4.243, "mean_confidence": 1.0, "num_vertices": 2, "is_ground_truth": true, "status": "Ground Truth"}, "geometry": {"type": "LineString", "coordinates": [[4.660728046398066, 52.29492351167584], [4.660772459636473, 52.29489682048875]]}}, {"id": "63", "type": "Feature", "properties": {"line_id": "CAD_LINE_00064", "length_m": 9.899, "mean_confidence": 1.0, "num_vertices": 2, "is_ground_truth": true, "status": "Ground Truth"}, "geometry": {"type": "LineString", "coordinates": [[4.660755342061601, 52.295047264586884], [4.660858973119519, 52.29498498510197]]}}, {"id": "64", "type": "Feature", "properties": {"line_id": "CAD_LINE_00065", "length_m": 2.828, "mean_confidence": 1.0, "num_vertices": 2, "is_ground_truth": true, "status": "Ground Truth"}, "geometry": {"type": "LineString", "coordinates": [[4.660774985827228, 52.29496649312933], [4.6608045946687415, 52.29494869899488]]}}, {"id": "65", "type": "Feature", "properties": {"line_id": "CAD_LINE_00066", "length_m": 5.303, "mean_confidence": 1.0, "num_vertices": 2, "is_ground_truth": true, "status": "Ground Truth"}, "geometry": {"type": "LineString", "coordinates": [[4.660881002855371, 52.29475817302803], [4.660826587950023, 52.29472413370848]]}}, {"id": "66", "type": "Feature", "properties": {"line_id": "CAD_LINE_00067", "length_m": 3.889, "mean_confidence": 1.0, "num_vertices": 2, "is_ground_truth": true, "status": "Ground Truth"}, "geometry": {"type": "LineString", "coordinates": [[4.6608317139177275, 52.2948589854345], [4.660872425938791, 52.29483451847741]]}}, {"id": "67", "type": "Feature", "properties": {"line_id": "CAD_LINE_00068", "length_m": 3.182, "mean_confidence": 1.0, "num_vertices": 2, "is_ground_truth": true, "status": "Ground Truth"}, "geometry": {"type": "LineString", "coordinates": [[4.660882391185936, 52.29489749579935], [4.66091570103088, 52.294877477366875]]}}, {"id": "68", "type": "Feature", "properties": {"line_id": "CAD_LINE_00069", "length_m": 2.876, "mean_confidence": 1.0, "num_vertices": 3, "is_ground_truth": true, "status": "Ground Truth"}, "geometry": {"type": "LineString", "coordinates": [[4.660904150681454, 52.29513581186323], [4.66090066982592, 52.29512455546359], [4.660886195763603, 52.29511323153865]]}}, {"id": "69", "type": "Feature", "properties": {"line_id": "CAD_LINE_00070", "length_m": 2.5, "mean_confidence": 1.0, "num_vertices": 2, "is_ground_truth": true, "status": "Ground Truth"}, "geometry": {"type": "LineString", "coordinates": [[4.661114983255118, 52.29434391429876], [4.6611445181516595, 52.2943306136335]]}}, {"id": "70", "type": "Feature", "properties": {"line_id": "CAD_LINE_00071", "length_m": 6.394, "mean_confidence": 1.0, "num_vertices": 5, "is_ground_truth": true, "status": "Ground Truth"}, "geometry": {"type": "LineString", "coordinates": [[4.661136030338537, 52.29529902018569], [4.661118001839176, 52.295280933453455], [4.661092607823575, 52.29526504849253], [4.661103711169188, 52.29525837566359], [4.661103784568587, 52.295253882106934]]}}, {"id": "71", "type": "Feature", "properties": {"line_id": "CAD_LINE_00072", "length_m": 2.574, "mean_confidence": 1.0, "num_vertices": 2, "is_ground_truth": true, "status": "Ground Truth"}, "geometry": {"type": "LineString", "coordinates": [[4.661201476141639, 52.295330880079476], [4.661168679835391, 52.29531944369378]]}}, {"id": "72", "type": "Feature", "properties": {"line_id": "CAD_LINE_00073", "length_m": 2.915, "mean_confidence": 1.0, "num_vertices": 2, "is_ground_truth": true, "status": "Ground Truth"}, "geometry": {"type": "LineString", "coordinates": [[4.661444737151198, 52.29434818574006], [4.661408313850082, 52.29433448014986]]}}, {"id": "73", "type": "Feature", "properties": {"line_id": "CAD_LINE_00074", "length_m": 5.657, "mean_confidence": 1.0, "num_vertices": 2, "is_ground_truth": true, "status": "Ground Truth"}, "geometry": {"type": "LineString", "coordinates": [[4.661467045913749, 52.29477750041293], [4.6614090028456605, 52.294741192091436]]}}, {"id": "74", "type": "Feature", "properties": {"line_id": "CAD_LINE_00075", "length_m": 2.61, "mean_confidence": 1.0, "num_vertices": 2, "is_ground_truth": true, "status": "Ground Truth"}, "geometry": {"type": "LineString", "coordinates": [[4.661458367449214, 52.29441118551169], [4.661447741227229, 52.294388650250546]]}}, {"id": "75", "type": "Feature", "properties": {"line_id": "CAD_LINE_00076", "length_m": 3.889, "mean_confidence": 1.0, "num_vertices": 2, "is_ground_truth": true, "status": "Ground Truth"}, "geometry": {"type": "LineString", "coordinates": [[4.661490462672413, 52.29469001098402], [4.661531174176699, 52.29466554379835]]}}, {"id": "76", "type": "Feature", "properties": {"line_id": "CAD_LINE_00077", "length_m": 3.182, "mean_confidence": 1.0, "num_vertices": 2, "is_ground_truth": true, "status": "Ground Truth"}, "geometry": {"type": "LineString", "coordinates": [[4.66154850574061, 52.29472631926589], [4.661581815157769, 52.29470630064424]]}}, {"id": "77", "type": "Feature", "properties": {"line_id": "CAD_LINE_00078", "length_m": 2.828, "mean_confidence": 1.0, "num_vertices": 2, "is_ground_truth": true, "status": "Ground Truth"}, "geometry": {"type": "LineString", "coordinates": [[4.661583025428496, 52.29463215694447], [4.661612633724091, 52.29461436260547]]}}, {"id": "78", "type": "Feature", "properties": {"line_id": "CAD_LINE_00079", "length_m": 5.303, "mean_confidence": 1.0, "num_vertices": 2, "is_ground_truth": true, "status": "Ground Truth"}, "geometry": {"type": "LineString", "coordinates": [[4.661637657991608, 52.29487741560595], [4.661583242359485, 52.29484337663408]]}}, {"id": "79", "type": "Feature", "properties": {"line_id": "CAD_LINE_00080", "length_m": 2.828, "mean_confidence": 1.0, "num_vertices": 2, "is_ground_truth": true, "status": "Ground Truth"}, "geometry": {"type": "LineString", "coordinates": [[4.661606585577384, 52.29476038074041], [4.661636193949253, 52.29474258639612]]}}]}