{"type": "FeatureCollection", "features": [{"id": "0", "type": "Feature", "properties": {"line_id": "CAD_LINE_00001", "length_m": 2.761, "mean_confidence": 1.0, "num_vertices": 2, "is_ground_truth": true, "status": "Ground Truth"}, "geometry": {"type": "LineString", "coordinates": [[6.005881103556345, 50.845264881457496], [6.005920115459239, 50.845262425403625]]}}, {"id": "1", "type": "Feature", "properties": {"line_id": "CAD_LINE_00002", "length_m": 5.025, "mean_confidence": 1.0, "num_vertices": 2, "is_ground_truth": true, "status": "Ground Truth"}, "geometry": {"type": "LineString", "coordinates": [[6.005881913684582, 50.845325552810095], [6.005952839050706, 50.845320678685745]]}}, {"id": "2", "type": "Feature", "properties": {"line_id": "CAD_LINE_00003", "length_m": 31.257, "mean_confidence": 1.0, "num_vertices": 7, "is_ground_truth": true, "status": "Ground Truth"}, "geometry": {"type": "LineString", "coordinates": [[6.005882633800637, 50.84537948290132], [6.005956958479698, 50.8453633543422], [6.005967636304719, 50.84536554443264], [6.005992421189518, 50.845360917262425], [6.006038546716578, 50.845359546712125], [6.006120164956183, 50.84535798611154], [6.006318713973941, 50.84534119212283]]}}, {"id": "3", "type": "Feature", "properties": {"line_id": "CAD_LINE_00004", "length_m": 7.814, "mean_confidence": 1.0, "num_vertices": 2, "is_ground_truth": true, "status": "Ground Truth"}, "geometry": {"type": "LineString", "coordinates": [[6.005891155321328, 50.84601765565303], [6.006001064262019, 50.84600807835171]]}}, {"id": "4", "type": "Feature", "properties": {"line_id": "CAD_LINE_00005", "length_m": 11.774, "mean_confidence": 1.0, "num_vertices": 3, "is_ground_truth": true, "status": "Ground Truth"}, "geometry": {"type": "LineString", "coordinates": [[6.005903543661726, 50.846147929718114], [6.005985133284069, 50.84614412212332], [6.006070272224222, 50.84614029546871]]}}, {"id": "5", "type": "Feature", "properties": {"line_id": "CAD_LINE_00006", "length_m": 5.506, "mean_confidence": 1.0, "num_vertices": 3, "is_ground_truth": true, "status": "Ground Truth"}, "geometry": {"type": "LineString", "coordinates": [[6.005903770836774, 50.84563330876423], [6.0059427980524775, 50.845631976245706], [6.005981825265881, 50.84563064371398]]}}, {"id": "6", "type": "Feature", "properties": {"line_id": "CAD_LINE_00007", "length_m": 9.78, "mean_confidence": 1.0, "num_vertices": 3, "is_ground_truth": true, "status": "Ground Truth"}, "geometry": {"type": "LineString", "coordinates": [[6.005979514513633, 50.84545761800629], [6.005973500379909, 50.84540596350185], [6.005967696322695, 50.84537003860685]]}}, {"id": "7", "type": "Feature", "properties": {"line_id": "CAD_LINE_00008", "length_m": 17.601, "mean_confidence": 1.0, "num_vertices": 5, "is_ground_truth": true, "status": "Ground Truth"}, "geometry": {"type": "LineString", "coordinates": [[6.0060145191852525, 50.8456866498916], [6.006010369661979, 50.845641727149875], [6.00600309100973, 50.84562828262781], [6.006000716147419, 50.84558335038567], [6.005994671962722, 50.8455294487951]]}}, {"id": "8", "type": "Feature", "properties": {"line_id": "CAD_LINE_00009", "length_m": 17.893, "mean_confidence": 1.0, "num_vertices": 3, "is_ground_truth": true, "status": "Ground Truth"}, "geometry": {"type": "LineString", "coordinates": [[6.006188697965792, 50.84597111779708], [6.006058832694485, 50.84594821702576], [6.006048953953127, 50.84587298711202]]}}, {"id": "9", "type": "Feature", "properties": {"line_id": "CAD_LINE_00010", "length_m": 26.107, "mean_confidence": 1.0, "num_vertices": 4, "is_ground_truth": true, "status": "Ground Truth"}, "geometry": {"type": "LineString", "coordinates": [[6.006252021829121, 50.84566290574112], [6.006173967361998, 50.845665570973836], [6.006164523767508, 50.84562292383298], [6.006143111547677, 50.845481461874954]]}}, {"id": "10", "type": "Feature", "properties": {"line_id": "CAD_LINE_00011", "length_m": 3.536, "mean_confidence": 1.0, "num_vertices": 2, "is_ground_truth": true, "status": "Ground Truth"}, "geometry": {"type": "LineString", "coordinates": [[6.00622296025326, 50.845878797163294], [6.00621544133048, 50.84584737595825]]}}, {"id": "11", "type": "Feature", "properties": {"line_id": "CAD_LINE_00012", "length_m": 10.527, "mean_confidence": 1.0, "num_vertices": 3, "is_ground_truth": true, "status": "Ground Truth"}, "geometry": {"type": "LineString", "coordinates": [[6.006241337286603, 50.84592589095511], [6.006305179916294, 50.84592217817147], [6.0063903184213805, 50.84591835128193]]}}, {"id": "12", "type": "Feature", "properties": {"line_id": "CAD_LINE_00013", "length_m": 18.065, "mean_confidence": 1.0, "num_vertices": 4, "is_ground_truth": true, "status": "Ground Truth"}, "geometry": {"type": "LineString", "coordinates": [[6.006247158143025, 50.84529887764437], [6.006286185066791, 50.84529754501043], [6.0063287462417145, 50.8452950698098], [6.006502525143604, 50.84528402629165]]}}, {"id": "13", "type": "Feature", "properties": {"line_id": "CAD_LINE_00014", "length_m": 6.25, "mean_confidence": 1.0, "num_vertices": 2, "is_ground_truth": true, "status": "Ground Truth"}, "geometry": {"type": "LineString", "coordinates": [[6.00635593632515, 50.84600168361681], [6.0062705424582346, 50.845986410241444]]}}, {"id": "14", "type": "Feature", "properties": {"line_id": "CAD_LINE_00015", "length_m": 14.675, "mean_confidence": 1.0, "num_vertices": 3, "is_ground_truth": true, "status": "Ground Truth"}, "geometry": {"type": "LineString", "coordinates": [[6.006320791966372, 50.84523106585089], [6.006409418401573, 50.845222725765694], [6.006526378815136, 50.84520973931278]]}}, {"id": "15", "type": "Feature", "properties": {"line_id": "CAD_LINE_00016", "length_m": 22.052, "mean_confidence": 1.0, "num_vertices": 4, "is_ground_truth": true, "status": "Ground Truth"}, "geometry": {"type": "LineString", "coordinates": [[6.006364398122306, 50.84557241395571], [6.006358353516203, 50.84551851238488], [6.006346504566125, 50.84542868593823], [6.006340460000282, 50.8453747843666]]}}, {"id": "16", "type": "Feature", "properties": {"line_id": "CAD_LINE_00017", "length_m": 4.981, "mean_confidence": 1.0, "num_vertices": 2, "is_ground_truth": true, "status": "Ground Truth"}, "geometry": {"type": "LineString", "coordinates": [[6.006473394280501, 50.84602577414945], [6.0064057769682755, 50.84601265288638]]}}, {"id": "17", "type": "Feature", "properties": {"line_id": "CAD_LINE_00018", "length_m": 20.335, "mean_confidence": 1.0, "num_vertices": 4, "is_ground_truth": true, "status": "Ground Truth"}, "geometry": {"type": "LineString", "coordinates": [[6.00646743691956, 50.846111201483716], [6.006552575757917, 50.84610737447413], [6.00659870201028, 50.84610600369915], [6.006754722224049, 50.84609393134444]]}}, {"id": "18", "type": "Feature", "properties": {"line_id": "CAD_LINE_00019", "length_m": 10.05, "mean_confidence": 1.0, "num_vertices": 2, "is_ground_truth": true, "status": "Ground Truth"}, "geometry": {"type": "LineString", "coordinates": [[6.006482485710276, 50.84564369330713], [6.0066243372714165, 50.84563394427676]]}}, {"id": "19", "type": "Feature", "properties": {"line_id": "CAD_LINE_00020", "length_m": 3.64, "mean_confidence": 1.0, "num_vertices": 2, "is_ground_truth": true, "status": "Ground Truth"}, "geometry": {"type": "LineString", "coordinates": [[6.006541011630861, 50.84603889537291], [6.00649120096266, 50.846030173248714]]}}, {"id": "20", "type": "Feature", "properties": {"line_id": "CAD_LINE_00021", "length_m": 15.301, "mean_confidence": 1.0, "num_vertices": 2, "is_ground_truth": true, "status": "Ground Truth"}, "geometry": {"type": "LineString", "coordinates": [[6.006503776334989, 50.84590875449124], [6.006720134221897, 50.84589635890379]]}}, {"id": "21", "type": "Feature", "properties": {"line_id": "CAD_LINE_00022", "length_m": 6.25, "mean_confidence": 1.0, "num_vertices": 3, "is_ground_truth": true, "status": "Ground Truth"}, "geometry": {"type": "LineString", "coordinates": [[6.0066442123903485, 50.84605856762389], [6.006601515350388, 50.84605093105071], [6.00655881832444, 50.84604329446174]]}}, {"id": "22", "type": "Feature", "properties": {"line_id": "CAD_LINE_00023", "length_m": 5.755, "mean_confidence": 1.0, "num_vertices": 3, "is_ground_truth": true, "status": "Ground Truth"}, "geometry": {"type": "LineString", "coordinates": [[6.0065669225702925, 50.845321884473], [6.006609498772164, 50.84532053271244], [6.006648525703224, 50.84531919995618]]}}, {"id": "23", "type": "Feature", "properties": {"line_id": "CAD_LINE_00024", "length_m": 11.597, "mean_confidence": 1.0, "num_vertices": 2, "is_ground_truth": true, "status": "Ground Truth"}, "geometry": {"type": "LineString", "coordinates": [[6.006572429079634, 50.845202750832584], [6.00673551473139, 50.84518839338697]]}}, {"id": "24", "type": "Feature", "properties": {"line_id": "CAD_LINE_00025", "length_m": 13.038, "mean_confidence": 1.0, "num_vertices": 2, "is_ground_truth": true, "status": "Ground Truth"}, "geometry": {"type": "LineString", "coordinates": [[6.0066275561105185, 50.84560920730163], [6.00661179684712, 50.84549243485943]]}}, {"id": "25", "type": "Feature", "properties": {"line_id": "CAD_LINE_00026", "length_m": 12.023, "mean_confidence": 1.0, "num_vertices": 3, "is_ground_truth": true, "status": "Ground Truth"}, "geometry": {"type": "LineString", "coordinates": [[6.006615981481222, 50.84527442939367], [6.006701118769993, 50.84527060227744], [6.006786256044436, 50.845266775098565]]}}, {"id": "26", "type": "Feature", "properties": {"line_id": "CAD_LINE_00027", "length_m": 3.64, "mean_confidence": 1.0, "num_vertices": 2, "is_ground_truth": true, "status": "Ground Truth"}, "geometry": {"type": "LineString", "coordinates": [[6.006711829836532, 50.84607168874732], [6.006662019101222, 50.84606296669682]]}}, {"id": "27", "type": "Feature", "properties": {"line_id": "CAD_LINE_00028", "length_m": 15.283, "mean_confidence": 1.0, "num_vertices": 3, "is_ground_truth": true, "status": "Ground Truth"}, "geometry": {"type": "LineString", "coordinates": [[6.006684705285351, 50.84563586802074], [6.006670780596838, 50.84552358024997], [6.006668675480719, 50.84549887180467]]}}, {"id": "28", "type": "Feature", "properties": {"line_id": "CAD_LINE_00029", "length_m": 5.506, "mean_confidence": 1.0, "num_vertices": 3, "is_ground_truth": true, "status": "Ground Truth"}, "geometry": {"type": "LineString", "coordinates": [[6.0067348723110925, 50.845936730377815], [6.0067327671411075, 50.84591202193352], [6.006730661973425, 50.84588731348914]]}}, {"id": "29", "type": "Feature", "properties": {"line_id": "CAD_LINE_00030", "length_m": 7.291, "mean_confidence": 1.0, "num_vertices": 3, "is_ground_truth": true, "status": "Ground Truth"}, "geometry": {"type": "LineString", "coordinates": [[6.006761550446242, 50.846073669515725], [6.006755895931418, 50.8460489800952], [6.006750031090319, 50.846008561066284]]}}, {"id": "30", "type": "Feature", "properties": {"line_id": "CAD_LINE_00031", "length_m": 11.339, "mean_confidence": 1.0, "num_vertices": 2, "is_ground_truth": true, "status": "Ground Truth"}, "geometry": {"type": "LineString", "coordinates": [[6.006928819606451, 50.846106481592585], [6.006772318618581, 50.846082600792165]]}}, {"id": "31", "type": "Feature", "properties": {"line_id": "CAD_LINE_00032", "length_m": 54.909, "mean_confidence": 1.0, "num_vertices": 7, "is_ground_truth": true, "status": "Ground Truth"}, "geometry": {"type": "LineString", "coordinates": [[6.0067868870655765, 50.845313963921804], [6.006792721799369, 50.84535213586138], [6.006816391384797, 50.845529541572034], [6.006837655424842, 50.84565976796795], [6.006905076987471, 50.84565828291474], [6.007007946395344, 50.845653236887344], [6.0070682693555915, 50.84565178980087]]}}, {"id": "32", "type": "Feature", "properties": {"line_id": "CAD_LINE_00033", "length_m": 25.048, "mean_confidence": 1.0, "num_vertices": 3, "is_ground_truth": true, "status": "Ground Truth"}, "geometry": {"type": "LineString", "coordinates": [[6.006856039248673, 50.8451765111217], [6.00699079078702, 50.84516679969681], [6.007206964663682, 50.84514092068442]]}}, {"id": "33", "type": "Feature", "properties": {"line_id": "CAD_LINE_00034", "length_m": 7.267, "mean_confidence": 1.0, "num_vertices": 2, "is_ground_truth": true, "status": "Ground Truth"}, "geometry": {"type": "LineString", "coordinates": [[6.006917969531271, 50.84529528325793], [6.007020838132158, 50.845290237220446]]}}, {"id": "34", "type": "Feature", "properties": {"line_id": "CAD_LINE_00035", "length_m": 3.64, "mean_confidence": 1.0, "num_vertices": 2, "is_ground_truth": true, "status": "Ground Truth"}, "geometry": {"type": "LineString", "coordinates": [[6.006996437202469, 50.84611960254934], [6.006946626362585, 50.84611088062159]]}}, {"id": "35", "type": "Feature", "properties": {"line_id": "CAD_LINE_00036", "length_m": 19.855, "mean_confidence": 1.0, "num_vertices": 3, "is_ground_truth": true, "status": "Ground Truth"}, "geometry": {"type": "LineString", "coordinates": [[6.007069413638772, 50.845472003828654], [6.007055728563198, 50.84537769280014], [6.007038644583028, 50.84529463623576]]}}, {"id": "36", "type": "Feature", "properties": {"line_id": "CAD_LINE_00037", "length_m": 3.162, "mean_confidence": 1.0, "num_vertices": 2, "is_ground_truth": true, "status": "Ground Truth"}, "geometry": {"type": "LineString", "coordinates": [[6.0070530761606875, 50.84610806260983], [6.007066912719524, 50.84608102143777]]}}, {"id": "37", "type": "Feature", "properties": {"line_id": "CAD_LINE_00038", "length_m": 3.162, "mean_confidence": 1.0, "num_vertices": 2, "is_ground_truth": true, "status": "Ground Truth"}, "geometry": {"type": "LineString", "coordinates": [[6.007110346455952, 50.846143711464585], [6.007067634229927, 50.846134951520376]]}}, {"id": "38", "type": "Feature", "properties": {"line_id": "CAD_LINE_00039", "length_m": 6.325, "mean_confidence": 1.0, "num_vertices": 2, "is_ground_truth": true, "status": "Ground Truth"}, "geometry": {"type": "LineString", "coordinates": [[6.007084238459154, 50.84604946705728], [6.007111911489648, 50.84599538470436]]}}, {"id": "39", "type": "Feature", "properties": {"line_id": "CAD_LINE_00040", "length_m": 42.904, "mean_confidence": 1.0, "num_vertices": 8, "is_ground_truth": true, "status": "Ground Truth"}, "geometry": {"type": "LineString", "coordinates": [[6.007146472620661, 50.845925534667444], [6.00713931385926, 50.84592107856438], [6.007125568373964, 50.84582227336992], [6.007113717857078, 50.84573244700387], [6.0071113419123545, 50.845687514786285], [6.0071001829328665, 50.84564937141385], [6.007101837322648, 50.845640373549976], [6.007084572781252, 50.8455438344717]]}}, {"id": "40", "type": "Feature", "properties": {"line_id": "CAD_LINE_00041", "length_m": 3.4, "mean_confidence": 1.0, "num_vertices": 2, "is_ground_truth": true, "status": "Ground Truth"}, "geometry": {"type": "LineString", "coordinates": [[6.007129237166844, 50.845963830317274], [6.007143043572043, 50.84593454204967]]}}, {"id": "41", "type": "Feature", "properties": {"line_id": "CAD_LINE_00042", "length_m": 3.64, "mean_confidence": 1.0, "num_vertices": 2, "is_ground_truth": true, "status": "Ground Truth"}, "geometry": {"type": "LineString", "coordinates": [[6.007153450981687, 50.845916508249665], [6.007167227290009, 50.84588497289252]]}}, {"id": "42", "type": "Feature", "properties": {"line_id": "CAD_LINE_00043", "length_m": 6.824, "mean_confidence": 1.0, "num_vertices": 3, "is_ground_truth": true, "status": "Ground Truth"}, "geometry": {"type": "LineString", "coordinates": [[6.007243267292332, 50.84573175218009], [6.007189576770859, 50.84569833144106], [6.0071682509212945, 50.845696198572]]}}, {"id": "43", "type": "Feature", "properties": {"line_id": "CAD_LINE_00044", "length_m": 3.64, "mean_confidence": 1.0, "num_vertices": 2, "is_ground_truth": true, "status": "Ground Truth"}, "geometry": {"type": "LineString", "coordinates": [[6.007174175572998, 50.845873699386814], [6.007187951854604, 50.845842164027246]]}}, {"id": "44", "type": "Feature", "properties": {"line_id": "CAD_LINE_00045", "length_m": 7.117, "mean_confidence": 1.0, "num_vertices": 3, "is_ground_truth": true, "status": "Ground Truth"}, "geometry": {"type": "LineString", "coordinates": [[6.007183412796614, 50.84523767866847], [6.007247269436305, 50.84523508890978], [6.007282671833223, 50.84522815726127]]}}, {"id": "45", "type": "Feature", "properties": {"line_id": "CAD_LINE_00046", "length_m": 2.61, "mean_confidence": 1.0, "num_vertices": 2, "is_ground_truth": true, "status": "Ground Truth"}, "geometry": {"type": "LineString", "coordinates": [[6.007194900126173, 50.84583089052031], [6.007205247353778, 50.84580836254239]]}}, {"id": "46", "type": "Feature", "properties": {"line_id": "CAD_LINE_00047", "length_m": 2.926, "mean_confidence": 1.0, "num_vertices": 2, "is_ground_truth": true, "status": "Ground Truth"}, "geometry": {"type": "LineString", "coordinates": [[6.0072642022235945, 50.84570467290843], [6.007278068612495, 50.84567987879855]]}}, {"id": "47", "type": "Feature", "properties": {"line_id": "CAD_LINE_00048", "length_m": 3.953, "mean_confidence": 1.0, "num_vertices": 2, "is_ground_truth": true, "status": "Ground Truth"}, "geometry": {"type": "LineString", "coordinates": [[6.007291965060044, 50.84565733177365], [6.007309260414886, 50.84562353027364]]}}, {"id": "48", "type": "Feature", "properties": {"line_id": "CAD_LINE_00049", "length_m": 25.487, "mean_confidence": 1.0, "num_vertices": 8, "is_ground_truth": true, "status": "Ground Truth"}, "geometry": {"type": "LineString", "coordinates": [[6.0073080579892535, 50.84526847154233], [6.007389600827325, 50.845261292329496], [6.007400278695946, 50.84526348228755], [6.007446328880557, 50.845256493459395], [6.007481821510679, 50.84525630300966], [6.007499658075126, 50.84526294904046], [6.007620543655255, 50.845278031017074], [6.007659705929269, 50.84528680980904]]}}, {"id": "49", "type": "Feature", "properties": {"line_id": "CAD_LINE_00050", "length_m": 3.953, "mean_confidence": 1.0, "num_vertices": 2, "is_ground_truth": true, "status": "Ground Truth"}, "geometry": {"type": "LineString", "coordinates": [[6.007326585819657, 50.845591975857765], [6.007343881125039, 50.84555817435273]]}}, {"id": "50", "type": "Feature", "properties": {"line_id": "CAD_LINE_00051", "length_m": 3.953, "mean_confidence": 1.0, "num_vertices": 2, "is_ground_truth": true, "status": "Ground Truth"}, "geometry": {"type": "LineString", "coordinates": [[6.007395165224658, 50.846207353890996], [6.007341774804528, 50.84619640409]]}}, {"id": "51", "type": "Feature", "properties": {"line_id": "CAD_LINE_00052", "length_m": 17.229, "mean_confidence": 1.0, "num_vertices": 3, "is_ground_truth": true, "status": "Ground Truth"}, "geometry": {"type": "LineString", "coordinates": [[6.007345565702817, 50.84541883593954], [6.007372816975149, 50.845333294313455], [6.00740033885267, 50.845267976460754]]}}, {"id": "52", "type": "Feature", "properties": {"line_id": "CAD_LINE_00053", "length_m": 2.926, "mean_confidence": 1.0, "num_vertices": 2, "is_ground_truth": true, "status": "Ground Truth"}, "geometry": {"type": "LineString", "coordinates": [[6.007655079205609, 50.846266634800855], [6.007615916103719, 50.846257856008535]]}}, {"id": "53", "type": "Feature", "properties": {"line_id": "CAD_LINE_00054", "length_m": 17.681, "mean_confidence": 1.0, "num_vertices": 5, "is_ground_truth": true, "status": "Ground Truth"}, "geometry": {"type": "LineString", "coordinates": [[6.007697606006323, 50.84546638621501], [6.007628214528346, 50.84545327519228], [6.0076297785398305, 50.84543753606144], [6.007631312460585, 50.845419549844095], [6.007646231035677, 50.84534081608879]]}}, {"id": "54", "type": "Feature", "properties": {"line_id": "CAD_LINE_00055", "length_m": 9.644, "mean_confidence": 1.0, "num_vertices": 4, "is_ground_truth": true, "status": "Ground Truth"}, "geometry": {"type": "LineString", "coordinates": [[6.007655404395516, 50.84523065169687], [6.007640786091929, 50.845199268688056], [6.00763531175563, 50.84518806183086], [6.007693603674392, 50.8451675237089]]}}]}