{"type": "FeatureCollection", "features": [{"id": "0", "type": "Feature", "properties": {"line_id": "CAD_LINE_00001", "length_m": 9.018, "mean_confidence": 1.0, "num_vertices": 3, "is_ground_truth": true, "status": "Ground Truth"}, "geometry": {"type": "LineString", "coordinates": [[5.60661427403724, 52.20084408385817], [5.606676424154387, 52.20084059777973], [5.6067458990701695, 52.200839345007026]]}}, {"id": "1", "type": "Feature", "properties": {"line_id": "CAD_LINE_00002", "length_m": 4.507, "mean_confidence": 1.0, "num_vertices": 2, "is_ground_truth": true, "status": "Ground Truth"}, "geometry": {"type": "LineString", "coordinates": [[5.606682301310211, 52.2012911045596], [5.606616465985606, 52.20128898006736]]}}, {"id": "2", "type": "Feature", "properties": {"line_id": "CAD_LINE_00003", "length_m": 38.869, "mean_confidence": 1.0, "num_vertices": 4, "is_ground_truth": true, "status": "Ground Truth"}, "geometry": {"type": "LineString", "coordinates": [[5.607183785371729, 52.20138903713039], [5.607096002866956, 52.20138583034718], [5.606759478456385, 52.20136848143513], [5.6066168313152325, 52.20136312943211]]}}, {"id": "3", "type": "Feature", "properties": {"line_id": "CAD_LINE_00004", "length_m": 11.253, "mean_confidence": 1.0, "num_vertices": 3, "is_ground_truth": true, "status": "Ground Truth"}, "geometry": {"type": "LineString", "coordinates": [[5.606660326673891, 52.20128440453171], [5.606661966886415, 52.201246202971994], [5.6066634852940895, 52.20118328495655]]}}, {"id": "4", "type": "Feature", "properties": {"line_id": "CAD_LINE_00005", "length_m": 58.541, "mean_confidence": 1.0, "num_vertices": 12, "is_ground_truth": true, "status": "Ground Truth"}, "geometry": {"type": "LineString", "coordinates": [[5.6067727379029195, 52.20109095582493], [5.606871429505829, 52.20108178419143], [5.606878721109923, 52.20107727666997], [5.606871385172394, 52.20107279638936], [5.606860292606519, 52.20104810036337], [5.606808320632804, 52.20089090914921], [5.606789803619323, 52.20084375722569], [5.606782456650402, 52.20083702998873], [5.606786047042254, 52.20082354147756], [5.6067787000772356, 52.20081681424037], [5.606760061271903, 52.20074494585431], [5.606744868919035, 52.20063037859493]]}}, {"id": "5", "type": "Feature", "properties": {"line_id": "CAD_LINE_00006", "length_m": 12.023, "mean_confidence": 1.0, "num_vertices": 3, "is_ground_truth": true, "status": "Ground Truth"}, "geometry": {"type": "LineString", "coordinates": [[5.606974931165843, 52.201306288509834], [5.606887148838863, 52.20130308157118], [5.606799366524422, 52.20129987456729]]}}, {"id": "6", "type": "Feature", "properties": {"line_id": "CAD_LINE_00007", "length_m": 8.951, "mean_confidence": 1.0, "num_vertices": 3, "is_ground_truth": true, "status": "Ground Truth"}, "geometry": {"type": "LineString", "coordinates": [[5.606829918336233, 52.20082121282947], [5.606844512548083, 52.200814444741475], [5.606954140850794, 52.200798511758514]]}}, {"id": "7", "type": "Feature", "properties": {"line_id": "CAD_LINE_00008", "length_m": 15.254, "mean_confidence": 1.0, "num_vertices": 4, "is_ground_truth": true, "status": "Ground Truth"}, "geometry": {"type": "LineString", "coordinates": [[5.606986997167923, 52.200787215687015], [5.606977666507413, 52.20074903456017], [5.606955381644693, 52.20067941996826], [5.606946106468887, 52.20065247359159]]}}, {"id": "8", "type": "Feature", "properties": {"line_id": "CAD_LINE_00009", "length_m": 17.879, "mean_confidence": 1.0, "num_vertices": 3, "is_ground_truth": true, "status": "Ground Truth"}, "geometry": {"type": "LineString", "coordinates": [[5.607351725581129, 52.201332549541505], [5.607223672804718, 52.20132043011976], [5.607091996477094, 52.201315058227244]]}}, {"id": "9", "type": "Feature", "properties": {"line_id": "CAD_LINE_00010", "length_m": 8.489, "mean_confidence": 1.0, "num_vertices": 2, "is_ground_truth": true, "status": "Ground Truth"}, "geometry": {"type": "LineString", "coordinates": [[5.607103961263008, 52.20077576283859], [5.607224548854287, 52.200757562201524]]}}, {"id": "10", "type": "Feature", "properties": {"line_id": "CAD_LINE_00011", "length_m": 30.319, "mean_confidence": 1.0, "num_vertices": 4, "is_ground_truth": true, "status": "Ground Truth"}, "geometry": {"type": "LineString", "coordinates": [[5.607243898945894, 52.20097323534821], [5.607264139454202, 52.20099903775832], [5.6073318028203465, 52.20100115847754], [5.60766092749298, 52.2010016673016]]}}, {"id": "11", "type": "Feature", "properties": {"line_id": "CAD_LINE_00012", "length_m": 7.04, "mean_confidence": 1.0, "num_vertices": 2, "is_ground_truth": true, "status": "Ground Truth"}, "geometry": {"type": "LineString", "coordinates": [[5.6072594257874995, 52.20115521104917], [5.607248144245812, 52.201092316902354]]}}, {"id": "12", "type": "Feature", "properties": {"line_id": "CAD_LINE_00013", "length_m": 12.359, "mean_confidence": 1.0, "num_vertices": 4, "is_ground_truth": true, "status": "Ground Truth"}, "geometry": {"type": "LineString", "coordinates": [[5.607249054643435, 52.20127656683737], [5.607238039530747, 52.20126759950073], [5.607245297821295, 52.201256351105556], [5.607252178619536, 52.20116870639574]]}}, {"id": "13", "type": "Feature", "properties": {"line_id": "CAD_LINE_00014", "length_m": 14.445, "mean_confidence": 1.0, "num_vertices": 5, "is_ground_truth": true, "status": "Ground Truth"}, "geometry": {"type": "LineString", "coordinates": [[5.607314379114684, 52.20117533125833], [5.607317902737248, 52.201148361029354], [5.607310489005281, 52.20112815212305], [5.607302886493, 52.20106974505841], [5.6072918047933795, 52.201047296023575]]}}, {"id": "14", "type": "Feature", "properties": {"line_id": "CAD_LINE_00015", "length_m": 37.487, "mean_confidence": 1.0, "num_vertices": 5, "is_ground_truth": true, "status": "Ground Truth"}, "geometry": {"type": "LineString", "coordinates": [[5.607656580993222, 52.2008623632065], [5.6074481339807996, 52.20086162910881], [5.607331119770239, 52.200862971020754], [5.607292689345402, 52.20085630181831], [5.607297619407648, 52.20074394405477]]}}, {"id": "15", "type": "Feature", "properties": {"line_id": "CAD_LINE_00016", "length_m": 21.802, "mean_confidence": 1.0, "num_vertices": 4, "is_ground_truth": true, "status": "Ground Truth"}, "geometry": {"type": "LineString", "coordinates": [[5.607619068974367, 52.201410694276014], [5.607534943308466, 52.201407480985964], [5.6073886334840255, 52.201401013271195], [5.60730085094115, 52.20139780664039]]}}, {"id": "16", "type": "Feature", "properties": {"line_id": "CAD_LINE_00017", "length_m": 10.111, "mean_confidence": 1.0, "num_vertices": 5, "is_ground_truth": true, "status": "Ground Truth"}, "geometry": {"type": "LineString", "coordinates": [[5.607307720546128, 52.20130791497922], [5.607296716518761, 52.201301194598464], [5.60730212413828, 52.20128545571075], [5.607305603355636, 52.201249497681076], [5.607307287435306, 52.20122028391407]]}}, {"id": "17", "type": "Feature", "properties": {"line_id": "CAD_LINE_00018", "length_m": 23.9, "mean_confidence": 1.0, "num_vertices": 5, "is_ground_truth": true, "status": "Ground Truth"}, "geometry": {"type": "LineString", "coordinates": [[5.607308556665686, 52.2007371827326], [5.607367027505332, 52.200729209213016], [5.6074291496244175, 52.20072010536184], [5.607531502683786, 52.200712049824254], [5.60765211217265, 52.20069834265156]]}}, {"id": "18", "type": "Feature", "properties": {"line_id": "CAD_LINE_00019", "length_m": 10.263, "mean_confidence": 1.0, "num_vertices": 4, "is_ground_truth": true, "status": "Ground Truth"}, "geometry": {"type": "LineString", "coordinates": [[5.607333385516165, 52.201321348913254], [5.607326038386401, 52.20131462171075], [5.607333296662372, 52.20130337331028], [5.607340255043962, 52.201231457248994]]}}, {"id": "19", "type": "Feature", "properties": {"line_id": "CAD_LINE_00020", "length_m": 19.626, "mean_confidence": 1.0, "num_vertices": 5, "is_ground_truth": true, "status": "Ground Truth"}, "geometry": {"type": "LineString", "coordinates": [[5.60766628625562, 52.20134544387516], [5.607472431271288, 52.201337941630925], [5.607424885928718, 52.201336906919686], [5.60739926536237, 52.201332460807045], [5.607380991940284, 52.20133474188828]]}}, {"id": "20", "type": "Feature", "properties": {"line_id": "CAD_LINE_00021", "length_m": 8.254, "mean_confidence": 1.0, "num_vertices": 3, "is_ground_truth": true, "status": "Ground Truth"}, "geometry": {"type": "LineString", "coordinates": [[5.60740278894584, 52.20130549057623], [5.607404372971228, 52.20125605425485], [5.607406079207121, 52.20123133438725]]}}, {"id": "21", "type": "Feature", "properties": {"line_id": "CAD_LINE_00022", "length_m": 126.293, "mean_confidence": 1.0, "num_vertices": 9, "is_ground_truth": true, "status": "Ground Truth"}, "geometry": {"type": "LineString", "coordinates": [[5.607672012194391, 52.20176336978277], [5.607673106481493, 52.20161506765381], [5.607670287998358, 52.201415092499595], [5.607677423838631, 52.201379127624975], [5.60767622244407, 52.20113645698772], [5.607663894728452, 52.20086234953744], [5.607664955655177, 52.2007073065332], [5.60766476656017, 52.20066910837346], [5.607666394766559, 52.20062865984551]]}}, {"id": "22", "type": "Feature", "properties": {"line_id": "CAD_LINE_00023", "length_m": 44.27, "mean_confidence": 1.0, "num_vertices": 3, "is_ground_truth": true, "status": "Ground Truth"}, "geometry": {"type": "LineString", "coordinates": [[5.607876867724516, 52.201776468549596], [5.607878843377995, 52.20143717223084], [5.60797394543885, 52.20144148821856]]}}, {"id": "23", "type": "Feature", "properties": {"line_id": "CAD_LINE_00024", "length_m": 89.257, "mean_confidence": 1.0, "num_vertices": 5, "is_ground_truth": true, "status": "Ground Truth"}, "geometry": {"type": "LineString", "coordinates": [[5.607908065288629, 52.20143037664585], [5.607909359227336, 52.20132251961181], [5.607911613012845, 52.20103939702578], [5.607914824456988, 52.20094951216656], [5.607918717305765, 52.20062818798096]]}}, {"id": "24", "type": "Feature", "properties": {"line_id": "CAD_LINE_00025", "length_m": 24.762, "mean_confidence": 1.0, "num_vertices": 4, "is_ground_truth": true, "status": "Ground Truth"}, "geometry": {"type": "LineString", "coordinates": [[5.607920977943348, 52.201084318927464], [5.608074583860824, 52.20108740186329], [5.608220870451108, 52.20108937482802], [5.608283043092409, 52.20109038180445]]}}, {"id": "25", "type": "Feature", "properties": {"line_id": "CAD_LINE_00026", "length_m": 24.831, "mean_confidence": 1.0, "num_vertices": 4, "is_ground_truth": true, "status": "Ground Truth"}, "geometry": {"type": "LineString", "coordinates": [[5.607921289759605, 52.201147233537895], [5.607983440196197, 52.20114374677132], [5.608129682380293, 52.201136732047594], [5.608283232719659, 52.20112857996006]]}}, {"id": "26", "type": "Feature", "properties": {"line_id": "CAD_LINE_00027", "length_m": 30.567, "mean_confidence": 1.0, "num_vertices": 4, "is_ground_truth": true, "status": "Ground Truth"}, "geometry": {"type": "LineString", "coordinates": [[5.607927244875916, 52.200873091902004], [5.60822710250806, 52.20087140693635], [5.6083112048994, 52.20087012583315], [5.608373405134351, 52.200876750138214]]}}, {"id": "27", "type": "Feature", "properties": {"line_id": "CAD_LINE_00028", "length_m": 15.371, "mean_confidence": 1.0, "num_vertices": 5, "is_ground_truth": true, "status": "Ground Truth"}, "geometry": {"type": "LineString", "coordinates": [[5.608277212835316, 52.201389239898944], [5.608271431887092, 52.201329705998184], [5.608262317506404, 52.201335340507164], [5.6082551263790625, 52.20136007066597], [5.608181954763522, 52.20135346685215]]}}, {"id": "28", "type": "Feature", "properties": {"line_id": "CAD_LINE_00029", "length_m": 6.792, "mean_confidence": 1.0, "num_vertices": 2, "is_ground_truth": true, "status": "Ground Truth"}, "geometry": {"type": "LineString", "coordinates": [[5.608288217032156, 52.201395960188094], [5.608189446977556, 52.201389404354266]]}}, {"id": "29", "type": "Feature", "properties": {"line_id": "CAD_LINE_00030", "length_m": 28.33, "mean_confidence": 1.0, "num_vertices": 5, "is_ground_truth": true, "status": "Ground Truth"}, "geometry": {"type": "LineString", "coordinates": [[5.608232906126747, 52.20130393802559], [5.608254847549129, 52.20130389690985], [5.6082713203469, 52.201307236495694], [5.608279943925263, 52.201202736174025], [5.608484718902044, 52.20120010523663]]}}, {"id": "30", "type": "Feature", "properties": {"line_id": "CAD_LINE_00031", "length_m": 16.663, "mean_confidence": 1.0, "num_vertices": 3, "is_ground_truth": true, "status": "Ground Truth"}, "geometry": {"type": "LineString", "coordinates": [[5.608486125669164, 52.201483220963404], [5.608383676154948, 52.20147217825206], [5.608244668677796, 52.201463450934256]]}}, {"id": "31", "type": "Feature", "properties": {"line_id": "CAD_LINE_00032", "length_m": 33.501, "mean_confidence": 1.0, "num_vertices": 3, "is_ground_truth": true, "status": "Ground Truth"}, "geometry": {"type": "LineString", "coordinates": [[5.60829452688634, 52.20119372095694], [5.608295619090796, 52.20104541880844], [5.608296688978403, 52.200892622755205]]}}, {"id": "32", "type": "Feature", "properties": {"line_id": "CAD_LINE_00033", "length_m": 5.056, "mean_confidence": 1.0, "num_vertices": 2, "is_ground_truth": true, "status": "Ground Truth"}, "geometry": {"type": "LineString", "coordinates": [[5.608485779557885, 52.20141356550813], [5.608412607820543, 52.20140696183746]]}}, {"id": "33", "type": "Feature", "properties": {"line_id": "CAD_LINE_00034", "length_m": 4.366, "mean_confidence": 1.0, "num_vertices": 2, "is_ground_truth": true, "status": "Ground Truth"}, "geometry": {"type": "LineString", "coordinates": [[5.608453521352744, 52.20080919075268], [5.608467959021143, 52.20077096515799]]}}, {"id": "34", "type": "Feature", "properties": {"line_id": "CAD_LINE_00035", "length_m": 14.752, "mean_confidence": 1.0, "num_vertices": 2, "is_ground_truth": true, "status": "Ground Truth"}, "geometry": {"type": "LineString", "coordinates": [[5.608471560061432, 52.20075972354617], [5.608467244543675, 52.2006271603279]]}}]}