{"type": "FeatureCollection", "features": [{"id": "0", "type": "Feature", "properties": {"line_id": "CAD_LINE_00001", "length_m": 4.95, "mean_confidence": 1.0, "num_vertices": 2, "is_ground_truth": true, "status": "Ground Truth"}, "geometry": {"type": "LineString", "coordinates": [[4.617120524286036, 52.266180055410295], [4.617172336562531, 52.2661489346326]]}}, {"id": "1", "type": "Feature", "properties": {"line_id": "CAD_LINE_00002", "length_m": 9.192, "mean_confidence": 1.0, "num_vertices": 2, "is_ground_truth": true, "status": "Ground Truth"}, "geometry": {"type": "LineString", "coordinates": [[4.617119318692774, 52.26624970535465], [4.617215541586987, 52.2661919096083]]}}, {"id": "2", "type": "Feature", "properties": {"line_id": "CAD_LINE_00003", "length_m": 4.243, "mean_confidence": 1.0, "num_vertices": 2, "is_ground_truth": true, "status": "Ground Truth"}, "geometry": {"type": "LineString", "coordinates": [[4.617118229766097, 52.26631261498105], [4.617162640427384, 52.266285940031906]]}}, {"id": "3", "type": "Feature", "properties": {"line_id": "CAD_LINE_00004", "length_m": 2.828, "mean_confidence": 1.0, "num_vertices": 2, "is_ground_truth": true, "status": "Ground Truth"}, "geometry": {"type": "LineString", "coordinates": [[4.617204736581997, 52.26575816321978], [4.61723434329077, 52.265740379897956]]}}, {"id": "4", "type": "Feature", "properties": {"line_id": "CAD_LINE_00005", "length_m": 3.536, "mean_confidence": 1.0, "num_vertices": 4, "is_ground_truth": true, "status": "Ground Truth"}, "geometry": {"type": "LineString", "coordinates": [[4.617265201229771, 52.265861920328156], [4.61727260292048, 52.26585747449475], [4.617265356759199, 52.26585293323775], [4.617287561822335, 52.265839595735976]]}}, {"id": "5", "type": "Feature", "properties": {"line_id": "CAD_LINE_00006", "length_m": 4.95, "mean_confidence": 1.0, "num_vertices": 2, "is_ground_truth": true, "status": "Ground Truth"}, "geometry": {"type": "LineString", "coordinates": [[4.617271273879651, 52.26572264428038], [4.617323085516566, 52.26569152343268]]}}, {"id": "6", "type": "Feature", "properties": {"line_id": "CAD_LINE_00007", "length_m": 6.01, "mean_confidence": 1.0, "num_vertices": 4, "is_ground_truth": true, "status": "Ground Truth"}, "geometry": {"type": "LineString", "coordinates": [[4.617329391231795, 52.26553876674049], [4.617318522059324, 52.265531954859775], [4.617359231007766, 52.265507502749514], [4.6173701001805325, 52.265514314626564]]}}, {"id": "7", "type": "Feature", "properties": {"line_id": "CAD_LINE_00008", "length_m": 2.828, "mean_confidence": 1.0, "num_vertices": 3, "is_ground_truth": true, "status": "Ground Truth"}, "geometry": {"type": "LineString", "coordinates": [[4.617346736380755, 52.26580627581655], [4.617368941396205, 52.265792938299285], [4.617376187558355, 52.26579747954996]]}}, {"id": "8", "type": "Feature", "properties": {"line_id": "CAD_LINE_00009", "length_m": 9.192, "mean_confidence": 1.0, "num_vertices": 6, "is_ground_truth": true, "status": "Ground Truth"}, "geometry": {"type": "LineString", "coordinates": [[4.617470107700485, 52.265661022690644], [4.617488611789612, 52.2656499080734], [4.617477742565616, 52.265643096207384], [4.617518451528852, 52.26561864404281], [4.617532943828651, 52.26562772652569], [4.61754404626551, 52.26562105774973]]}}, {"id": "9", "type": "Feature", "properties": {"line_id": "CAD_LINE_00010", "length_m": 2.828, "mean_confidence": 1.0, "num_vertices": 2, "is_ground_truth": true, "status": "Ground Truth"}, "geometry": {"type": "LineString", "coordinates": [[4.6175900837192145, 52.2663471468745], [4.617561098634876, 52.26632898192243]]}}, {"id": "10", "type": "Feature", "properties": {"line_id": "CAD_LINE_00011", "length_m": 4.243, "mean_confidence": 1.0, "num_vertices": 2, "is_ground_truth": true, "status": "Ground Truth"}, "geometry": {"type": "LineString", "coordinates": [[4.6176029266723715, 52.26602815285488], [4.617647336759039, 52.26600147772104]]}}, {"id": "11", "type": "Feature", "properties": {"line_id": "CAD_LINE_00012", "length_m": 4.92, "mean_confidence": 1.0, "num_vertices": 3, "is_ground_truth": true, "status": "Ground Truth"}, "geometry": {"type": "LineString", "coordinates": [[4.617763013903263, 52.266301085286855], [4.617766831333232, 52.26629212203689], [4.6178075407339145, 52.26626766977655]]}}, {"id": "12", "type": "Feature", "properties": {"line_id": "CAD_LINE_00013", "length_m": 3.536, "mean_confidence": 1.0, "num_vertices": 3, "is_ground_truth": true, "status": "Ground Truth"}, "geometry": {"type": "LineString", "coordinates": [[4.617800498902438, 52.26561598646606], [4.61782640448312, 52.265600425928255], [4.617815535219284, 52.26559361409315]]}}, {"id": "13", "type": "Feature", "properties": {"line_id": "CAD_LINE_00014", "length_m": 6.912, "mean_confidence": 1.0, "num_vertices": 5, "is_ground_truth": true, "status": "Ground Truth"}, "geometry": {"type": "LineString", "coordinates": [[4.617877545183712, 52.265396279475034], [4.6178886475111325, 52.26538961066618], [4.6178814013627285, 52.2653850694466], [4.617888841762772, 52.26537837680078], [4.617845364905364, 52.26535112947654]]}}, {"id": "14", "type": "Feature", "properties": {"line_id": "CAD_LINE_00015", "length_m": 5.303, "mean_confidence": 1.0, "num_vertices": 4, "is_ground_truth": true, "status": "Ground Truth"}, "geometry": {"type": "LineString", "coordinates": [[4.617919147223064, 52.26532015138929], [4.617911901082813, 52.265315610171534], [4.617900798777398, 52.26532227898272], [4.617864568098611, 52.26529957288376]]}}, {"id": "15", "type": "Feature", "properties": {"line_id": "CAD_LINE_00016", "length_m": 2.828, "mean_confidence": 1.0, "num_vertices": 4, "is_ground_truth": true, "status": "Ground Truth"}, "geometry": {"type": "LineString", "coordinates": [[4.617951482942711, 52.2653563142756], [4.6179406137191155, 52.26534950245179], [4.617951716025398, 52.26534283363692], [4.617944469878128, 52.26533829242115]]}}, {"id": "16", "type": "Feature", "properties": {"line_id": "CAD_LINE_00017", "length_m": 3.536, "mean_confidence": 1.0, "num_vertices": 4, "is_ground_truth": true, "status": "Ground Truth"}, "geometry": {"type": "LineString", "coordinates": [[4.618052180419505, 52.265251359430714], [4.618041311206002, 52.26524454761599], [4.618033909694183, 52.26524899349844], [4.618015794345833, 52.26523764047062]]}}, {"id": "17", "type": "Feature", "properties": {"line_id": "CAD_LINE_00018", "length_m": 2.858, "mean_confidence": 1.0, "num_vertices": 4, "is_ground_truth": true, "status": "Ground Truth"}, "geometry": {"type": "LineString", "coordinates": [[4.618158492426761, 52.265245310177484], [4.61816593276172, 52.26523861751395], [4.618166126942478, 52.26522738364767], [4.618158880791998, 52.26522284244494]]}}, {"id": "18", "type": "Feature", "properties": {"line_id": "CAD_LINE_00019", "length_m": 3.182, "mean_confidence": 1.0, "num_vertices": 2, "is_ground_truth": true, "status": "Ground Truth"}, "geometry": {"type": "LineString", "coordinates": [[4.618158503702064, 52.265456530687175], [4.618191810593635, 52.26543652417829]]}}, {"id": "19", "type": "Feature", "properties": {"line_id": "CAD_LINE_00020", "length_m": 2.828, "mean_confidence": 1.0, "num_vertices": 4, "is_ground_truth": true, "status": "Ground Truth"}, "geometry": {"type": "LineString", "coordinates": [[4.61822157202855, 52.265409753514064], [4.618228973548509, 52.26540530762003], [4.618239842829992, 52.265412119417405], [4.618250945107236, 52.26540545057444]]}}, {"id": "20", "type": "Feature", "properties": {"line_id": "CAD_LINE_00021", "length_m": 5.657, "mean_confidence": 1.0, "num_vertices": 3, "is_ground_truth": true, "status": "Ground Truth"}, "geometry": {"type": "LineString", "coordinates": [[4.6182828777390625, 52.265888768871335], [4.618290279332868, 52.265884322973974], [4.618239555474902, 52.26585253460105]]}}, {"id": "21", "type": "Feature", "properties": {"line_id": "CAD_LINE_00022", "length_m": 5.657, "mean_confidence": 1.0, "num_vertices": 5, "is_ground_truth": true, "status": "Ground Truth"}, "geometry": {"type": "LineString", "coordinates": [[4.6182544399742405, 52.26520324098043], [4.618283424611456, 52.26522140576536], [4.618298227574693, 52.26521251396855], [4.618287358332855, 52.26520570217641], [4.618291059072715, 52.26520347922725]]}}, {"id": "22", "type": "Feature", "properties": {"line_id": "CAD_LINE_00023", "length_m": 3.536, "mean_confidence": 1.0, "num_vertices": 3, "is_ground_truth": true, "status": "Ground Truth"}, "geometry": {"type": "LineString", "coordinates": [[4.618293188480249, 52.2663517232184], [4.61826782627553, 52.26633582903614], [4.618278928779868, 52.266329160192115]]}}, {"id": "23", "type": "Feature", "properties": {"line_id": "CAD_LINE_00024", "length_m": 2.828, "mean_confidence": 1.0, "num_vertices": 4, "is_ground_truth": true, "status": "Ground Truth"}, "geometry": {"type": "LineString", "coordinates": [[4.618300192939705, 52.26552261632623], [4.618307594470669, 52.26551817042737], [4.61829672515295, 52.26551135863631], [4.61830782744654, 52.26550468978815]]}}, {"id": "24", "type": "Feature", "properties": {"line_id": "CAD_LINE_00025", "length_m": 3.73, "mean_confidence": 1.0, "num_vertices": 5, "is_ground_truth": true, "status": "Ground Truth"}, "geometry": {"type": "LineString", "coordinates": [[4.618333693957334, 52.265491375911544], [4.6183447962404, 52.26548470705987], [4.618352042452437, 52.2654892482511], [4.618363105905745, 52.26548482617092], [4.6183739752272, 52.265491637955904]]}}, {"id": "25", "type": "Feature", "properties": {"line_id": "CAD_LINE_00026", "length_m": 4.243, "mean_confidence": 1.0, "num_vertices": 3, "is_ground_truth": true, "status": "Ground Truth"}, "geometry": {"type": "LineString", "coordinates": [[4.618345288834012, 52.265244278496354], [4.618356158094142, 52.2652510902832], [4.618389464742798, 52.26523108371738]]}}, {"id": "26", "type": "Feature", "properties": {"line_id": "CAD_LINE_00027", "length_m": 6.912, "mean_confidence": 1.0, "num_vertices": 5, "is_ground_truth": true, "status": "Ground Truth"}, "geometry": {"type": "LineString", "coordinates": [[4.618358279170573, 52.26555220554561], [4.61840268832908, 52.26552553012369], [4.618409934553675, 52.265530071311375], [4.618420998011431, 52.26552564922583], [4.618431867351721, 52.26553246100547]]}}, {"id": "27", "type": "Feature", "properties": {"line_id": "CAD_LINE_00028", "length_m": 3.889, "mean_confidence": 1.0, "num_vertices": 2, "is_ground_truth": true, "status": "Ground Truth"}, "geometry": {"type": "LineString", "coordinates": [[4.618394017966724, 52.265815340042394], [4.618354163503965, 52.26579036350022]]}}, {"id": "28", "type": "Feature", "properties": {"line_id": "CAD_LINE_00029", "length_m": 5.303, "mean_confidence": 1.0, "num_vertices": 3, "is_ground_truth": true, "status": "Ground Truth"}, "geometry": {"type": "LineString", "coordinates": [[4.618416702394887, 52.26535035326948], [4.618405833101281, 52.265343541488306], [4.618450242022392, 52.265316866047016]]}}, {"id": "29", "type": "Feature", "properties": {"line_id": "CAD_LINE_00030", "length_m": 3.889, "mean_confidence": 1.0, "num_vertices": 2, "is_ground_truth": true, "status": "Ground Truth"}, "geometry": {"type": "LineString", "coordinates": [[4.618468964696513, 52.26635286665075], [4.618429109711493, 52.26632789013527]]}}, {"id": "30", "type": "Feature", "properties": {"line_id": "CAD_LINE_00031", "length_m": 2.828, "mean_confidence": 1.0, "num_vertices": 4, "is_ground_truth": true, "status": "Ground Truth"}, "geometry": {"type": "LineString", "coordinates": [[4.618497109402779, 52.26535986438084], [4.61850451088696, 52.26535541846941], [4.618515380198618, 52.265362230241564], [4.618526482422199, 52.26535556137252]]}}, {"id": "31", "type": "Feature", "properties": {"line_id": "CAD_LINE_00032", "length_m": 3.182, "mean_confidence": 1.0, "num_vertices": 2, "is_ground_truth": true, "status": "Ground Truth"}, "geometry": {"type": "LineString", "coordinates": [[4.618620593748342, 52.26584377800609], [4.618653900723626, 52.26582377136859]]}}, {"id": "32", "type": "Feature", "properties": {"line_id": "CAD_LINE_00033", "length_m": 3.889, "mean_confidence": 1.0, "num_vertices": 2, "is_ground_truth": true, "status": "Ground Truth"}, "geometry": {"type": "LineString", "coordinates": [[4.618703333001038, 52.26635439082045], [4.618663477882648, 52.266329414383826]]}}, {"id": "33", "type": "Feature", "properties": {"line_id": "CAD_LINE_00034", "length_m": 2.828, "mean_confidence": 1.0, "num_vertices": 2, "is_ground_truth": true, "status": "Ground Truth"}, "geometry": {"type": "LineString", "coordinates": [[4.618755377223176, 52.26630978870967], [4.6187263916857395, 52.26629162404242]]}}, {"id": "34", "type": "Feature", "properties": {"line_id": "CAD_LINE_00035", "length_m": 4.854, "mean_confidence": 1.0, "num_vertices": 3, "is_ground_truth": true, "status": "Ground Truth"}, "geometry": {"type": "LineString", "coordinates": [[4.618815206655376, 52.2656023646613], [4.618804143217502, 52.265606786783735], [4.618749408102136, 52.26559519578001]]}}, {"id": "35", "type": "Feature", "properties": {"line_id": "CAD_LINE_00036", "length_m": 3.536, "mean_confidence": 1.0, "num_vertices": 2, "is_ground_truth": true, "status": "Ground Truth"}, "geometry": {"type": "LineString", "coordinates": [[4.618817365256713, 52.26526532483546], [4.618781134154839, 52.265242619016476]]}}, {"id": "36", "type": "Feature", "properties": {"line_id": "CAD_LINE_00037", "length_m": 2.828, "mean_confidence": 1.0, "num_vertices": 2, "is_ground_truth": true, "status": "Ground Truth"}, "geometry": {"type": "LineString", "coordinates": [[4.618838366692812, 52.26532163701833], [4.618867972459155, 52.26530385328387]]}}]}