{"type": "FeatureCollection", "features": [{"id": "0", "type": "Feature", "properties": {"line_id": "CAD_LINE_00001", "length_m": 3.182, "mean_confidence": 1.0, "num_vertices": 4, "is_ground_truth": true, "status": "Ground Truth"}, "geometry": {"type": "LineString", "coordinates": [[6.01708392707799, 50.86488579714141], [6.017076886683682, 50.86489032999567], [6.017058980054981, 50.86487919128556], [6.017051939659228, 50.86488372413834]]}}, {"id": "1", "type": "Feature", "properties": {"line_id": "CAD_LINE_00002", "length_m": 4.95, "mean_confidence": 1.0, "num_vertices": 2, "is_ground_truth": true, "status": "Ground Truth"}, "geometry": {"type": "LineString", "coordinates": [[6.017055760103102, 50.865164609688], [6.017105043139827, 50.86513287970745]]}}, {"id": "2", "type": "Feature", "properties": {"line_id": "CAD_LINE_00003", "length_m": 4.243, "mean_confidence": 1.0, "num_vertices": 2, "is_ground_truth": true, "status": "Ground Truth"}, "geometry": {"type": "LineString", "coordinates": [[6.017058755368629, 50.86538482396013], [6.017100998174179, 50.865357626833635]]}}, {"id": "3", "type": "Feature", "properties": {"line_id": "CAD_LINE_00004", "length_m": 4.95, "mean_confidence": 1.0, "num_vertices": 3, "is_ground_truth": true, "status": "Ground Truth"}, "geometry": {"type": "LineString", "coordinates": [[6.017060894864203, 50.86554211986939], [6.017103137811548, 50.8655149227418], [6.017095975059672, 50.86551046725983]]}}, {"id": "4", "type": "Feature", "properties": {"line_id": "CAD_LINE_00005", "length_m": 2.828, "mean_confidence": 1.0, "num_vertices": 2, "is_ground_truth": true, "status": "Ground Truth"}, "geometry": {"type": "LineString", "coordinates": [[6.017063034376611, 50.86569941577925], [6.017091196441544, 50.86568128436177]]}}, {"id": "5", "type": "Feature", "properties": {"line_id": "CAD_LINE_00006", "length_m": 3.182, "mean_confidence": 1.0, "num_vertices": 2, "is_ground_truth": true, "status": "Ground Truth"}, "geometry": {"type": "LineString", "coordinates": [[6.017116877514183, 50.865741820235925], [6.017148559840832, 50.86572142237602]]}}, {"id": "6", "type": "Feature", "properties": {"line_id": "CAD_LINE_00007", "length_m": 5.344, "mean_confidence": 1.0, "num_vertices": 2, "is_ground_truth": true, "status": "Ground Truth"}, "geometry": {"type": "LineString", "coordinates": [[6.017134590280258, 50.86469450481597], [6.0171197453966165, 50.86464739342118]]}}, {"id": "7", "type": "Feature", "properties": {"line_id": "CAD_LINE_00008", "length_m": 4.596, "mean_confidence": 1.0, "num_vertices": 3, "is_ground_truth": true, "status": "Ground Truth"}, "geometry": {"type": "LineString", "coordinates": [[6.017174045895402, 50.864723504117464], [6.017134651414626, 50.864698998984665], [6.017127611053612, 50.86470353184196]]}}, {"id": "8", "type": "Feature", "properties": {"line_id": "CAD_LINE_00009", "length_m": 6.01, "mean_confidence": 1.0, "num_vertices": 2, "is_ground_truth": true, "status": "Ground Truth"}, "geometry": {"type": "LineString", "coordinates": [[6.017223319486109, 50.8652131363477], [6.01716243643884, 50.865175264799795]]}}, {"id": "9", "type": "Feature", "properties": {"line_id": "CAD_LINE_00010", "length_m": 4.243, "mean_confidence": 1.0, "num_vertices": 2, "is_ground_truth": true, "status": "Ground Truth"}, "geometry": {"type": "LineString", "coordinates": [[6.017177622506012, 50.864986412985914], [6.017219864879252, 50.864959215817024]]}}, {"id": "10", "type": "Feature", "properties": {"line_id": "CAD_LINE_00011", "length_m": 3.889, "mean_confidence": 1.0, "num_vertices": 2, "is_ground_truth": true, "status": "Ground Truth"}, "geometry": {"type": "LineString", "coordinates": [[6.017224944236807, 50.86507155068683], [6.017185549432383, 50.8650470455717]]}}, {"id": "11", "type": "Feature", "properties": {"line_id": "CAD_LINE_00012", "length_m": 3.182, "mean_confidence": 1.0, "num_vertices": 2, "is_ground_truth": true, "status": "Ground Truth"}, "geometry": {"type": "LineString", "coordinates": [[6.01719338928509, 50.86484025577354], [6.01722507096302, 50.86481985789429]]}}, {"id": "12", "type": "Feature", "properties": {"line_id": "CAD_LINE_00013", "length_m": 3.182, "mean_confidence": 1.0, "num_vertices": 2, "is_ground_truth": true, "status": "Ground Truth"}, "geometry": {"type": "LineString", "coordinates": [[6.017228377144881, 50.86480186187245], [6.017260058781177, 50.86478146398364]]}}, {"id": "13", "type": "Feature", "properties": {"line_id": "CAD_LINE_00014", "length_m": 3.182, "mean_confidence": 1.0, "num_vertices": 2, "is_ground_truth": true, "status": "Ground Truth"}, "geometry": {"type": "LineString", "coordinates": [[6.017247170394049, 50.86487816600154], [6.017278852074093, 50.86485776810751]]}}, {"id": "14", "type": "Feature", "properties": {"line_id": "CAD_LINE_00015", "length_m": 8.111, "mean_confidence": 1.0, "num_vertices": 3, "is_ground_truth": true, "status": "Ground Truth"}, "geometry": {"type": "LineString", "coordinates": [[6.017284027395845, 50.86471616309844], [6.017276864750467, 50.864711707627556], [6.01725467364349, 50.86464665827323]]}}, {"id": "15", "type": "Feature", "properties": {"line_id": "CAD_LINE_00016", "length_m": 7.425, "mean_confidence": 1.0, "num_vertices": 2, "is_ground_truth": true, "status": "Ground Truth"}, "geometry": {"type": "LineString", "coordinates": [[6.017274532801316, 50.865062291477855], [6.0173484569428535, 50.86501469636017]]}}, {"id": "16", "type": "Feature", "properties": {"line_id": "CAD_LINE_00017", "length_m": 4.596, "mean_confidence": 1.0, "num_vertices": 2, "is_ground_truth": true, "status": "Ground Truth"}, "geometry": {"type": "LineString", "coordinates": [[6.017327240185869, 50.865282234847314], [6.017280682418099, 50.86525327429675]]}}, {"id": "17", "type": "Feature", "properties": {"line_id": "CAD_LINE_00018", "length_m": 3.182, "mean_confidence": 1.0, "num_vertices": 2, "is_ground_truth": true, "status": "Ground Truth"}, "geometry": {"type": "LineString", "coordinates": [[6.017338725748569, 50.864821485812854], [6.017370407349525, 50.86480108789388]]}}, {"id": "18", "type": "Feature", "properties": {"line_id": "CAD_LINE_00019", "length_m": 3.889, "mean_confidence": 1.0, "num_vertices": 2, "is_ground_truth": true, "status": "Ground Truth"}, "geometry": {"type": "LineString", "coordinates": [[6.017374902457522, 50.86513140928351], [6.017413624649296, 50.86510647847982]]}}, {"id": "19", "type": "Feature", "properties": {"line_id": "CAD_LINE_00020", "length_m": 7.071, "mean_confidence": 1.0, "num_vertices": 2, "is_ground_truth": true, "status": "Ground Truth"}, "geometry": {"type": "LineString", "coordinates": [[6.017458490930445, 50.865793892734125], [6.017386862700295, 50.865749338115485]]}}, {"id": "20", "type": "Feature", "properties": {"line_id": "CAD_LINE_00021", "length_m": 7.425, "mean_confidence": 1.0, "num_vertices": 2, "is_ground_truth": true, "status": "Ground Truth"}, "geometry": {"type": "LineString", "coordinates": [[6.017468660183397, 50.8652365190595], [6.017393451442538, 50.865189736714484]]}}, {"id": "21", "type": "Feature", "properties": {"line_id": "CAD_LINE_00022", "length_m": 3.717, "mean_confidence": 1.0, "num_vertices": 2, "is_ground_truth": true, "status": "Ground Truth"}, "geometry": {"type": "LineString", "coordinates": [[6.017414079998652, 50.865400865874065], [6.0174528329771295, 50.865378182140965]]}}, {"id": "22", "type": "Feature", "properties": {"line_id": "CAD_LINE_00023", "length_m": 5.303, "mean_confidence": 1.0, "num_vertices": 2, "is_ground_truth": true, "status": "Ground Truth"}, "geometry": {"type": "LineString", "coordinates": [[6.0174146032454665, 50.865178385176684], [6.017467406248102, 50.865144388604776]]}}, {"id": "23", "type": "Feature", "properties": {"line_id": "CAD_LINE_00024", "length_m": 3.182, "mean_confidence": 1.0, "num_vertices": 2, "is_ground_truth": true, "status": "Ground Truth"}, "geometry": {"type": "LineString", "coordinates": [[6.017528139300692, 50.86491034344301], [6.017495907166488, 50.864890293888955]]}}, {"id": "24", "type": "Feature", "properties": {"line_id": "CAD_LINE_00025", "length_m": 3.536, "mean_confidence": 1.0, "num_vertices": 2, "is_ground_truth": true, "status": "Ground Truth"}, "geometry": {"type": "LineString", "coordinates": [[6.017517119979599, 50.86488343650126], [6.017552321716147, 50.86486077209209]]}}, {"id": "25", "type": "Feature", "properties": {"line_id": "CAD_LINE_00026", "length_m": 7.071, "mean_confidence": 1.0, "num_vertices": 2, "is_ground_truth": true, "status": "Ground Truth"}, "geometry": {"type": "LineString", "coordinates": [[6.017560246560804, 50.86518208577846], [6.017630650409797, 50.865136756922155]]}}, {"id": "26", "type": "Feature", "properties": {"line_id": "CAD_LINE_00027", "length_m": 2.828, "mean_confidence": 1.0, "num_vertices": 2, "is_ground_truth": true, "status": "Ground Truth"}, "geometry": {"type": "LineString", "coordinates": [[6.017565912989318, 50.86481575297806], [6.017594074321128, 50.864797621439834]]}}, {"id": "27", "type": "Feature", "properties": {"line_id": "CAD_LINE_00028", "length_m": 3.889, "mean_confidence": 1.0, "num_vertices": 3, "is_ground_truth": true, "status": "Ground Truth"}, "geometry": {"type": "LineString", "coordinates": [[6.017584454861269, 50.86565612376304], [6.017570129222774, 50.86564721285846], [6.01759477082895, 50.86563134776089]]}}, {"id": "28", "type": "Feature", "properties": {"line_id": "CAD_LINE_00029", "length_m": 2.828, "mean_confidence": 1.0, "num_vertices": 2, "is_ground_truth": true, "status": "Ground Truth"}, "geometry": {"type": "LineString", "coordinates": [[6.0176352370784585, 50.865734500683814], [6.017606585738885, 50.86571667888554]]}}, {"id": "29", "type": "Feature", "properties": {"line_id": "CAD_LINE_00030", "length_m": 5.303, "mean_confidence": 1.0, "num_vertices": 3, "is_ground_truth": true, "status": "Ground Truth"}, "geometry": {"type": "LineString", "coordinates": [[6.017679170057195, 50.864788168467555], [6.017658049089754, 50.86480176713735], [6.017625816975227, 50.86478171761953]]}}, {"id": "30", "type": "Feature", "properties": {"line_id": "CAD_LINE_00031", "length_m": 3.182, "mean_confidence": 1.0, "num_vertices": 2, "is_ground_truth": true, "status": "Ground Truth"}, "geometry": {"type": "LineString", "coordinates": [[6.017650609019697, 50.865037769057665], [6.017682290630462, 50.86501737105311]]}}, {"id": "31", "type": "Feature", "properties": {"line_id": "CAD_LINE_00032", "length_m": 4.596, "mean_confidence": 1.0, "num_vertices": 2, "is_ground_truth": true, "status": "Ground Truth"}, "geometry": {"type": "LineString", "coordinates": [[6.017658196068341, 50.8655950459402], [6.017703958930245, 50.865565582148776]]}}, {"id": "32", "type": "Feature", "properties": {"line_id": "CAD_LINE_00033", "length_m": 8.839, "mean_confidence": 1.0, "num_vertices": 2, "is_ground_truth": true, "status": "Ground Truth"}, "geometry": {"type": "LineString", "coordinates": [[6.017781005850595, 50.865486508212776], [6.017670410725107, 50.86544890802342]]}}, {"id": "33", "type": "Feature", "properties": {"line_id": "CAD_LINE_00034", "length_m": 4.596, "mean_confidence": 1.0, "num_vertices": 2, "is_ground_truth": true, "status": "Ground Truth"}, "geometry": {"type": "LineString", "coordinates": [[6.017688713639636, 50.865749939862575], [6.017734476634682, 50.86572047605877]]}}, {"id": "34", "type": "Feature", "properties": {"line_id": "CAD_LINE_00035", "length_m": 3.889, "mean_confidence": 1.0, "num_vertices": 3, "is_ground_truth": true, "status": "Ground Truth"}, "geometry": {"type": "LineString", "coordinates": [[6.017703841765069, 50.8647745504321], [6.017671609649764, 50.864754500927035], [6.017678649965128, 50.86474996803672]]}}, {"id": "35", "type": "Feature", "properties": {"line_id": "CAD_LINE_00036", "length_m": 3.536, "mean_confidence": 1.0, "num_vertices": 3, "is_ground_truth": true, "status": "Ground Truth"}, "geometry": {"type": "LineString", "coordinates": [[6.017703321652857, 50.86473635000141], [6.017731482882595, 50.864718218429935], [6.0177386455725905, 50.86472267387255]]}}, {"id": "36", "type": "Feature", "properties": {"line_id": "CAD_LINE_00037", "length_m": 3.182, "mean_confidence": 1.0, "num_vertices": 3, "is_ground_truth": true, "status": "Ground Truth"}, "geometry": {"type": "LineString", "coordinates": [[6.017729337952357, 50.86508228478848], [6.017753979204164, 50.865066419657786], [6.0177468164594, 50.86506196421618]]}}, {"id": "37", "type": "Feature", "properties": {"line_id": "CAD_LINE_00038", "length_m": 2.828, "mean_confidence": 1.0, "num_vertices": 3, "is_ground_truth": true, "status": "Ground Truth"}, "geometry": {"type": "LineString", "coordinates": [[6.017756582900999, 50.86473605956134], [6.017763745596166, 50.8647405150024], [6.017784866504645, 50.864726916313415]]}}, {"id": "38", "type": "Feature", "properties": {"line_id": "CAD_LINE_00039", "length_m": 3.182, "mean_confidence": 1.0, "num_vertices": 2, "is_ground_truth": true, "status": "Ground Truth"}, "geometry": {"type": "LineString", "coordinates": [[6.01778501564934, 50.86552019511088], [6.017816697529806, 50.86549979706886]]}}, {"id": "39", "type": "Feature", "properties": {"line_id": "CAD_LINE_00040", "length_m": 4.243, "mean_confidence": 1.0, "num_vertices": 2, "is_ground_truth": true, "status": "Ground Truth"}, "geometry": {"type": "LineString", "coordinates": [[6.017826710474553, 50.86467050683049], [6.017783734353089, 50.8646437742008]]}}, {"id": "40", "type": "Feature", "properties": {"line_id": "CAD_LINE_00041", "length_m": 3.889, "mean_confidence": 1.0, "num_vertices": 2, "is_ground_truth": true, "status": "Ground Truth"}, "geometry": {"type": "LineString", "coordinates": [[6.017799371889827, 50.86553135307297], [6.017838094185938, 50.865506422126714]]}}, {"id": "41", "type": "Feature", "properties": {"line_id": "CAD_LINE_00042", "length_m": 5.483, "mean_confidence": 1.0, "num_vertices": 2, "is_ground_truth": true, "status": "Ground Truth"}, "geometry": {"type": "LineString", "coordinates": [[6.0178260942548265, 50.86566828964966], [6.01787886690746, 50.865632045804894]]}}, {"id": "42", "type": "Feature", "properties": {"line_id": "CAD_LINE_00043", "length_m": 2.5, "mean_confidence": 1.0, "num_vertices": 2, "is_ground_truth": true, "status": "Ground Truth"}, "geometry": {"type": "LineString", "coordinates": [[6.0178502479615466, 50.865095108898416], [6.017828698487963, 50.86507724842188]]}}, {"id": "43", "type": "Feature", "properties": {"line_id": "CAD_LINE_00044", "length_m": 4.243, "mean_confidence": 1.0, "num_vertices": 2, "is_ground_truth": true, "status": "Ground Truth"}, "geometry": {"type": "LineString", "coordinates": [[6.017885448979025, 50.86533312551281], [6.017842472207332, 50.8653063929056]]}}, {"id": "44", "type": "Feature", "properties": {"line_id": "CAD_LINE_00045", "length_m": 5.703, "mean_confidence": 1.0, "num_vertices": 3, "is_ground_truth": true, "status": "Ground Truth"}, "geometry": {"type": "LineString", "coordinates": [[6.017900723333034, 50.865411695986076], [6.017936353775276, 50.865420490637035], [6.017968066129141, 50.86540233963791]]}}, {"id": "45", "type": "Feature", "properties": {"line_id": "CAD_LINE_00046", "length_m": 5.657, "mean_confidence": 1.0, "num_vertices": 4, "is_ground_truth": true, "status": "Ground Truth"}, "geometry": {"type": "LineString", "coordinates": [[6.017953741162589, 50.86487206653291], [6.017946578428798, 50.864867611103655], [6.017950098581736, 50.864865344650205], [6.01790354084577, 50.86483638435059]]}}, {"id": "46", "type": "Feature", "properties": {"line_id": "CAD_LINE_00047", "length_m": 4.95, "mean_confidence": 1.0, "num_vertices": 2, "is_ground_truth": true, "status": "Ground Truth"}, "geometry": {"type": "LineString", "coordinates": [[6.018010094177786, 50.864838050345185], [6.01795995506927, 50.86480686235548]]}}, {"id": "47", "type": "Feature", "properties": {"line_id": "CAD_LINE_00048", "length_m": 6.331, "mean_confidence": 1.0, "num_vertices": 3, "is_ground_truth": true, "status": "Ground Truth"}, "geometry": {"type": "LineString", "coordinates": [[6.018101650016885, 50.8655634129228], [6.018023317850935, 50.865548109540036], [6.0180162468377185, 50.86555039536749]]}}, {"id": "48", "type": "Feature", "properties": {"line_id": "CAD_LINE_00049", "length_m": 3.162, "mean_confidence": 1.0, "num_vertices": 2, "is_ground_truth": true, "status": "Ground Truth"}, "geometry": {"type": "LineString", "coordinates": [[6.01806785590726, 50.86542876224197], [6.0180251238296005, 50.86542000637546]]}}, {"id": "49", "type": "Feature", "properties": {"line_id": "CAD_LINE_00050", "length_m": 2.664, "mean_confidence": 1.0, "num_vertices": 3, "is_ground_truth": true, "status": "Ground Truth"}, "geometry": {"type": "LineString", "coordinates": [[6.018068834894173, 50.864979306685015], [6.018082915513716, 50.864970240855556], [6.01809721042653, 50.86497690461261]]}}, {"id": "50", "type": "Feature", "properties": {"line_id": "CAD_LINE_00051", "length_m": 3.881, "mean_confidence": 1.0, "num_vertices": 2, "is_ground_truth": true, "status": "Ground Truth"}, "geometry": {"type": "LineString", "coordinates": [[6.018156870914926, 50.86544625455172], [6.018103486394153, 50.86543755684134]]}}, {"id": "51", "type": "Feature", "properties": {"line_id": "CAD_LINE_00052", "length_m": 3.475, "mean_confidence": 1.0, "num_vertices": 4, "is_ground_truth": true, "status": "Ground Truth"}, "geometry": {"type": "LineString", "coordinates": [[6.018111566573107, 50.86498806253601], [6.01812231072606, 50.864994745664305], [6.018136513803944, 50.864994668164414], [6.018150594414863, 50.864985602326705]]}}, {"id": "52", "type": "Feature", "properties": {"line_id": "CAD_LINE_00053", "length_m": 4.366, "mean_confidence": 1.0, "num_vertices": 2, "is_ground_truth": true, "status": "Ground Truth"}, "geometry": {"type": "LineString", "coordinates": [[6.0181977363054004, 50.86557861936803], [6.0181372499972525, 50.865569960427536]]}}, {"id": "53", "type": "Feature", "properties": {"line_id": "CAD_LINE_00054", "length_m": 35.532, "mean_confidence": 1.0, "num_vertices": 6, "is_ground_truth": true, "status": "Ground Truth"}, "geometry": {"type": "LineString", "coordinates": [[6.018215582237494, 50.865585263733], [6.018229754875157, 50.86558293913735], [6.01852842154404, 50.8656105230808], [6.018620804050914, 50.8656145131419], [6.018633277870412, 50.86561781590154], [6.018709359957033, 50.86559829876738]]}}, {"id": "54", "type": "Feature", "properties": {"line_id": "CAD_LINE_00055", "length_m": 2.852, "mean_confidence": 1.0, "num_vertices": 3, "is_ground_truth": true, "status": "Ground Truth"}, "geometry": {"type": "LineString", "coordinates": [[6.018267160198874, 50.86546138343527], [6.018256538405626, 50.86546368865656], [6.018228070720917, 50.865459349516534]]}}, {"id": "55", "type": "Feature", "properties": {"line_id": "CAD_LINE_00056", "length_m": 5.303, "mean_confidence": 1.0, "num_vertices": 2, "is_ground_truth": true, "status": "Ground Truth"}, "geometry": {"type": "LineString", "coordinates": [[6.018253902196924, 50.86474907719221], [6.018306704093892, 50.86471508023941]]}}, {"id": "56", "type": "Feature", "properties": {"line_id": "CAD_LINE_00057", "length_m": 2.828, "mean_confidence": 1.0, "num_vertices": 2, "is_ground_truth": true, "status": "Ground Truth"}, "geometry": {"type": "LineString", "coordinates": [[6.018311296067654, 50.8647914617131], [6.018282645053563, 50.86477364008213]]}}, {"id": "57", "type": "Feature", "properties": {"line_id": "CAD_LINE_00058", "length_m": 4.243, "mean_confidence": 1.0, "num_vertices": 2, "is_ground_truth": true, "status": "Ground Truth"}, "geometry": {"type": "LineString", "coordinates": [[6.018340957755506, 50.86488343710689], [6.018297981140003, 50.86485670466895]]}}, {"id": "58", "type": "Feature", "properties": {"line_id": "CAD_LINE_00059", "length_m": 12.819, "mean_confidence": 1.0, "num_vertices": 3, "is_ground_truth": true, "status": "Ground Truth"}, "geometry": {"type": "LineString", "coordinates": [[6.018316873192251, 50.865721793238265], [6.018364671505977, 50.865711419709356], [6.018413664372684, 50.86578868243524]]}}, {"id": "59", "type": "Feature", "properties": {"line_id": "CAD_LINE_00060", "length_m": 3.041, "mean_confidence": 1.0, "num_vertices": 2, "is_ground_truth": true, "status": "Ground Truth"}, "geometry": {"type": "LineString", "coordinates": [[6.018359664895764, 50.86547436204142], [6.018316993971726, 50.86547010045085]]}}, {"id": "60", "type": "Feature", "properties": {"line_id": "CAD_LINE_00061", "length_m": 6.175, "mean_confidence": 1.0, "num_vertices": 2, "is_ground_truth": true, "status": "Ground Truth"}, "geometry": {"type": "LineString", "coordinates": [[6.018356851089402, 50.86578899256212], [6.018324189222941, 50.86573748406435]]}}, {"id": "61", "type": "Feature", "properties": {"line_id": "CAD_LINE_00062", "length_m": 4.95, "mean_confidence": 1.0, "num_vertices": 2, "is_ground_truth": true, "status": "Ground Truth"}, "geometry": {"type": "LineString", "coordinates": [[6.018391681271861, 50.8652180006449], [6.018341541494757, 50.86518681282154]]}}, {"id": "62", "type": "Feature", "properties": {"line_id": "CAD_LINE_00063", "length_m": 3.182, "mean_confidence": 1.0, "num_vertices": 2, "is_ground_truth": true, "status": "Ground Truth"}, "geometry": {"type": "LineString", "coordinates": [[6.01834285842277, 50.8652834374318], [6.018374539895433, 50.86526303923777]]}}, {"id": "63", "type": "Feature", "properties": {"line_id": "CAD_LINE_00064", "length_m": 3.182, "mean_confidence": 1.0, "num_vertices": 2, "is_ground_truth": true, "status": "Ground Truth"}, "geometry": {"type": "LineString", "coordinates": [[6.018400861257513, 50.8648494013477], [6.018368628789129, 50.8648293520375]]}}, {"id": "64", "type": "Feature", "properties": {"line_id": "CAD_LINE_00065", "length_m": 16.778, "mean_confidence": 1.0, "num_vertices": 3, "is_ground_truth": true, "status": "Ground Truth"}, "geometry": {"type": "LineString", "coordinates": [[6.0186225164587785, 50.865479668719004], [6.018448526942296, 50.86548061870657], [6.018384551166959, 50.86547647344799]]}}, {"id": "65", "type": "Feature", "properties": {"line_id": "CAD_LINE_00066", "length_m": 2.518, "mean_confidence": 1.0, "num_vertices": 4, "is_ground_truth": true, "status": "Ground Truth"}, "geometry": {"type": "LineString", "coordinates": [[6.0184543701613, 50.865127768375665], [6.0184472073398405, 50.865123312977495], [6.018447115446169, 50.865116571725764], [6.018457675886874, 50.86510977231929]]}}, {"id": "66", "type": "Feature", "properties": {"line_id": "CAD_LINE_00067", "length_m": 2.828, "mean_confidence": 1.0, "num_vertices": 3, "is_ground_truth": true, "status": "Ground Truth"}, "geometry": {"type": "LineString", "coordinates": [[6.018483174625877, 50.8651568253832], [6.018490214922592, 50.865152292443476], [6.01846872644063, 50.865138926254446]]}}, {"id": "67", "type": "Feature", "properties": {"line_id": "CAD_LINE_00068", "length_m": 2.828, "mean_confidence": 1.0, "num_vertices": 2, "is_ground_truth": true, "status": "Ground Truth"}, "geometry": {"type": "LineString", "coordinates": [[6.018491287091633, 50.8652309403802], [6.01851944831196, 50.86521280861662]]}}, {"id": "68", "type": "Feature", "properties": {"line_id": "CAD_LINE_00069", "length_m": 4.828, "mean_confidence": 1.0, "num_vertices": 2, "is_ground_truth": true, "status": "Ground Truth"}, "geometry": {"type": "LineString", "coordinates": [[6.018573451727186, 50.86578781005378], [6.018548044456422, 50.865747498261555]]}}, {"id": "69", "type": "Feature", "properties": {"line_id": "CAD_LINE_00070", "length_m": 14.849, "mean_confidence": 1.0, "num_vertices": 4, "is_ground_truth": true, "status": "Ground Truth"}, "geometry": {"type": "LineString", "coordinates": [[6.018549996116591, 50.86510926827084], [6.018507019170693, 50.86508253591097], [6.018566861533226, 50.86504400589768], [6.018613419891994, 50.86507296592929]]}}, {"id": "70", "type": "Feature", "properties": {"line_id": "CAD_LINE_00071", "length_m": 2.828, "mean_confidence": 1.0, "num_vertices": 2, "is_ground_truth": true, "status": "Ground Truth"}, "geometry": {"type": "LineString", "coordinates": [[6.018580084222077, 50.864972021659504], [6.0185514329928775, 50.86495420009545]]}}, {"id": "71", "type": "Feature", "properties": {"line_id": "CAD_LINE_00072", "length_m": 4.243, "mean_confidence": 1.0, "num_vertices": 2, "is_ground_truth": true, "status": "Ground Truth"}, "geometry": {"type": "LineString", "coordinates": [[6.018601851720024, 50.86526629270026], [6.0185588745982015, 50.8652395603599]]}}, {"id": "72", "type": "Feature", "properties": {"line_id": "CAD_LINE_00073", "length_m": 4.596, "mean_confidence": 1.0, "num_vertices": 2, "is_ground_truth": true, "status": "Ground Truth"}, "geometry": {"type": "LineString", "coordinates": [[6.018642415362415, 50.86563686763785], [6.018702564766516, 50.86562080839144]]}}, {"id": "73", "type": "Feature", "properties": {"line_id": "CAD_LINE_00074", "length_m": 5.303, "mean_confidence": 1.0, "num_vertices": 2, "is_ground_truth": true, "status": "Ground Truth"}, "geometry": {"type": "LineString", "coordinates": [[6.018691778274173, 50.86482983488137], [6.0186380573225025, 50.86479641949481]]}}, {"id": "74", "type": "Feature", "properties": {"line_id": "CAD_LINE_00075", "length_m": 13.307, "mean_confidence": 1.0, "num_vertices": 3, "is_ground_truth": true, "status": "Ground Truth"}, "geometry": {"type": "LineString", "coordinates": [[6.018650892268243, 50.865477266510254], [6.01871480677883, 50.86547691745384], [6.018838962388502, 50.86546725029667]]}}, {"id": "75", "type": "Feature", "properties": {"line_id": "CAD_LINE_00076", "length_m": 2.828, "mean_confidence": 1.0, "num_vertices": 3, "is_ground_truth": true, "status": "Ground Truth"}, "geometry": {"type": "LineString", "coordinates": [[6.018668696516091, 50.864699620371084], [6.018647208193334, 50.864686254215115], [6.018654248402626, 50.86468172126558]]}}, {"id": "76", "type": "Feature", "properties": {"line_id": "CAD_LINE_00077", "length_m": 9.657, "mean_confidence": 1.0, "num_vertices": 2, "is_ground_truth": true, "status": "Ground Truth"}, "geometry": {"type": "LineString", "coordinates": [[6.018729688244848, 50.865786956845135], [6.018678873476965, 50.8657063333242]]}}, {"id": "77", "type": "Feature", "properties": {"line_id": "CAD_LINE_00078", "length_m": 3.536, "mean_confidence": 1.0, "num_vertices": 2, "is_ground_truth": true, "status": "Ground Truth"}, "geometry": {"type": "LineString", "coordinates": [[6.018742925095749, 50.86467449520412], [6.018707111215255, 50.86465221829831]]}}, {"id": "78", "type": "Feature", "properties": {"line_id": "CAD_LINE_00079", "length_m": 4.243, "mean_confidence": 1.0, "num_vertices": 3, "is_ground_truth": true, "status": "Ground Truth"}, "geometry": {"type": "LineString", "coordinates": [[6.018729802739101, 50.86527458294258], [6.018740547047644, 50.86528126601325], [6.018772228343224, 50.865260867710575]]}}, {"id": "79", "type": "Feature", "properties": {"line_id": "CAD_LINE_00080", "length_m": 3.536, "mean_confidence": 1.0, "num_vertices": 2, "is_ground_truth": true, "status": "Ground Truth"}, "geometry": {"type": "LineString", "coordinates": [[6.018790993675906, 50.865334924501134], [6.01875517926036, 50.86531264761075]]}}, {"id": "80", "type": "Feature", "properties": {"line_id": "CAD_LINE_00081", "length_m": 8.523, "mean_confidence": 1.0, "num_vertices": 4, "is_ground_truth": true, "status": "Ground Truth"}, "geometry": {"type": "LineString", "coordinates": [[6.018756926107005, 50.865440731388674], [6.018763966419885, 50.86543619843223], [6.018813631687132, 50.8654325562727], [6.01887391870132, 50.86542660881491]]}}, {"id": "81", "type": "Feature", "properties": {"line_id": "CAD_LINE_00082", "length_m": 5.884, "mean_confidence": 1.0, "num_vertices": 2, "is_ground_truth": true, "status": "Ground Truth"}, "geometry": {"type": "LineString", "coordinates": [[6.018794426283706, 50.86558659788842], [6.018875941753603, 50.8655749163449]]}}, {"id": "82", "type": "Feature", "properties": {"line_id": "CAD_LINE_00083", "length_m": 3.889, "mean_confidence": 1.0, "num_vertices": 2, "is_ground_truth": true, "status": "Ground Truth"}, "geometry": {"type": "LineString", "coordinates": [[6.018793379839575, 50.86524951592118], [6.018832101364294, 50.86522458464364]]}}]}