{"type": "FeatureCollection", "features": [{"id": "0", "type": "Feature", "properties": {"line_id": "CAD_LINE_00001", "length_m": 52.128, "mean_confidence": 1.0, "num_vertices": 10, "is_ground_truth": true, "status": "Ground Truth"}, "geometry": {"type": "LineString", "coordinates": [[5.973825350660061, 51.18380885945586], [5.973871845588616, 51.18380974829242], [5.973954109166373, 51.183811580084445], [5.974011344752415, 51.18381353823977], [5.974047113403951, 51.18381448118525], [5.97420947919297, 51.1837889412138], [5.974257704326114, 51.18378532666582], [5.974329184093936, 51.18378271819693], [5.974472172362783, 51.183779748225845], [5.974565119041632, 51.18377815471506]]}}, {"id": "1", "type": "Feature", "properties": {"line_id": "CAD_LINE_00002", "length_m": 25.761, "mean_confidence": 1.0, "num_vertices": 5, "is_ground_truth": true, "status": "Ground Truth"}, "geometry": {"type": "LineString", "coordinates": [[5.973826356088179, 51.183887507911706], [5.9738800019648295, 51.183888360636324], [5.974012321763667, 51.18388993959483], [5.974144641571004, 51.18389151840263], [5.9741947120233165, 51.18389238904584]]}}, {"id": "2", "type": "Feature", "properties": {"line_id": "CAD_LINE_00003", "length_m": 25.535, "mean_confidence": 1.0, "num_vertices": 6, "is_ground_truth": true, "status": "Ground Truth"}, "geometry": {"type": "LineString", "coordinates": [[5.973826959346964, 51.183934696985084], [5.973887784884142, 51.18393776069615], [5.973959322377486, 51.183939646651794], [5.974052312506053, 51.18394142419865], [5.9741238500114635, 51.18394331005299], [5.974191797711854, 51.183944090379434]]}}, {"id": "3", "type": "Feature", "properties": {"line_id": "CAD_LINE_00004", "length_m": 25.021, "mean_confidence": 1.0, "num_vertices": 6, "is_ground_truth": true, "status": "Ground Truth"}, "geometry": {"type": "LineString", "coordinates": [[5.973828223322402, 51.1840335693292], [5.973881869369796, 51.18403442205269], [5.973953407013574, 51.18403630801169], [5.974046397337772, 51.184038085563024], [5.974117934993614, 51.18403997142069], [5.974185882837013, 51.18404075175037]]}}, {"id": "4", "type": "Feature", "properties": {"line_id": "CAD_LINE_00005", "length_m": 22.024, "mean_confidence": 1.0, "num_vertices": 5, "is_ground_truth": true, "status": "Ground Truth"}, "geometry": {"type": "LineString", "coordinates": [[5.973828826585625, 51.18408075840244], [5.973932557709313, 51.184083605430736], [5.974004095431712, 51.184085491358466], [5.974075633159812, 51.1840873772421], [5.9741435810727666, 51.18408815759637]]}}, {"id": "5", "type": "Feature", "properties": {"line_id": "CAD_LINE_00006", "length_m": 8.75, "mean_confidence": 1.0, "num_vertices": 3, "is_ground_truth": true, "status": "Ground Truth"}, "geometry": {"type": "LineString", "coordinates": [[5.973829860754488, 51.184161653956394], [5.97389064349774, 51.1841613470174], [5.973955001695453, 51.18416102198858]]}}, {"id": "6", "type": "Feature", "properties": {"line_id": "CAD_LINE_00007", "length_m": 22.514, "mean_confidence": 1.0, "num_vertices": 5, "is_ground_truth": true, "status": "Ground Truth"}, "geometry": {"type": "LineString", "coordinates": [[5.973838346386183, 51.18398632609276], [5.973920595913548, 51.18398703435864], [5.974024312462601, 51.18398875775606], [5.974092274598649, 51.18399066168992], [5.974160222368674, 51.1839914420347]]}}, {"id": "7", "type": "Feature", "properties": {"line_id": "CAD_LINE_00008", "length_m": 22.332, "mean_confidence": 1.0, "num_vertices": 5, "is_ground_truth": true, "status": "Ground Truth"}, "geometry": {"type": "LineString", "coordinates": [[5.973842509617819, 51.18375259171552], [5.9740318059107365, 51.18373590497454], [5.974135435671346, 51.18373088697763], [5.974153255295419, 51.18372630246076], [5.974156859459474, 51.18372853149515]]}}, {"id": "8", "type": "Feature", "properties": {"line_id": "CAD_LINE_00009", "length_m": 3.132, "mean_confidence": 1.0, "num_vertices": 2, "is_ground_truth": true, "status": "Ground Truth"}, "geometry": {"type": "LineString", "coordinates": [[5.973866028085956, 51.18335471079799], [5.973844259732935, 51.18333010104153]]}}, {"id": "9", "type": "Feature", "properties": {"line_id": "CAD_LINE_00010", "length_m": 4.25, "mean_confidence": 1.0, "num_vertices": 2, "is_ground_truth": true, "status": "Ground Truth"}, "geometry": {"type": "LineString", "coordinates": [[5.973898292808563, 51.183361289591936], [5.973869258739783, 51.18332772755762]]}}, {"id": "10", "type": "Feature", "properties": {"line_id": "CAD_LINE_00011", "length_m": 3.132, "mean_confidence": 1.0, "num_vertices": 2, "is_ground_truth": true, "status": "Ground Truth"}, "geometry": {"type": "LineString", "coordinates": [[5.973902327879533, 51.18339722511539], [5.973880559486826, 51.18337261536582]]}}, {"id": "11", "type": "Feature", "properties": {"line_id": "CAD_LINE_00012", "length_m": 2.926, "mean_confidence": 1.0, "num_vertices": 2, "is_ground_truth": true, "status": "Ground Truth"}, "geometry": {"type": "LineString", "coordinates": [[5.973901006308, 51.183293858573336], [5.973940220647872, 51.183284671551576]]}}, {"id": "12", "type": "Feature", "properties": {"line_id": "CAD_LINE_00013", "length_m": 3.162, "mean_confidence": 1.0, "num_vertices": 2, "is_ground_truth": true, "status": "Ground Truth"}, "geometry": {"type": "LineString", "coordinates": [[5.973916699729939, 51.18312298878564], [5.973959489294644, 51.18311378370069]]}}, {"id": "13", "type": "Feature", "properties": {"line_id": "CAD_LINE_00014", "length_m": 5.256, "mean_confidence": 1.0, "num_vertices": 2, "is_ground_truth": true, "status": "Ground Truth"}, "geometry": {"type": "LineString", "coordinates": [[5.973952814407757, 51.18343067879531], [5.973920089936121, 51.18338814643691]]}}, {"id": "14", "type": "Feature", "properties": {"line_id": "CAD_LINE_00015", "length_m": 3.132, "mean_confidence": 1.0, "num_vertices": 2, "is_ground_truth": true, "status": "Ground Truth"}, "geometry": {"type": "LineString", "coordinates": [[5.974007709728887, 51.18352928025584], [5.973985941216849, 51.18350467052627]]}}, {"id": "15", "type": "Feature", "properties": {"line_id": "CAD_LINE_00016", "length_m": 3.132, "mean_confidence": 1.0, "num_vertices": 2, "is_ground_truth": true, "status": "Ground Truth"}, "geometry": {"type": "LineString", "coordinates": [[5.974044009792211, 51.18357179452839], [5.974022241240487, 51.183547184805704]]}}, {"id": "16", "type": "Feature", "properties": {"line_id": "CAD_LINE_00017", "length_m": 6.41, "mean_confidence": 1.0, "num_vertices": 3, "is_ground_truth": true, "status": "Ground Truth"}, "geometry": {"type": "LineString", "coordinates": [[5.97402323041589, 51.18334492786299], [5.974069581187824, 51.18333458112767], [5.974108781158516, 51.1833242704997]]}}, {"id": "17", "type": "Feature", "properties": {"line_id": "CAD_LINE_00018", "length_m": 5.368, "mean_confidence": 1.0, "num_vertices": 2, "is_ground_truth": true, "status": "Ground Truth"}, "geometry": {"type": "LineString", "coordinates": [[5.974065404772862, 51.18356719196416], [5.974029104693405, 51.1835246776983]]}}, {"id": "18", "type": "Feature", "properties": {"line_id": "CAD_LINE_00019", "length_m": 3.579, "mean_confidence": 1.0, "num_vertices": 2, "is_ground_truth": true, "status": "Ground Truth"}, "geometry": {"type": "LineString", "coordinates": [[5.974080367400461, 51.18361880298676], [5.974058541331478, 51.18358969907363]]}}, {"id": "19", "type": "Feature", "properties": {"line_id": "CAD_LINE_00020", "length_m": 2.926, "mean_confidence": 1.0, "num_vertices": 2, "is_ground_truth": true, "status": "Ground Truth"}, "geometry": {"type": "LineString", "coordinates": [[5.974079200928877, 51.18324801364307], [5.974118415193715, 51.183238826561286]]}}, {"id": "20", "type": "Feature", "properties": {"line_id": "CAD_LINE_00021", "length_m": 2.574, "mean_confidence": 1.0, "num_vertices": 2, "is_ground_truth": true, "status": "Ground Truth"}, "geometry": {"type": "LineString", "coordinates": [[5.974101704919673, 51.18360970621852], [5.974083569207308, 51.18358957264207]]}}, {"id": "21", "type": "Feature", "properties": {"line_id": "CAD_LINE_00022", "length_m": 2.926, "mean_confidence": 1.0, "num_vertices": 2, "is_ground_truth": true, "status": "Ground Truth"}, "geometry": {"type": "LineString", "coordinates": [[5.974122640058662, 51.18356915006518], [5.974161854588839, 51.18355996296838]]}}, {"id": "22", "type": "Feature", "properties": {"line_id": "CAD_LINE_00023", "length_m": 9.374, "mean_confidence": 1.0, "num_vertices": 5, "is_ground_truth": true, "status": "Ground Truth"}, "geometry": {"type": "LineString", "coordinates": [[5.9741416034246075, 51.18309488580217], [5.974141430976533, 51.18308140321012], [5.9741341365292175, 51.183070203844025], [5.97413191773118, 51.18303650639551], [5.974126238533518, 51.183011815405045]]}}, {"id": "23", "type": "Feature", "properties": {"line_id": "CAD_LINE_00024", "length_m": 2.85, "mean_confidence": 1.0, "num_vertices": 2, "is_ground_truth": true, "status": "Ground Truth"}, "geometry": {"type": "LineString", "coordinates": [[5.974163659249346, 51.18314196648961], [5.974152616960341, 51.18311730259712]]}}, {"id": "24", "type": "Feature", "properties": {"line_id": "CAD_LINE_00025", "length_m": 40.069, "mean_confidence": 1.0, "num_vertices": 8, "is_ground_truth": true, "status": "Ground Truth"}, "geometry": {"type": "LineString", "coordinates": [[5.974180255379142, 51.184159884106876], [5.974181410734893, 51.18411043890502], [5.974186428979314, 51.18408344662393], [5.974257894841616, 51.18407971464888], [5.974329375067793, 51.18407710617916], [5.9744366097698025, 51.18407431694145], [5.974540283391096, 51.18407266923026], [5.974636762958908, 51.18406768693732]]}}, {"id": "25", "type": "Feature", "properties": {"line_id": "CAD_LINE_00026", "length_m": 10.112, "mean_confidence": 1.0, "num_vertices": 3, "is_ground_truth": true, "status": "Ground Truth"}, "geometry": {"type": "LineString", "coordinates": [[5.974181801179113, 51.1837216637464], [5.974246086890195, 51.18371572081079], [5.97432464551391, 51.18370745846402]]}}, {"id": "26", "type": "Feature", "properties": {"line_id": "CAD_LINE_00027", "length_m": 31.776, "mean_confidence": 1.0, "num_vertices": 6, "is_ground_truth": true, "status": "Ground Truth"}, "geometry": {"type": "LineString", "coordinates": [[5.974190608064559, 51.184130617629364], [5.9742978285255885, 51.18412670497017], [5.974405063345491, 51.18412391576139], [5.974476543631768, 51.184121307201075], [5.974583778427543, 51.184118517827386], [5.974644546723641, 51.184117086944916]]}}, {"id": "27", "type": "Feature", "properties": {"line_id": "CAD_LINE_00028", "length_m": 30.139, "mean_confidence": 1.0, "num_vertices": 11, "is_ground_truth": true, "status": "Ground Truth"}, "geometry": {"type": "LineString", "coordinates": [[5.974196839133443, 51.18405867434303], [5.974198023214086, 51.18401147623947], [5.974196005534108, 51.18399350848339], [5.9742030126930565, 51.183982236859045], [5.974198948588605, 51.18394405424838], [5.974205955739329, 51.18393278262385], [5.97420186289201, 51.183892352914626], [5.974208898779473, 51.18388332838856], [5.974205035894768, 51.183860875468284], [5.974211870558893, 51.183836121251744], [5.97421308336468, 51.183791170246444]]}}, {"id": "28", "type": "Feature", "properties": {"line_id": "CAD_LINE_00029", "length_m": 26.762, "mean_confidence": 1.0, "num_vertices": 5, "is_ground_truth": true, "status": "Ground Truth"}, "geometry": {"type": "LineString", "coordinates": [[5.974210163575742, 51.18398220072733], [5.974295959792105, 51.183980643562904], [5.974367439861771, 51.18397803507004], [5.974524730498825, 51.183974992749185], [5.974592649487831, 51.18397352574264]]}}, {"id": "29", "type": "Feature", "properties": {"line_id": "CAD_LINE_00030", "length_m": 28.01, "mean_confidence": 1.0, "num_vertices": 5, "is_ground_truth": true, "status": "Ground Truth"}, "geometry": {"type": "LineString", "coordinates": [[5.9742131066143065, 51.18393274649199], [5.974291751863488, 51.183931225462715], [5.974409712538297, 51.18392838204438], [5.974552701255258, 51.18392541197352], [5.974613469296765, 51.183923981107704]]}}, {"id": "30", "type": "Feature", "properties": {"line_id": "CAD_LINE_00031", "length_m": 27.269, "mean_confidence": 1.0, "num_vertices": 6, "is_ground_truth": true, "status": "Ground Truth"}, "geometry": {"type": "LineString", "coordinates": [[5.974216049646744, 51.18388329225649], [5.97425896922396, 51.183884199004105], [5.974344750879385, 51.183881518254665], [5.974444834257205, 51.18387876515005], [5.974544917622675, 51.183876011959256], [5.974605685599047, 51.18387458109768]]}}, {"id": "31", "type": "Feature", "properties": {"line_id": "CAD_LINE_00032", "length_m": 24.513, "mean_confidence": 1.0, "num_vertices": 5, "is_ground_truth": true, "status": "Ground Truth"}, "geometry": {"type": "LineString", "coordinates": [[5.974219021418806, 51.1838360851195], [5.974304817361753, 51.18383452794898], [5.974376297203391, 51.18383191945098], [5.9745014084759624, 51.183829039797644], [5.974569327249827, 51.18382757280507]]}}, {"id": "32", "type": "Feature", "properties": {"line_id": "CAD_LINE_00033", "length_m": 28.519, "mean_confidence": 1.0, "num_vertices": 6, "is_ground_truth": true, "status": "Ground Truth"}, "geometry": {"type": "LineString", "coordinates": [[5.9742215223117885, 51.1840315826981], [5.9742965922849764, 51.18403007973157], [5.974368072431579, 51.18402747123821], [5.974450278903495, 51.18402480848125], [5.9745682398083115, 51.18402196490163], [5.974629007977115, 51.18402053402754]]}}, {"id": "33", "type": "Feature", "properties": {"line_id": "CAD_LINE_00034", "length_m": 4.697, "mean_confidence": 1.0, "num_vertices": 2, "is_ground_truth": true, "status": "Ground Truth"}, "geometry": {"type": "LineString", "coordinates": [[5.974251135582965, 51.18327186463214], [5.974222043822555, 51.18323380848891]]}}, {"id": "34", "type": "Feature", "properties": {"line_id": "CAD_LINE_00035", "length_m": 11.727, "mean_confidence": 1.0, "num_vertices": 4, "is_ground_truth": true, "status": "Ground Truth"}, "geometry": {"type": "LineString", "coordinates": [[5.974302753916238, 51.183114296709256], [5.974284244584067, 51.18306495088161], [5.974287704959993, 51.18305594441889], [5.974276403894163, 51.18301105665043]]}}, {"id": "35", "type": "Feature", "properties": {"line_id": "CAD_LINE_00036", "length_m": 5.942, "mean_confidence": 1.0, "num_vertices": 3, "is_ground_truth": true, "status": "Ground Truth"}, "geometry": {"type": "LineString", "coordinates": [[5.974322230456543, 51.183518702182575], [5.974361430527217, 51.18350839146927], [5.9744006305802335, 51.18349808074274]]}}, {"id": "36", "type": "Feature", "properties": {"line_id": "CAD_LINE_00037", "length_m": 3.64, "mean_confidence": 1.0, "num_vertices": 2, "is_ground_truth": true, "status": "Ground Truth"}, "geometry": {"type": "LineString", "coordinates": [[5.974326947769278, 51.18304900436566], [5.974376887917893, 51.183039762988074]]}}, {"id": "37", "type": "Feature", "properties": {"line_id": "CAD_LINE_00038", "length_m": 3.64, "mean_confidence": 1.0, "num_vertices": 2, "is_ground_truth": true, "status": "Ground Truth"}, "geometry": {"type": "LineString", "coordinates": [[5.974356499528773, 51.18312301406052], [5.974406439751848, 51.18311377267013]]}}, {"id": "38", "type": "Feature", "properties": {"line_id": "CAD_LINE_00039", "length_m": 7.906, "mean_confidence": 1.0, "num_vertices": 2, "is_ground_truth": true, "status": "Ground Truth"}, "geometry": {"type": "LineString", "coordinates": [[5.974364685360498, 51.183203873469154], [5.974471659202057, 51.18318086031491]]}}, {"id": "39", "type": "Feature", "properties": {"line_id": "CAD_LINE_00040", "length_m": 3.021, "mean_confidence": 1.0, "num_vertices": 2, "is_ground_truth": true, "status": "Ground Truth"}, "geometry": {"type": "LineString", "coordinates": [[5.974386568945843, 51.18323747152219], [5.97436837575132, 51.18321284379283]]}}, {"id": "40", "type": "Feature", "properties": {"line_id": "CAD_LINE_00041", "length_m": 4.191, "mean_confidence": 1.0, "num_vertices": 2, "is_ground_truth": true, "status": "Ground Truth"}, "geometry": {"type": "LineString", "coordinates": [[5.974394707249682, 51.183035178434544], [5.9744517693464845, 51.18302365378295]]}}, {"id": "41", "type": "Feature", "properties": {"line_id": "CAD_LINE_00042", "length_m": 2.926, "mean_confidence": 1.0, "num_vertices": 2, "is_ground_truth": true, "status": "Ground Truth"}, "geometry": {"type": "LineString", "coordinates": [[5.9744192074759175, 51.18327326245314], [5.974458421693795, 51.18326407525672]]}}, {"id": "42", "type": "Feature", "properties": {"line_id": "CAD_LINE_00043", "length_m": 5.772, "mean_confidence": 1.0, "num_vertices": 3, "is_ground_truth": true, "status": "Ground Truth"}, "geometry": {"type": "LineString", "coordinates": [[5.974424259109369, 51.18310918811205], [5.974463487564749, 51.183101124463384], [5.974502716006301, 51.18309306080146]]}}, {"id": "43", "type": "Feature", "properties": {"line_id": "CAD_LINE_00044", "length_m": 5.256, "mean_confidence": 1.0, "num_vertices": 2, "is_ground_truth": true, "status": "Ground Truth"}, "geometry": {"type": "LineString", "coordinates": [[5.97446919591676, 51.18354717352713], [5.9744364708837505, 51.18350464131515]]}}, {"id": "44", "type": "Feature", "properties": {"line_id": "CAD_LINE_00045", "length_m": 5.256, "mean_confidence": 1.0, "num_vertices": 2, "is_ground_truth": true, "status": "Ground Truth"}, "geometry": {"type": "LineString", "coordinates": [[5.974513749296323, 51.183396382955436], [5.974481024330142, 51.183353850755715]]}}, {"id": "45", "type": "Feature", "properties": {"line_id": "CAD_LINE_00046", "length_m": 2.85, "mean_confidence": 1.0, "num_vertices": 2, "is_ground_truth": true, "status": "Ground Truth"}, "geometry": {"type": "LineString", "coordinates": [[5.974489478579037, 51.1831762757468], [5.974528721460345, 51.18316933562534]]}}, {"id": "46", "type": "Feature", "properties": {"line_id": "CAD_LINE_00047", "length_m": 6.25, "mean_confidence": 1.0, "num_vertices": 3, "is_ground_truth": true, "status": "Ground Truth"}, "geometry": {"type": "LineString", "coordinates": [[5.974491520437325, 51.18333581974414], [5.974534324464518, 51.18332773799671], [5.9745771284765805, 51.183319656233515]]}}, {"id": "47", "type": "Feature", "properties": {"line_id": "CAD_LINE_00048", "length_m": 13.364, "mean_confidence": 1.0, "num_vertices": 4, "is_ground_truth": true, "status": "Ground Truth"}, "geometry": {"type": "LineString", "coordinates": [[5.974508333290092, 51.18325258672378], [5.97456895663042, 51.183239920389966], [5.97462959431985, 51.1832283775738], [5.974690217594518, 51.18321571117681]]}}, {"id": "48", "type": "Feature", "properties": {"line_id": "CAD_LINE_00049", "length_m": 3.64, "mean_confidence": 1.0, "num_vertices": 2, "is_ground_truth": true, "status": "Ground Truth"}, "geometry": {"type": "LineString", "coordinates": [[5.9745205353461115, 51.18308847622865], [5.97457047549833, 51.18307923476788]]}}, {"id": "49", "type": "Feature", "properties": {"line_id": "CAD_LINE_00050", "length_m": 5.256, "mean_confidence": 1.0, "num_vertices": 2, "is_ground_truth": true, "status": "Ground Truth"}, "geometry": {"type": "LineString", "coordinates": [[5.974568271866626, 51.183465771868505], [5.9745355468002606, 51.183423239684345]]}}, {"id": "50", "type": "Feature", "properties": {"line_id": "CAD_LINE_00051", "length_m": 4.981, "mean_confidence": 1.0, "num_vertices": 2, "is_ground_truth": true, "status": "Ground Truth"}, "geometry": {"type": "LineString", "coordinates": [[5.974546540827121, 51.18316475104847], [5.974614300411589, 51.18315092498926]]}}, {"id": "51", "type": "Feature", "properties": {"line_id": "CAD_LINE_00052", "length_m": 3.64, "mean_confidence": 1.0, "num_vertices": 2, "is_ground_truth": true, "status": "Ground Truth"}, "geometry": {"type": "LineString", "coordinates": [[5.974567437754127, 51.1834006060114], [5.974617378236158, 51.18339136453007]]}}, {"id": "52", "type": "Feature", "properties": {"line_id": "CAD_LINE_00053", "length_m": 16.527, "mean_confidence": 1.0, "num_vertices": 5, "is_ground_truth": true, "status": "Ground Truth"}, "geometry": {"type": "LineString", "coordinates": [[5.974582746049853, 51.18347918215095], [5.9746718865731205, 51.18345962984497], [5.9747182516984605, 51.18345040640027], [5.9747646168051025, 51.1834411829371], [5.9748074208819855, 51.183433101088994]]}}, {"id": "53", "type": "Feature", "properties": {"line_id": "CAD_LINE_00054", "length_m": 5.368, "mean_confidence": 1.0, "num_vertices": 2, "is_ground_truth": true, "status": "Ground Truth"}, "geometry": {"type": "LineString", "coordinates": [[5.97462637000839, 51.18353514267689], [5.974590069435536, 51.183492628587004]]}}, {"id": "54", "type": "Feature", "properties": {"line_id": "CAD_LINE_00055", "length_m": 4.981, "mean_confidence": 1.0, "num_vertices": 2, "is_ground_truth": true, "status": "Ground Truth"}, "geometry": {"type": "LineString", "coordinates": [[5.974588294825973, 51.1830746501847], [5.97465605426487, 51.1830608241013]]}}, {"id": "55", "type": "Feature", "properties": {"line_id": "CAD_LINE_00056", "length_m": 2.85, "mean_confidence": 1.0, "num_vertices": 2, "is_ground_truth": true, "status": "Ground Truth"}, "geometry": {"type": "LineString", "coordinates": [[5.974594947896788, 51.18331507164918], [5.974634190880581, 51.18330813149196]]}}, {"id": "56", "type": "Feature", "properties": {"line_id": "CAD_LINE_00057", "length_m": 38.908, "mean_confidence": 1.0, "num_vertices": 2, "is_ground_truth": true, "status": "Ground Truth"}, "geometry": {"type": "LineString", "coordinates": [[5.974655416915238, 51.18412826819864], [5.974600902058484, 51.18378022103934]]}}, {"id": "57", "type": "Feature", "properties": {"line_id": "CAD_LINE_00058", "length_m": 2.85, "mean_confidence": 1.0, "num_vertices": 2, "is_ground_truth": true, "status": "Ground Truth"}, "geometry": {"type": "LineString", "coordinates": [[5.97463519768013, 51.18338677993953], [5.974674440719044, 51.18337983976859]]}}, {"id": "58", "type": "Feature", "properties": {"line_id": "CAD_LINE_00059", "length_m": 10.277, "mean_confidence": 1.0, "num_vertices": 2, "is_ground_truth": true, "status": "Ground Truth"}, "geometry": {"type": "LineString", "coordinates": [[5.974640844230519, 51.18354855295203], [5.974779911065595, 51.18351863550079]]}}, {"id": "59", "type": "Feature", "properties": {"line_id": "CAD_LINE_00060", "length_m": 5.256, "mean_confidence": 1.0, "num_vertices": 2, "is_ground_truth": true, "status": "Ground Truth"}, "geometry": {"type": "LineString", "coordinates": [[5.974680892914386, 51.183604531536304], [5.9746481676443555, 51.18356199938437]]}}, {"id": "60", "type": "Feature", "properties": {"line_id": "CAD_LINE_00061", "length_m": 2.85, "mean_confidence": 1.0, "num_vertices": 2, "is_ground_truth": true, "status": "Ground Truth"}, "geometry": {"type": "LineString", "coordinates": [[5.9746520102905825, 51.18330354689884], [5.974691253255824, 51.18329660672239]]}}, {"id": "61", "type": "Feature", "properties": {"line_id": "CAD_LINE_00062", "length_m": 4.981, "mean_confidence": 1.0, "num_vertices": 2, "is_ground_truth": true, "status": "Ground Truth"}, "geometry": {"type": "LineString", "coordinates": [[5.974664211845686, 51.18313943638962], [5.974731971357095, 51.18312561026185]]}}, {"id": "62", "type": "Feature", "properties": {"line_id": "CAD_LINE_00063", "length_m": 5.256, "mean_confidence": 1.0, "num_vertices": 2, "is_ground_truth": true, "status": "Ground Truth"}, "geometry": {"type": "LineString", "coordinates": [[5.974735415985547, 51.183673920369806], [5.9747026906153256, 51.18363138823343]]}}, {"id": "63", "type": "Feature", "properties": {"line_id": "CAD_LINE_00064", "length_m": 4.981, "mean_confidence": 1.0, "num_vertices": 2, "is_ground_truth": true, "status": "Ground Truth"}, "geometry": {"type": "LineString", "coordinates": [[5.974705965590566, 51.18304933548389], [5.9747737249564095, 51.183035509331994]]}}, {"id": "64", "type": "Feature", "properties": {"line_id": "CAD_LINE_00065", "length_m": 4.191, "mean_confidence": 1.0, "num_vertices": 2, "is_ground_truth": true, "status": "Ground Truth"}, "geometry": {"type": "LineString", "coordinates": [[5.974738625188867, 51.1833660317166], [5.974795687609607, 51.18335450689574]]}}, {"id": "65", "type": "Feature", "properties": {"line_id": "CAD_LINE_00066", "length_m": 44.931, "mean_confidence": 1.0, "num_vertices": 12, "is_ground_truth": true, "status": "Ground Truth"}, "geometry": {"type": "LineString", "coordinates": [[5.974798809079009, 51.18415675720216], [5.974805585916773, 51.18412750875447], [5.974799762347515, 51.184091582306316], [5.974801204778743, 51.184064608083325], [5.974793881239334, 51.184051161660996], [5.974791777002483, 51.1840264526204], [5.97478950012505, 51.18398826098926], [5.974782205374776, 51.18397706166456], [5.974764763580749, 51.1838715294134], [5.974762486733995, 51.18383333778154], [5.974755192015076, 51.18382213845508], [5.974743631358155, 51.1837570268479]]}}, {"id": "66", "type": "Feature", "properties": {"line_id": "CAD_LINE_00067", "length_m": 5.534, "mean_confidence": 1.0, "num_vertices": 2, "is_ground_truth": true, "status": "Ground Truth"}, "geometry": {"type": "LineString", "coordinates": [[5.974740129079862, 51.183204222544504], [5.974815010648091, 51.18318811310516]]}}, {"id": "67", "type": "Feature", "properties": {"line_id": "CAD_LINE_00068", "length_m": 8.696, "mean_confidence": 1.0, "num_vertices": 2, "is_ground_truth": true, "status": "Ground Truth"}, "geometry": {"type": "LineString", "coordinates": [[5.9747498902834, 51.18368733063121], [5.974867562527488, 51.18366201576478]]}}, {"id": "68", "type": "Feature", "properties": {"line_id": "CAD_LINE_00069", "length_m": 3.64, "mean_confidence": 1.0, "num_vertices": 2, "is_ground_truth": true, "status": "Ground Truth"}, "geometry": {"type": "LineString", "coordinates": [[5.974749790686493, 51.18312102565389], [5.974799730827548, 51.18311178409464]]}}, {"id": "69", "type": "Feature", "properties": {"line_id": "CAD_LINE_00070", "length_m": 10.548, "mean_confidence": 1.0, "num_vertices": 2, "is_ground_truth": true, "status": "Ground Truth"}, "geometry": {"type": "LineString", "coordinates": [[5.974769637592903, 51.18383330161545], [5.974919690506769, 51.183823553631655]]}}, {"id": "70", "type": "Feature", "properties": {"line_id": "CAD_LINE_00071", "length_m": 9.65, "mean_confidence": 1.0, "num_vertices": 4, "is_ground_truth": true, "status": "Ground Truth"}, "geometry": {"type": "LineString", "coordinates": [[5.974780918120878, 51.18359728394632], [5.974823722340326, 51.18358920209201], [5.974870087565688, 51.18357997858661], [5.974912891753177, 51.183571896699505]]}}, {"id": "71", "type": "Feature", "properties": {"line_id": "CAD_LINE_00072", "length_m": 3.64, "mean_confidence": 1.0, "num_vertices": 2, "is_ground_truth": true, "status": "Ground Truth"}, "geometry": {"type": "LineString", "coordinates": [[5.974786392572888, 51.1837455743595], [5.974836333385501, 51.18373633278358]]}}, {"id": "72", "type": "Feature", "properties": {"line_id": "CAD_LINE_00073", "length_m": 10.05, "mean_confidence": 1.0, "num_vertices": 2, "is_ground_truth": true, "status": "Ground Truth"}, "geometry": {"type": "LineString", "coordinates": [[5.974796651008064, 51.18398822482146], [5.97493955354103, 51.18397851297909]]}}, {"id": "73", "type": "Feature", "properties": {"line_id": "CAD_LINE_00074", "length_m": 16.585, "mean_confidence": 1.0, "num_vertices": 4, "is_ground_truth": true, "status": "Ground Truth"}, "geometry": {"type": "LineString", "coordinates": [[5.975048889388693, 51.184139761356754], [5.974963035337853, 51.18413682488076], [5.974877181297744, 51.18413388834132], [5.974812736821462, 51.184127472585644]]}}, {"id": "74", "type": "Feature", "properties": {"line_id": "CAD_LINE_00075", "length_m": 12.16, "mean_confidence": 1.0, "num_vertices": 4, "is_ground_truth": true, "status": "Ground Truth"}, "geometry": {"type": "LineString", "coordinates": [[5.97480584571441, 51.1830308523818], [5.974816715686947, 51.18304203362106], [5.974827384240552, 51.183037485170054], [5.974966708441245, 51.183027791383566]]}}, {"id": "75", "type": "Feature", "properties": {"line_id": "CAD_LINE_00076", "length_m": 3.881, "mean_confidence": 1.0, "num_vertices": 2, "is_ground_truth": true, "status": "Ground Truth"}, "geometry": {"type": "LineString", "coordinates": [[5.974835168031241, 51.18308688516611], [5.974820434927458, 51.18305325102875]]}}, {"id": "76", "type": "Feature", "properties": {"line_id": "CAD_LINE_00077", "length_m": 3.64, "mean_confidence": 1.0, "num_vertices": 2, "is_ground_truth": true, "status": "Ground Truth"}, "geometry": {"type": "LineString", "coordinates": [[5.974825240323045, 51.18342851646933], [5.974875180783072, 51.18341927487723]]}}, {"id": "77", "type": "Feature", "properties": {"line_id": "CAD_LINE_00078", "length_m": 3.162, "mean_confidence": 1.0, "num_vertices": 2, "is_ground_truth": true, "status": "Ground Truth"}, "geometry": {"type": "LineString", "coordinates": [[5.974832829993382, 51.18318352848445], [5.974875619429393, 51.18317432306237]]}}, {"id": "78", "type": "Feature", "properties": {"line_id": "CAD_LINE_00079", "length_m": 4.191, "mean_confidence": 1.0, "num_vertices": 2, "is_ground_truth": true, "status": "Ground Truth"}, "geometry": {"type": "LineString", "coordinates": [[5.974844095697369, 51.18350482739033], [5.974901158263818, 51.18349330251747]]}}, {"id": "79", "type": "Feature", "properties": {"line_id": "CAD_LINE_00080", "length_m": 4.191, "mean_confidence": 1.0, "num_vertices": 2, "is_ground_truth": true, "status": "Ground Truth"}, "geometry": {"type": "LineString", "coordinates": [[5.974845599219148, 51.183343018217975], [5.974902661584234, 51.183331493344625]]}}, {"id": "80", "type": "Feature", "properties": {"line_id": "CAD_LINE_00081", "length_m": 5.701, "mean_confidence": 1.0, "num_vertices": 2, "is_ground_truth": true, "status": "Ground Truth"}, "geometry": {"type": "LineString", "coordinates": [[5.97485415294125, 51.18373174815931], [5.974932639529791, 51.183717867655695]]}}, {"id": "81", "type": "Feature", "properties": {"line_id": "CAD_LINE_00082", "length_m": 12.87, "mean_confidence": 1.0, "num_vertices": 6, "is_ground_truth": true, "status": "Ground Truth"}, "geometry": {"type": "LineString", "coordinates": [[5.9748534765305985, 51.183120501215924], [5.974864432866348, 51.18313842374595], [5.974875101437572, 51.183133875290586], [5.974896539297849, 51.183132643221406], [5.974967960447899, 51.183125540164355], [5.975014397136337, 51.18312193434805]]}}, {"id": "82", "type": "Feature", "properties": {"line_id": "CAD_LINE_00083", "length_m": 3.64, "mean_confidence": 1.0, "num_vertices": 2, "is_ground_truth": true, "status": "Ground Truth"}, "geometry": {"type": "LineString", "coordinates": [[5.974893000211961, 51.18341469024719], [5.9749429406431975, 51.18340544862597]]}}, {"id": "83", "type": "Feature", "properties": {"line_id": "CAD_LINE_00084", "length_m": 12.023, "mean_confidence": 1.0, "num_vertices": 3, "is_ground_truth": true, "status": "Ground Truth"}, "geometry": {"type": "LineString", "coordinates": [[5.974899216422731, 51.18390006350161], [5.974984983676859, 51.18389625873039], [5.975070750916519, 51.18389245389588]]}}, {"id": "84", "type": "Feature", "properties": {"line_id": "CAD_LINE_00085", "length_m": 3.61, "mean_confidence": 1.0, "num_vertices": 3, "is_ground_truth": true, "status": "Ground Truth"}, "geometry": {"type": "LineString", "coordinates": [[5.974926394218125, 51.18323024730304], [5.9749120926885055, 51.183230319653845], [5.974901078754826, 51.18320790293157]]}}, {"id": "85", "type": "Feature", "properties": {"line_id": "CAD_LINE_00086", "length_m": 58.368, "mean_confidence": 1.0, "num_vertices": 12, "is_ground_truth": true, "status": "Ground Truth"}, "geometry": {"type": "LineString", "coordinates": [[5.97541232562967, 51.18348172653355], [5.975412066394888, 51.18346150264938], [5.975400735325291, 51.18341436789435], [5.9753934693206965, 51.18340541570617], [5.975396958307306, 51.18339865630908], [5.975374397060702, 51.183312251638576], [5.975077898885904, 51.183333977587196], [5.9750064774289475, 51.1833410807122], [5.974985039474379, 51.18334231280181], [5.974974370865728, 51.18334686126732], [5.9749597239205645, 51.183319968443335], [5.974923135412725, 51.183254983473475]]}}, {"id": "86", "type": "Feature", "properties": {"line_id": "CAD_LINE_00087", "length_m": 3.64, "mean_confidence": 1.0, "num_vertices": 2, "is_ground_truth": true, "status": "Ground Truth"}, "geometry": {"type": "LineString", "coordinates": [[5.974930711237463, 51.1835673120636], [5.974980651826968, 51.18355807042598]]}}, {"id": "87", "type": "Feature", "properties": {"line_id": "CAD_LINE_00088", "length_m": 5.22, "mean_confidence": 1.0, "num_vertices": 2, "is_ground_truth": true, "status": "Ground Truth"}, "geometry": {"type": "LineString", "coordinates": [[5.974931747333016, 51.1836482076057], [5.975003082927476, 51.18363436323073]]}}, {"id": "88", "type": "Feature", "properties": {"line_id": "CAD_LINE_00089", "length_m": 3.953, "mean_confidence": 1.0, "num_vertices": 2, "is_ground_truth": true, "status": "Ground Truth"}, "geometry": {"type": "LineString", "coordinates": [[5.974951069997565, 51.18348181379427], [5.975004557107305, 51.18347030695932]]}}, {"id": "89", "type": "Feature", "properties": {"line_id": "CAD_LINE_00090", "length_m": 11.711, "mean_confidence": 1.0, "num_vertices": 4, "is_ground_truth": true, "status": "Ground Truth"}, "geometry": {"type": "LineString", "coordinates": [[5.974964731966553, 51.18371096356254], [5.975036082041257, 51.18369824271643], [5.975082447333661, 51.1836890191262], [5.975125251585051, 51.1836809371608]]}}, {"id": "90", "type": "Feature", "properties": {"line_id": "CAD_LINE_00091", "length_m": 2.61, "mean_confidence": 1.0, "num_vertices": 2, "is_ground_truth": true, "status": "Ground Truth"}, "geometry": {"type": "LineString", "coordinates": [[5.974998471299084, 51.183553485779704], [5.975034139018023, 51.183546563577345]]}}, {"id": "91", "type": "Feature", "properties": {"line_id": "CAD_LINE_00092", "length_m": 12.358, "mean_confidence": 1.0, "num_vertices": 4, "is_ground_truth": true, "status": "Ground Truth"}, "geometry": {"type": "LineString", "coordinates": [[5.9750147076224405, 51.18342531072031], [5.975025635309396, 51.18344098613645], [5.975036303934786, 51.1834364376662], [5.975172053903359, 51.18342676172305]]}}, {"id": "92", "type": "Feature", "properties": {"line_id": "CAD_LINE_00093", "length_m": 3.64, "mean_confidence": 1.0, "num_vertices": 2, "is_ground_truth": true, "status": "Ground Truth"}, "geometry": {"type": "LineString", "coordinates": [[5.975020902426921, 51.183629778581], [5.975070843066026, 51.18362053690458]]}}, {"id": "93", "type": "Feature", "properties": {"line_id": "CAD_LINE_00094", "length_m": 16.919, "mean_confidence": 1.0, "num_vertices": 3, "is_ground_truth": true, "status": "Ground Truth"}, "geometry": {"type": "LineString", "coordinates": [[5.975113604071618, 51.18360908429603], [5.97507335334525, 51.18353737617331], [5.975033102745036, 51.18346566803623]]}}, {"id": "94", "type": "Feature", "properties": {"line_id": "CAD_LINE_00095", "length_m": 13.807, "mean_confidence": 1.0, "num_vertices": 2, "is_ground_truth": true, "status": "Ground Truth"}, "geometry": {"type": "LineString", "coordinates": [[5.97506913302801, 51.184045274674524], [5.975265638556673, 51.18403304393416]]}}, {"id": "95", "type": "Feature", "properties": {"line_id": "CAD_LINE_00096", "length_m": 4.743, "mean_confidence": 1.0, "num_vertices": 2, "is_ground_truth": true, "status": "Ground Truth"}, "geometry": {"type": "LineString", "coordinates": [[5.975109539244119, 51.18357090171801], [5.975087568606122, 51.183530562507464]]}}, {"id": "96", "type": "Feature", "properties": {"line_id": "CAD_LINE_00097", "length_m": 2.61, "mean_confidence": 1.0, "num_vertices": 2, "is_ground_truth": true, "status": "Ground Truth"}, "geometry": {"type": "LineString", "coordinates": [[5.975138833488381, 51.1836246873255], [5.97512781934866, 51.18360227062529]]}}, {"id": "97", "type": "Feature", "properties": {"line_id": "CAD_LINE_00098", "length_m": 11.568, "mean_confidence": 1.0, "num_vertices": 2, "is_ground_truth": true, "status": "Ground Truth"}, "geometry": {"type": "LineString", "coordinates": [[5.97513581589736, 51.183110083711796], [5.975300139058291, 51.183098015763896]]}}, {"id": "98", "type": "Feature", "properties": {"line_id": "CAD_LINE_00099", "length_m": 3.995, "mean_confidence": 1.0, "num_vertices": 3, "is_ground_truth": true, "status": "Ground Truth"}, "geometry": {"type": "LineString", "coordinates": [[5.97515783342375, 51.183712233685895], [5.975150308297984, 51.18368305759777], [5.975143099881143, 51.183678599590635]]}}, {"id": "99", "type": "Feature", "properties": {"line_id": "CAD_LINE_00100", "length_m": 9.283, "mean_confidence": 1.0, "num_vertices": 3, "is_ground_truth": true, "status": "Ground Truth"}, "geometry": {"type": "LineString", "coordinates": [[5.975295797241204, 51.1841542424483], [5.97524927314194, 51.18415110708382], [5.975163419057652, 51.18414817075594]]}}, {"id": "100", "type": "Feature", "properties": {"line_id": "CAD_LINE_00101", "length_m": 48.155, "mean_confidence": 1.0, "num_vertices": 10, "is_ground_truth": true, "status": "Ground Truth"}, "geometry": {"type": "LineString", "coordinates": [[5.975317163566889, 51.18414739255521], [5.975281958441654, 51.18405093927605], [5.97526151596993, 51.18399036716559], [5.975243206822488, 51.183956751181796], [5.975246724668982, 51.18395223888744], [5.975233778701473, 51.18391859575517], [5.975205926343878, 51.183837835944686], [5.975187617298404, 51.18380421995187], [5.97519113513874, 51.18379970765917], [5.975165185807188, 51.18372792718363]]}}, {"id": "101", "type": "Feature", "properties": {"line_id": "CAD_LINE_00102", "length_m": 3.953, "mean_confidence": 1.0, "num_vertices": 2, "is_ground_truth": true, "status": "Ground Truth"}, "geometry": {"type": "LineString", "coordinates": [[5.975181680858867, 51.18361997598695], [5.975235168071227, 51.18360846904574]]}}, {"id": "102", "type": "Feature", "properties": {"line_id": "CAD_LINE_00103", "length_m": 11.599, "mean_confidence": 1.0, "num_vertices": 4, "is_ground_truth": true, "status": "Ground Truth"}, "geometry": {"type": "LineString", "coordinates": [[5.975201434508808, 51.183487288609925], [5.9752478715443775, 51.18348368269982], [5.975319293185174, 51.183476579426134], [5.975365730200462, 51.18347297346894]]}}, {"id": "103", "type": "Feature", "properties": {"line_id": "CAD_LINE_00104", "length_m": 3.64, "mean_confidence": 1.0, "num_vertices": 2, "is_ground_truth": true, "status": "Ground Truth"}, "geometry": {"type": "LineString", "coordinates": [[5.975203680416427, 51.18366256227772], [5.975253621054056, 51.18365332052274]]}}, {"id": "104", "type": "Feature", "properties": {"line_id": "CAD_LINE_00105", "length_m": 4.743, "mean_confidence": 1.0, "num_vertices": 2, "is_ground_truth": true, "status": "Ground Truth"}, "geometry": {"type": "LineString", "coordinates": [[5.975252987537307, 51.18360388436047], [5.975317172144821, 51.18359007598878]]}}, {"id": "105", "type": "Feature", "properties": {"line_id": "CAD_LINE_00106", "length_m": 2.61, "mean_confidence": 1.0, "num_vertices": 2, "is_ground_truth": true, "status": "Ground Truth"}, "geometry": {"type": "LineString", "coordinates": [[5.9752714405356775, 51.183648735834595], [5.975307108287071, 51.18364181354843]]}}, {"id": "106", "type": "Feature", "properties": {"line_id": "CAD_LINE_00107", "length_m": 6.576, "mean_confidence": 1.0, "num_vertices": 2, "is_ground_truth": true, "status": "Ground Truth"}, "geometry": {"type": "LineString", "coordinates": [[5.975293473429024, 51.18341491092096], [5.9753863185290905, 51.183405451910595]]}}, {"id": "107", "type": "Feature", "properties": {"line_id": "CAD_LINE_00108", "length_m": 2.761, "mean_confidence": 1.0, "num_vertices": 2, "is_ground_truth": true, "status": "Ground Truth"}, "geometry": {"type": "LineString", "coordinates": [[5.9753300092133275, 51.183196743289756], [5.975369309586965, 51.18319429708115]]}}, {"id": "108", "type": "Feature", "properties": {"line_id": "CAD_LINE_00109", "length_m": 8.351, "mean_confidence": 1.0, "num_vertices": 3, "is_ground_truth": true, "status": "Ground Truth"}, "geometry": {"type": "LineString", "coordinates": [[5.975350585190672, 51.183965196592524], [5.9753706389376955, 51.18399543286108], [5.975436683790628, 51.183987233117435]]}}, {"id": "109", "type": "Feature", "properties": {"line_id": "CAD_LINE_00110", "length_m": 15.476, "mean_confidence": 1.0, "num_vertices": 4, "is_ground_truth": true, "status": "Ground Truth"}, "geometry": {"type": "LineString", "coordinates": [[5.975383985533768, 51.18322343695156], [5.975364697360681, 51.183113419644776], [5.975353712035112, 51.183093250063905], [5.975357201004036, 51.18308649066794]]}}, {"id": "110", "type": "Feature", "properties": {"line_id": "CAD_LINE_00111", "length_m": 4.507, "mean_confidence": 1.0, "num_vertices": 2, "is_ground_truth": true, "status": "Ground Truth"}, "geometry": {"type": "LineString", "coordinates": [[5.975367083878855, 51.18357858708692], [5.975427693008256, 51.183564796755746]]}}, {"id": "111", "type": "Feature", "properties": {"line_id": "CAD_LINE_00112", "length_m": 3.953, "mean_confidence": 1.0, "num_vertices": 2, "is_ground_truth": true, "status": "Ground Truth"}, "geometry": {"type": "LineString", "coordinates": [[5.975371264129187, 51.18362575804855], [5.975424751300398, 51.18361425102019]]}}, {"id": "112", "type": "Feature", "properties": {"line_id": "CAD_LINE_00113", "length_m": 9.674, "mean_confidence": 1.0, "num_vertices": 4, "is_ground_truth": true, "status": "Ground Truth"}, "geometry": {"type": "LineString", "coordinates": [[5.97545036228627, 51.18310174968843], [5.97545385124159, 51.18309499028959], [5.975446556472227, 51.18308379100637], [5.975434966220451, 51.18301643236986]]}}, {"id": "113", "type": "Feature", "properties": {"line_id": "CAD_LINE_00114", "length_m": 21.054, "mean_confidence": 1.0, "num_vertices": 4, "is_ground_truth": true, "status": "Ground Truth"}, "geometry": {"type": "LineString", "coordinates": [[5.975483942335409, 51.184047669410965], [5.975478060630659, 51.184007248801166], [5.975466182025137, 51.183917419187736], [5.9754600699008495, 51.18385902179121]]}}, {"id": "114", "type": "Feature", "properties": {"line_id": "CAD_LINE_00115", "length_m": 13.319, "mean_confidence": 1.0, "num_vertices": 4, "is_ground_truth": true, "status": "Ground Truth"}, "geometry": {"type": "LineString", "coordinates": [[5.975463414878427, 51.18384102690111], [5.97552772939765, 51.1838373303547], [5.975574195573171, 51.18383597141186], [5.975652768567895, 51.18382883171644]]}}, {"id": "115", "type": "Feature", "properties": {"line_id": "CAD_LINE_00116", "length_m": 12.929, "mean_confidence": 1.0, "num_vertices": 4, "is_ground_truth": true, "status": "Ground Truth"}, "geometry": {"type": "LineString", "coordinates": [[5.975461001984763, 51.183094954081106], [5.975502061141846, 51.18309025167734], [5.975525243436383, 51.18308563979206], [5.975643115412414, 51.18307605383062]]}}, {"id": "116", "type": "Feature", "properties": {"line_id": "CAD_LINE_00117", "length_m": 14.357, "mean_confidence": 1.0, "num_vertices": 2, "is_ground_truth": true, "status": "Ground Truth"}, "geometry": {"type": "LineString", "coordinates": [[5.975495888250047, 51.183306018371134], [5.9754692185630205, 51.18317806050718]]}}, {"id": "117", "type": "Feature", "properties": {"line_id": "CAD_LINE_00118", "length_m": 6.325, "mean_confidence": 1.0, "num_vertices": 2, "is_ground_truth": true, "status": "Ground Truth"}, "geometry": {"type": "LineString", "coordinates": [[5.975474663033584, 51.183602762072134], [5.975560242409999, 51.183584350738904]]}}, {"id": "118", "type": "Feature", "properties": {"line_id": "CAD_LINE_00119", "length_m": 23.756, "mean_confidence": 1.0, "num_vertices": 5, "is_ground_truth": true, "status": "Ground Truth"}, "geometry": {"type": "LineString", "coordinates": [[5.9755494902593025, 51.183303499678786], [5.975552979215231, 51.183296740277015], [5.975539802730689, 51.18324512039268], [5.975528500393618, 51.18320023274825], [5.975505665321169, 51.183092480669906]]}}, {"id": "119", "type": "Feature", "properties": {"line_id": "CAD_LINE_00120", "length_m": 2.75, "mean_confidence": 1.0, "num_vertices": 2, "is_ground_truth": true, "status": "Ground Truth"}, "geometry": {"type": "LineString", "coordinates": [[5.975519725602638, 51.184049735451886], [5.975559055507575, 51.184049536276184]]}}, {"id": "120", "type": "Feature", "properties": {"line_id": "CAD_LINE_00121", "length_m": 2.926, "mean_confidence": 1.0, "num_vertices": 2, "is_ground_truth": true, "status": "Ground Truth"}, "geometry": {"type": "LineString", "coordinates": [[5.975610154076555, 51.18357286173275], [5.975649368310157, 51.18356367413447]]}}]}