{"type": "FeatureCollection", "features": [{"id": "0", "type": "Feature", "properties": {"line_id": "CAD_LINE_00001", "length_m": 9.619, "mean_confidence": 1.0, "num_vertices": 4, "is_ground_truth": true, "status": "Ground Truth"}, "geometry": {"type": "LineString", "coordinates": [[4.684890527580437, 52.48819979421952], [4.6849275280976315, 52.48818765529388], [4.684968226858373, 52.48817441479724], [4.68501630427153, 52.488160094514036]]}}, {"id": "1", "type": "Feature", "properties": {"line_id": "CAD_LINE_00002", "length_m": 19.795, "mean_confidence": 1.0, "num_vertices": 4, "is_ground_truth": true, "status": "Ground Truth"}, "geometry": {"type": "LineString", "coordinates": [[4.684898320287128, 52.48840430914714], [4.685064778604415, 52.48835249225637], [4.685105477476304, 52.48833925171327], [4.6851572711391505, 52.48832270646064]]}}, {"id": "2", "type": "Feature", "properties": {"line_id": "CAD_LINE_00003", "length_m": 4.25, "mean_confidence": 1.0, "num_vertices": 2, "is_ground_truth": true, "status": "Ground Truth"}, "geometry": {"type": "LineString", "coordinates": [[4.684899644623104, 52.48855261302573], [4.684955136907421, 52.488534966305465]]}}, {"id": "3", "type": "Feature", "properties": {"line_id": "CAD_LINE_00004", "length_m": 20.354, "mean_confidence": 1.0, "num_vertices": 5, "is_ground_truth": true, "status": "Ground Truth"}, "geometry": {"type": "LineString", "coordinates": [[4.684912292374819, 52.48845157697851], [4.684956689669699, 52.48843723492933], [4.684997388651966, 52.48842399442381], [4.685119449765458, 52.48838651952131], [4.685178640028428, 52.48836777113109]]}}, {"id": "4", "type": "Feature", "properties": {"line_id": "CAD_LINE_00005", "length_m": 9.845, "mean_confidence": 1.0, "num_vertices": 4, "is_ground_truth": true, "status": "Ground Truth"}, "geometry": {"type": "LineString", "coordinates": [[4.684923008799487, 52.48824043091579], [4.684960009341884, 52.4882282919802], [4.685000708130431, 52.48821505147258], [4.685052465996021, 52.48820075296356]]}}, {"id": "5", "type": "Feature", "properties": {"line_id": "CAD_LINE_00006", "length_m": 8.839, "mean_confidence": 1.0, "num_vertices": 4, "is_ground_truth": true, "status": "Ground Truth"}, "geometry": {"type": "LineString", "coordinates": [[4.684916261973127, 52.48866505689513], [4.684953262873463, 52.488652917963414], [4.684993962055701, 52.48863967746005], [4.685030962913526, 52.48862753850394]]}}, {"id": "6", "type": "Feature", "properties": {"line_id": "CAD_LINE_00007", "length_m": 21.809, "mean_confidence": 1.0, "num_vertices": 4, "is_ground_truth": true, "status": "Ground Truth"}, "geometry": {"type": "LineString", "coordinates": [[4.6849410576586035, 52.48849443857471], [4.685133422084271, 52.48843378732727], [4.685174121010693, 52.48842054676094], [4.685225914743406, 52.48840400147875]]}}, {"id": "7", "type": "Feature", "properties": {"line_id": "CAD_LINE_00008", "length_m": 9.28, "mean_confidence": 1.0, "num_vertices": 2, "is_ground_truth": true, "status": "Ground Truth"}, "geometry": {"type": "LineString", "coordinates": [[4.684951773957207, 52.48828329251113], [4.685073834719951, 52.48824581765379]]}}, {"id": "8", "type": "Feature", "properties": {"line_id": "CAD_LINE_00009", "length_m": 2.574, "mean_confidence": 1.0, "num_vertices": 2, "is_ground_truth": true, "status": "Ground Truth"}, "geometry": {"type": "LineString", "coordinates": [[4.684991441656555, 52.48856663797763], [4.684973360665219, 52.48854630874641]]}}, {"id": "9", "type": "Feature", "properties": {"line_id": "CAD_LINE_00010", "length_m": 20.354, "mean_confidence": 1.0, "num_vertices": 5, "is_ground_truth": true, "status": "Ground Truth"}, "geometry": {"type": "LineString", "coordinates": [[4.684980935726783, 52.48853287213572], [4.685025333081305, 52.4885185300612], [4.685066032118107, 52.488505289532426], [4.685188093398601, 52.48846781456025], [4.6852472837416625, 52.48844906613622]]}}, {"id": "10", "type": "Feature", "properties": {"line_id": "CAD_LINE_00011", "length_m": 5.296, "mean_confidence": 1.0, "num_vertices": 3, "is_ground_truth": true, "status": "Ground Truth"}, "geometry": {"type": "LineString", "coordinates": [[4.684993551575445, 52.488665514489696], [4.6850527601112555, 52.4886456428151], [4.685060049641509, 52.488650179785765]]}}, {"id": "11", "type": "Feature", "properties": {"line_id": "CAD_LINE_00012", "length_m": 3.132, "mean_confidence": 1.0, "num_vertices": 2, "is_ground_truth": true, "status": "Ground Truth"}, "geometry": {"type": "LineString", "coordinates": [[4.685027532304699, 52.488611789828205], [4.68500584221373, 52.488586945417445]]}}, {"id": "12", "type": "Feature", "properties": {"line_id": "CAD_LINE_00013", "length_m": 19.795, "mean_confidence": 1.0, "num_vertices": 4, "is_ground_truth": true, "status": "Ground Truth"}, "geometry": {"type": "LineString", "coordinates": [[4.685035607045585, 52.48856689943826], [4.685202065816167, 52.48851508235743], [4.68524276479712, 52.48850184176792], [4.685294558599702, 52.48848529645614]]}}, {"id": "13", "type": "Feature", "properties": {"line_id": "CAD_LINE_00014", "length_m": 19.574, "mean_confidence": 1.0, "num_vertices": 5, "is_ground_truth": true, "status": "Ground Truth"}, "geometry": {"type": "LineString", "coordinates": [[4.6850716620492, 52.48861429797372], [4.685138249227539, 52.48859334647982], [4.685249233664891, 52.48855805279003], [4.685289932671426, 52.48854481218451], [4.685326933368829, 52.4885326731355]]}}, {"id": "14", "type": "Feature", "properties": {"line_id": "CAD_LINE_00015", "length_m": 8.721, "mean_confidence": 1.0, "num_vertices": 2, "is_ground_truth": true, "status": "Ground Truth"}, "geometry": {"type": "LineString", "coordinates": [[4.685219308364909, 52.48858820896571], [4.685333973173094, 52.48855293697837]]}}, {"id": "15", "type": "Feature", "properties": {"line_id": "CAD_LINE_00016", "length_m": 3.182, "mean_confidence": 1.0, "num_vertices": 2, "is_ground_truth": true, "status": "Ground Truth"}, "geometry": {"type": "LineString", "coordinates": [[4.685294731427549, 52.48824263123915], [4.685261928746102, 52.48822221493111]]}}, {"id": "16", "type": "Feature", "properties": {"line_id": "CAD_LINE_00017", "length_m": 3.182, "mean_confidence": 1.0, "num_vertices": 2, "is_ground_truth": true, "status": "Ground Truth"}, "geometry": {"type": "LineString", "coordinates": [[4.685385814472519, 52.488301589856704], [4.685353011705236, 52.488281173573974]]}}, {"id": "17", "type": "Feature", "properties": {"line_id": "CAD_LINE_00018", "length_m": 3.4, "mean_confidence": 1.0, "num_vertices": 2, "is_ground_truth": true, "status": "Ground Truth"}, "geometry": {"type": "LineString", "coordinates": [[4.685491862567447, 52.48811347687577], [4.685539850581549, 52.4881047731264]]}}, {"id": "18", "type": "Feature", "properties": {"line_id": "CAD_LINE_00019", "length_m": 3.162, "mean_confidence": 1.0, "num_vertices": 2, "is_ground_truth": true, "status": "Ground Truth"}, "geometry": {"type": "LineString", "coordinates": [[4.685520628195511, 52.48815633833514], [4.685564935836054, 52.48814761280314]]}}, {"id": "19", "type": "Feature", "properties": {"line_id": "CAD_LINE_00020", "length_m": 4.272, "mean_confidence": 1.0, "num_vertices": 2, "is_ground_truth": true, "status": "Ground Truth"}, "geometry": {"type": "LineString", "coordinates": [[4.685552396661816, 52.48824190883351], [4.68553088478672, 52.48820583102325]]}}, {"id": "20", "type": "Feature", "properties": {"line_id": "CAD_LINE_00021", "length_m": 4.272, "mean_confidence": 1.0, "num_vertices": 2, "is_ground_truth": true, "status": "Ground Truth"}, "geometry": {"type": "LineString", "coordinates": [[4.685598958294184, 52.48832307300639], [4.685577446341839, 52.48828699520509]]}}, {"id": "21", "type": "Feature", "properties": {"line_id": "CAD_LINE_00022", "length_m": 2.926, "mean_confidence": 1.0, "num_vertices": 2, "is_ground_truth": true, "status": "Ground Truth"}, "geometry": {"type": "LineString", "coordinates": [[4.68559370155714, 52.488190474244654], [4.685634328800227, 52.48818172691645]]}}, {"id": "22", "type": "Feature", "properties": {"line_id": "CAD_LINE_00023", "length_m": 2.926, "mean_confidence": 1.0, "num_vertices": 2, "is_ground_truth": true, "status": "Ground Truth"}, "geometry": {"type": "LineString", "coordinates": [[4.685616639948572, 52.48813668409529], [4.685657267137653, 52.48812793675903]]}}, {"id": "23", "type": "Feature", "properties": {"line_id": "CAD_LINE_00024", "length_m": 6.088, "mean_confidence": 1.0, "num_vertices": 2, "is_ground_truth": true, "status": "Ground Truth"}, "geometry": {"type": "LineString", "coordinates": [[4.68565263134763, 52.488420007587365], [4.685624008067375, 52.4883681593675]]}}, {"id": "24", "type": "Feature", "properties": {"line_id": "CAD_LINE_00025", "length_m": 2.926, "mean_confidence": 1.0, "num_vertices": 2, "is_ground_truth": true, "status": "Ground Truth"}, "geometry": {"type": "LineString", "coordinates": [[4.685640263211705, 52.48827163840224], [4.685680890520344, 52.4882628910584]]}}, {"id": "25", "type": "Feature", "properties": {"line_id": "CAD_LINE_00026", "length_m": 3.953, "mean_confidence": 1.0, "num_vertices": 2, "is_ground_truth": true, "status": "Ground Truth"}, "geometry": {"type": "LineString", "coordinates": [[4.685675748082662, 52.488354983936205], [4.685731132841875, 52.488344076947044]]}}, {"id": "26", "type": "Feature", "properties": {"line_id": "CAD_LINE_00027", "length_m": 18.905, "mean_confidence": 1.0, "num_vertices": 3, "is_ground_truth": true, "status": "Ground Truth"}, "geometry": {"type": "LineString", "coordinates": [[4.6856821105046365, 52.48841793503331], [4.685741300572363, 52.48839918636206], [4.685928142844593, 52.488338501172734]]}}, {"id": "27", "type": "Feature", "properties": {"line_id": "CAD_LINE_00028", "length_m": 19.475, "mean_confidence": 1.0, "num_vertices": 4, "is_ground_truth": true, "status": "Ground Truth"}, "geometry": {"type": "LineString", "coordinates": [[4.685689079137118, 52.48844269225309], [4.68585560797692, 52.48838638085401], [4.685896306644402, 52.48837314003926], [4.685940703542738, 52.488358797620705]]}}, {"id": "28", "type": "Feature", "properties": {"line_id": "CAD_LINE_00029", "length_m": 2.61, "mean_confidence": 1.0, "num_vertices": 2, "is_ground_truth": true, "status": "Ground Truth"}, "geometry": {"type": "LineString", "coordinates": [[4.685696396688767, 52.488213550756306], [4.685733307857662, 52.48820702832579]]}}, {"id": "29", "type": "Feature", "properties": {"line_id": "CAD_LINE_00030", "length_m": 7.303, "mean_confidence": 1.0, "num_vertices": 4, "is_ground_truth": true, "status": "Ground Truth"}, "geometry": {"type": "LineString", "coordinates": [[4.685731124988773, 52.488112645211594], [4.685790154188416, 52.4881040066585], [4.685804947136857, 52.488099600316815], [4.685834461723699, 52.488095281025565]]}}, {"id": "30", "type": "Feature", "properties": {"line_id": "CAD_LINE_00031", "length_m": 2.61, "mean_confidence": 1.0, "num_vertices": 2, "is_ground_truth": true, "status": "Ground Truth"}, "geometry": {"type": "LineString", "coordinates": [[4.6857429585562524, 52.488294714873525], [4.6857798697861925, 52.48828819242878]]}}, {"id": "31", "type": "Feature", "properties": {"line_id": "CAD_LINE_00032", "length_m": 3.953, "mean_confidence": 1.0, "num_vertices": 2, "is_ground_truth": true, "status": "Ground Truth"}, "geometry": {"type": "LineString", "coordinates": [[4.68574960630729, 52.48833969237866], [4.685804991029254, 52.488328785354895]]}}, {"id": "32", "type": "Feature", "properties": {"line_id": "CAD_LINE_00033", "length_m": 6.564, "mean_confidence": 1.0, "num_vertices": 3, "is_ground_truth": true, "status": "Ground Truth"}, "geometry": {"type": "LineString", "coordinates": [[4.685826387882511, 52.488140171476125], [4.685870677622596, 52.48813256917914], [4.685918683406745, 52.48812274192706]]}}, {"id": "33", "type": "Feature", "properties": {"line_id": "CAD_LINE_00034", "length_m": 2.926, "mean_confidence": 1.0, "num_vertices": 2, "is_ground_truth": true, "status": "Ground Truth"}, "geometry": {"type": "LineString", "coordinates": [[4.685823464480992, 52.48832440077497], [4.685864091802226, 52.48831565336846]]}}, {"id": "34", "type": "Feature", "properties": {"line_id": "CAD_LINE_00035", "length_m": 3.64, "mean_confidence": 1.0, "num_vertices": 2, "is_ground_truth": true, "status": "Ground Truth"}, "geometry": {"type": "LineString", "coordinates": [[4.685883385154527, 52.48825959470775], [4.685869162544513, 52.4882280538786]]}}, {"id": "35", "type": "Feature", "properties": {"line_id": "CAD_LINE_00036", "length_m": 2.61, "mean_confidence": 1.0, "num_vertices": 2, "is_ground_truth": true, "status": "Ground Truth"}, "geometry": {"type": "LineString", "coordinates": [[4.685887707243848, 52.488219175890876], [4.685924618389491, 52.48821265340079]]}}, {"id": "36", "type": "Feature", "properties": {"line_id": "CAD_LINE_00037", "length_m": 11.964, "mean_confidence": 1.0, "num_vertices": 3, "is_ground_truth": true, "status": "Ground Truth"}, "geometry": {"type": "LineString", "coordinates": [[4.685908399535447, 52.48830692770863], [4.685930054351932, 52.48833401865519], [4.686044682295404, 52.48830099267531]]}}, {"id": "37", "type": "Feature", "properties": {"line_id": "CAD_LINE_00038", "length_m": 2.926, "mean_confidence": 1.0, "num_vertices": 2, "is_ground_truth": true, "status": "Ground Truth"}, "geometry": {"type": "LineString", "coordinates": [[4.685938662806867, 52.48825542771751], [4.685979290042005, 52.48824668027124]]}}, {"id": "38", "type": "Feature", "properties": {"line_id": "CAD_LINE_00039", "length_m": 4.743, "mean_confidence": 1.0, "num_vertices": 2, "is_ground_truth": true, "status": "Ground Truth"}, "geometry": {"type": "LineString", "coordinates": [[4.685947520745138, 52.48816110988582], [4.686013982081302, 52.48814802134224]]}}, {"id": "39", "type": "Feature", "properties": {"line_id": "CAD_LINE_00040", "length_m": 18.236, "mean_confidence": 1.0, "num_vertices": 4, "is_ground_truth": true, "status": "Ground Truth"}, "geometry": {"type": "LineString", "coordinates": [[4.685962893070033, 52.488352188079865], [4.686121989094257, 52.48830032618397], [4.686162687602983, 52.488287085277236], [4.686199687845802, 52.48827494595447]]}}, {"id": "40", "type": "Feature", "properties": {"line_id": "CAD_LINE_00041", "length_m": 3.162, "mean_confidence": 1.0, "num_vertices": 2, "is_ground_truth": true, "status": "Ground Truth"}, "geometry": {"type": "LineString", "coordinates": [[4.68597264207068, 52.48820170277772], [4.686016949668302, 52.488192977076864]]}}, {"id": "41", "type": "Feature", "properties": {"line_id": "CAD_LINE_00042", "length_m": 3.953, "mean_confidence": 1.0, "num_vertices": 2, "is_ground_truth": true, "status": "Ground Truth"}, "geometry": {"type": "LineString", "coordinates": [[4.686005159929698, 52.48824009248053], [4.686060544464207, 52.488229185336856]]}}, {"id": "42", "type": "Feature", "properties": {"line_id": "CAD_LINE_00043", "length_m": 3.953, "mean_confidence": 1.0, "num_vertices": 2, "is_ground_truth": true, "status": "Ground Truth"}, "geometry": {"type": "LineString", "coordinates": [[4.686035423042331, 52.488188592463665], [4.68609080750483, 52.488177685305594]]}}, {"id": "43", "type": "Feature", "properties": {"line_id": "CAD_LINE_00044", "length_m": 2.926, "mean_confidence": 1.0, "num_vertices": 2, "is_ground_truth": true, "status": "Ground Truth"}, "geometry": {"type": "LineString", "coordinates": [[4.6860656860841745, 52.488137092438365], [4.686106313185472, 52.48812834494813]]}}, {"id": "44", "type": "Feature", "properties": {"line_id": "CAD_LINE_00045", "length_m": 8.839, "mean_confidence": 1.0, "num_vertices": 4, "is_ground_truth": true, "status": "Ground Truth"}, "geometry": {"type": "LineString", "coordinates": [[4.686077984336288, 52.488289954983614], [4.686114984604657, 52.48827781568732], [4.686155683094705, 52.488264574782946], [4.68619268332056, 52.48825243546223]]}}, {"id": "45", "type": "Feature", "properties": {"line_id": "CAD_LINE_00046", "length_m": 3.162, "mean_confidence": 1.0, "num_vertices": 2, "is_ground_truth": true, "status": "Ground Truth"}, "geometry": {"type": "LineString", "coordinates": [[4.686112248550717, 52.48821825641305], [4.686156556137632, 52.48820953066004]]}}, {"id": "46", "type": "Feature", "properties": {"line_id": "CAD_LINE_00047", "length_m": 4.272, "mean_confidence": 1.0, "num_vertices": 2, "is_ground_truth": true, "status": "Ground Truth"}, "geometry": {"type": "LineString", "coordinates": [[4.686175065138251, 52.48820289932619], [4.686153552773103, 52.48816682162772]]}}, {"id": "47", "type": "Feature", "properties": {"line_id": "CAD_LINE_00048", "length_m": 13.647, "mean_confidence": 1.0, "num_vertices": 2, "is_ground_truth": true, "status": "Ground Truth"}, "geometry": {"type": "LineString", "coordinates": [[4.686303381047752, 52.488235114371605], [4.686275861597809, 52.48811361863707]]}}, {"id": "48", "type": "Feature", "properties": {"line_id": "CAD_LINE_00049", "length_m": 2.574, "mean_confidence": 1.0, "num_vertices": 2, "is_ground_truth": true, "status": "Ground Truth"}, "geometry": {"type": "LineString", "coordinates": [[4.6862926323031076, 52.48914504910342], [4.686274550476819, 52.489124720071686]]}}, {"id": "49", "type": "Feature", "properties": {"line_id": "CAD_LINE_00050", "length_m": 2.574, "mean_confidence": 1.0, "num_vertices": 2, "is_ground_truth": true, "status": "Ground Truth"}, "geometry": {"type": "LineString", "coordinates": [[4.686328760378876, 52.48918795385695], [4.6863106785184785, 52.48916762483084]]}}, {"id": "50", "type": "Feature", "properties": {"line_id": "CAD_LINE_00051", "length_m": 11.426, "mean_confidence": 1.0, "num_vertices": 2, "is_ground_truth": true, "status": "Ground Truth"}, "geometry": {"type": "LineString", "coordinates": [[4.686370269872852, 52.48819506524089], [4.6863424296404705, 52.48809378981187]]}}, {"id": "51", "type": "Feature", "properties": {"line_id": "CAD_LINE_00052", "length_m": 3.132, "mean_confidence": 1.0, "num_vertices": 2, "is_ground_truth": true, "status": "Ground Truth"}, "geometry": {"type": "LineString", "coordinates": [[4.686364888524654, 52.489230858599136], [4.686343197378421, 52.48920601443455]]}}, {"id": "52", "type": "Feature", "properties": {"line_id": "CAD_LINE_00053", "length_m": 25.001, "mean_confidence": 1.0, "num_vertices": 2, "is_ground_truth": true, "status": "Ground Truth"}, "geometry": {"type": "LineString", "coordinates": [[4.686607538487949, 52.48832004695252], [4.686607419210506, 52.48809535530526]]}}]}