{"type": "FeatureCollection", "features": [{"id": "0", "type": "Feature", "properties": {"line_id": "CAD_LINE_00001", "length_m": 11.092, "mean_confidence": 1.0, "num_vertices": 5, "is_ground_truth": true, "status": "Ground Truth"}, "geometry": {"type": "LineString", "coordinates": [[5.660626054120551, 52.14889780065458], [5.660622360205873, 52.14889106823656], [5.660629610309486, 52.14888206343789], [5.660636584949701, 52.14882811936922], [5.660592698762208, 52.148819233179914]]}}, {"id": "1", "type": "Feature", "properties": {"line_id": "CAD_LINE_00002", "length_m": 4.426, "mean_confidence": 1.0, "num_vertices": 4, "is_ground_truth": true, "status": "Ground Truth"}, "geometry": {"type": "LineString", "coordinates": [[5.660594034536814, 52.14903718863491], [5.660593910598332, 52.14901696596416], [5.660601174499388, 52.149010208130846], [5.66059745303691, 52.14899898178529]]}}, {"id": "2", "type": "Feature", "properties": {"line_id": "CAD_LINE_00003", "length_m": 28.225, "mean_confidence": 1.0, "num_vertices": 4, "is_ground_truth": true, "status": "Ground Truth"}, "geometry": {"type": "LineString", "coordinates": [[5.661006009217284, 52.149505854446815], [5.660991412418876, 52.14950813534592], [5.6609731216005335, 52.14950368383698], [5.660596774987399, 52.1494843343369]]}}, {"id": "3", "type": "Feature", "properties": {"line_id": "CAD_LINE_00004", "length_m": 25.104, "mean_confidence": 1.0, "num_vertices": 4, "is_ground_truth": true, "status": "Ground Truth"}, "geometry": {"type": "LineString", "coordinates": [[5.660628406406786, 52.14987748511428], [5.660644196088324, 52.1497718397208], [5.660654754641382, 52.149706652370284], [5.660659903048468, 52.14965271254438]]}}, {"id": "4", "type": "Feature", "properties": {"line_id": "CAD_LINE_00005", "length_m": 9.552, "mean_confidence": 1.0, "num_vertices": 2, "is_ground_truth": true, "status": "Ground Truth"}, "geometry": {"type": "LineString", "coordinates": [[5.66067407287928, 52.149580775827715], [5.660688160009367, 52.149495357329215]]}}, {"id": "5", "type": "Feature", "properties": {"line_id": "CAD_LINE_00006", "length_m": 8.31, "mean_confidence": 1.0, "num_vertices": 2, "is_ground_truth": true, "status": "Ground Truth"}, "geometry": {"type": "LineString", "coordinates": [[5.660778732030987, 52.14937380942006], [5.660792887801486, 52.14929962572262]]}}, {"id": "6", "type": "Feature", "properties": {"line_id": "CAD_LINE_00007", "length_m": 10.05, "mean_confidence": 1.0, "num_vertices": 2, "is_ground_truth": true, "status": "Ground Truth"}, "geometry": {"type": "LineString", "coordinates": [[5.660806670958233, 52.149760227743734], [5.660820730325299, 52.149670315305855]]}}, {"id": "7", "type": "Feature", "properties": {"line_id": "CAD_LINE_00008", "length_m": 8.062, "mean_confidence": 1.0, "num_vertices": 2, "is_ground_truth": true, "status": "Ground Truth"}, "geometry": {"type": "LineString", "coordinates": [[5.660807222688018, 52.149254652545565], [5.660821392156189, 52.14918271580663]]}}, {"id": "8", "type": "Feature", "properties": {"line_id": "CAD_LINE_00009", "length_m": 2.75, "mean_confidence": 1.0, "num_vertices": 2, "is_ground_truth": true, "status": "Ground Truth"}, "geometry": {"type": "LineString", "coordinates": [[5.660828587135639, 52.14916472314283], [5.660828435524846, 52.14914000654619]]}}, {"id": "9", "type": "Feature", "properties": {"line_id": "CAD_LINE_00010", "length_m": 5.551, "mean_confidence": 1.0, "num_vertices": 2, "is_ground_truth": true, "status": "Ground Truth"}, "geometry": {"type": "LineString", "coordinates": [[5.660835630494605, 52.14912201388186], [5.66084628510169, 52.14907255525088]]}}, {"id": "10", "type": "Feature", "properties": {"line_id": "CAD_LINE_00011", "length_m": 21.566, "mean_confidence": 1.0, "num_vertices": 5, "is_ground_truth": true, "status": "Ground Truth"}, "geometry": {"type": "LineString", "coordinates": [[5.660860537155743, 52.149014100285434], [5.660889123866769, 52.14891067212818], [5.660998729409851, 52.14891491158723], [5.6610170199893615, 52.148919363092844], [5.661031616593969, 52.14891708219045]]}}, {"id": "11", "type": "Feature", "properties": {"line_id": "CAD_LINE_00012", "length_m": 18.793, "mean_confidence": 1.0, "num_vertices": 8, "is_ground_truth": true, "status": "Ground Truth"}, "geometry": {"type": "LineString", "coordinates": [[5.66120261729234, 52.149402035828984], [5.661122245439777, 52.14939997562492], [5.661100302014437, 52.149395532623345], [5.6610455124392525, 52.149395659917516], [5.661023569023645, 52.14939121690162], [5.661005319625426, 52.1493935062872], [5.660946836047604, 52.14938690113002], [5.660932239285044, 52.14938918202184]]}}, {"id": "12", "type": "Feature", "properties": {"line_id": "CAD_LINE_00013", "length_m": 51.319, "mean_confidence": 1.0, "num_vertices": 13, "is_ground_truth": true, "status": "Ground Truth"}, "geometry": {"type": "LineString", "coordinates": [[5.661680018098204, 52.14981661929506], [5.661595978983445, 52.14981232095656], [5.661574035308313, 52.14980787804359], [5.661515592556748, 52.14980801405824], [5.661493648891711, 52.14980357113029], [5.661468094005538, 52.14980587758585], [5.661416915161812, 52.149799255665336], [5.661398665617088, 52.1498015451117], [5.661336528775701, 52.149794948644946], [5.661281731808169, 52.14979395256773], [5.660974804019351, 52.14977781333815], [5.660952860422811, 52.149773370309504], [5.660938263534214, 52.149775651202035]]}}, {"id": "13", "type": "Feature", "properties": {"line_id": "CAD_LINE_00014", "length_m": 11.774, "mean_confidence": 1.0, "num_vertices": 2, "is_ground_truth": true, "status": "Ground Truth"}, "geometry": {"type": "LineString", "coordinates": [[5.660966988449372, 52.14969469267017], [5.660977298284277, 52.149589059953804]]}}, {"id": "14", "type": "Feature", "properties": {"line_id": "CAD_LINE_00015", "length_m": 17.3, "mean_confidence": 1.0, "num_vertices": 8, "is_ground_truth": true, "status": "Ground Truth"}, "geometry": {"type": "LineString", "coordinates": [[5.6609785651800895, 52.14920032683384], [5.660989254124531, 52.14915648559897], [5.661044064096817, 52.14915972877611], [5.661051355540894, 52.1491574648418], [5.661062340986625, 52.149161933311106], [5.6611280881324495, 52.1491617805459], [5.661142726206471, 52.149166240519655], [5.661164628124074, 52.14916394262377]]}}, {"id": "15", "type": "Feature", "properties": {"line_id": "CAD_LINE_00016", "length_m": 10.028, "mean_confidence": 1.0, "num_vertices": 2, "is_ground_truth": true, "status": "Ground Truth"}, "geometry": {"type": "LineString", "coordinates": [[5.660981886829583, 52.14914639123119], [5.660992293041986, 52.149056487247286]]}}, {"id": "16", "type": "Feature", "properties": {"line_id": "CAD_LINE_00017", "length_m": 4.008, "mean_confidence": 1.0, "num_vertices": 2, "is_ground_truth": true, "status": "Ground Truth"}, "geometry": {"type": "LineString", "coordinates": [[5.661006462149532, 52.148984550483924], [5.661009894084476, 52.14894859058573]]}}, {"id": "17", "type": "Feature", "properties": {"line_id": "CAD_LINE_00018", "length_m": 4.008, "mean_confidence": 1.0, "num_vertices": 2, "is_ground_truth": true, "status": "Ground Truth"}, "geometry": {"type": "LineString", "coordinates": [[5.661079541834453, 52.1489888747041], [5.661082973710842, 52.14895291480378]]}}, {"id": "18", "type": "Feature", "properties": {"line_id": "CAD_LINE_00019", "length_m": 9.531, "mean_confidence": 1.0, "num_vertices": 3, "is_ground_truth": true, "status": "Ground Truth"}, "geometry": {"type": "LineString", "coordinates": [[5.661113150151403, 52.149703341111326], [5.66111842218247, 52.14966962393363], [5.66112358382284, 52.14961793105063]]}}, {"id": "19", "type": "Feature", "properties": {"line_id": "CAD_LINE_00020", "length_m": 43.987, "mean_confidence": 1.0, "num_vertices": 6, "is_ground_truth": true, "status": "Ground Truth"}, "geometry": {"type": "LineString", "coordinates": [[5.661762383790792, 52.14954903505217], [5.661685657385924, 52.1495458432431], [5.66161259746461, 52.1495448898442], [5.661590653919358, 52.14954044693401], [5.661517580191154, 52.149537246513134], [5.661122949123841, 52.14951457074669]]}}, {"id": "20", "type": "Feature", "properties": {"line_id": "CAD_LINE_00021", "length_m": 10.278, "mean_confidence": 1.0, "num_vertices": 3, "is_ground_truth": true, "status": "Ground Truth"}, "geometry": {"type": "LineString", "coordinates": [[5.661128060536684, 52.14915728661933], [5.661133304896493, 52.14911907551128], [5.661138452658776, 52.149065135659534]]}}, {"id": "21", "type": "Feature", "properties": {"line_id": "CAD_LINE_00022", "length_m": 4.008, "mean_confidence": 1.0, "num_vertices": 2, "is_ground_truth": true, "status": "Ground Truth"}, "geometry": {"type": "LineString", "coordinates": [[5.661152621533449, 52.14899319887894], [5.661156053351285, 52.14895723897655]]}}, {"id": "22", "type": "Feature", "properties": {"line_id": "CAD_LINE_00023", "length_m": 10.278, "mean_confidence": 1.0, "num_vertices": 3, "is_ground_truth": true, "status": "Ground Truth"}, "geometry": {"type": "LineString", "coordinates": [[5.661183033788503, 52.14978182353452], [5.661188278173633, 52.14974361242804], [5.661193425940104, 52.14968967257963]]}}, {"id": "23", "type": "Feature", "properties": {"line_id": "CAD_LINE_00024", "length_m": 8.41, "mean_confidence": 1.0, "num_vertices": 5, "is_ground_truth": true, "status": "Ground Truth"}, "geometry": {"type": "LineString", "coordinates": [[5.661193876681344, 52.149168368633816], [5.6612011681192165, 52.14916610469032], [5.661219458821839, 52.14917055616425], [5.661259644542826, 52.149171586240165], [5.6613144407458, 52.14917258232832]]}}, {"id": "24", "type": "Feature", "properties": {"line_id": "CAD_LINE_00025", "length_m": 21.22, "mean_confidence": 1.0, "num_vertices": 6, "is_ground_truth": true, "status": "Ground Truth"}, "geometry": {"type": "LineString", "coordinates": [[5.661501889981878, 52.148767687106776], [5.6614580589394885, 52.14876778909297], [5.661333815752475, 52.148759090111795], [5.6613155252071685, 52.148754638655184], [5.6612972760842135, 52.14875692808597], [5.6611949622715825, 52.14875042496069]]}}, {"id": "25", "type": "Feature", "properties": {"line_id": "CAD_LINE_00026", "length_m": 2.5, "mean_confidence": 1.0, "num_vertices": 2, "is_ground_truth": true, "status": "Ground Truth"}, "geometry": {"type": "LineString", "coordinates": [[5.661216027039004, 52.14920651606713], [5.661215889015795, 52.14918404643456]]}}, {"id": "26", "type": "Feature", "properties": {"line_id": "CAD_LINE_00027", "length_m": 6.768, "mean_confidence": 1.0, "num_vertices": 2, "is_ground_truth": true, "status": "Ground Truth"}, "geometry": {"type": "LineString", "coordinates": [[5.661229353852251, 52.148997514517404], [5.6612362863756385, 52.14893682952479]]}}, {"id": "27", "type": "Feature", "properties": {"line_id": "CAD_LINE_00028", "length_m": 15.8, "mean_confidence": 1.0, "num_vertices": 3, "is_ground_truth": true, "status": "Ground Truth"}, "geometry": {"type": "LineString", "coordinates": [[5.661259767466098, 52.14978613915169], [5.661265011786032, 52.1497479280419], [5.661277161062466, 52.14964453801771]]}}, {"id": "28", "type": "Feature", "properties": {"line_id": "CAD_LINE_00029", "length_m": 4.776, "mean_confidence": 1.0, "num_vertices": 2, "is_ground_truth": true, "status": "Ground Truth"}, "geometry": {"type": "LineString", "coordinates": [[5.661291329895746, 52.14957260122748], [5.661298372875518, 52.149529891942095]]}}, {"id": "29", "type": "Feature", "properties": {"line_id": "CAD_LINE_00030", "length_m": 26.005, "mean_confidence": 1.0, "num_vertices": 8, "is_ground_truth": true, "status": "Ground Truth"}, "geometry": {"type": "LineString", "coordinates": [[5.661671042631, 52.148951547000664], [5.661660098649994, 52.148953819477796], [5.661630850187337, 52.14894939358308], [5.661535861815276, 52.14894624419175], [5.661517605716665, 52.148947410174955], [5.661499315075878, 52.14894295874704], [5.661349510094055, 52.14893544275808], [5.661294714181462, 52.14893444668598]]}}, {"id": "30", "type": "Feature", "properties": {"line_id": "CAD_LINE_00031", "length_m": 6.768, "mean_confidence": 1.0, "num_vertices": 2, "is_ground_truth": true, "status": "Ground Truth"}, "geometry": {"type": "LineString", "coordinates": [[5.661302433579739, 52.149001838599425], [5.66130936600442, 52.148941153602586]]}}, {"id": "31", "type": "Feature", "properties": {"line_id": "CAD_LINE_00032", "length_m": 7.517, "mean_confidence": 1.0, "num_vertices": 2, "is_ground_truth": true, "status": "Ground Truth"}, "geometry": {"type": "LineString", "coordinates": [[5.6613506561326385, 52.1497162709604], [5.66135754717201, 52.14964884507888]]}}, {"id": "32", "type": "Feature", "properties": {"line_id": "CAD_LINE_00033", "length_m": 27.951, "mean_confidence": 1.0, "num_vertices": 6, "is_ground_truth": true, "status": "Ground Truth"}, "geometry": {"type": "LineString", "coordinates": [[5.661761678464347, 52.14943443993606], [5.661546096616999, 52.14942258339108], [5.661520521225032, 52.14942151941327], [5.66150588302958, 52.149417059486694], [5.661432823322703, 52.149416105976286], [5.661356097169522, 52.14941291395257]]}}, {"id": "33", "type": "Feature", "properties": {"line_id": "CAD_LINE_00034", "length_m": 16.331, "mean_confidence": 1.0, "num_vertices": 3, "is_ground_truth": true, "status": "Ground Truth"}, "geometry": {"type": "LineString", "coordinates": [[5.661359238853361, 52.14932976782022], [5.661366060771656, 52.149251107117784], [5.6613802569591005, 52.149183664238784]]}}, {"id": "34", "type": "Feature", "properties": {"line_id": "CAD_LINE_00035", "length_m": 32.962, "mean_confidence": 1.0, "num_vertices": 9, "is_ground_truth": true, "status": "Ground Truth"}, "geometry": {"type": "LineString", "coordinates": [[5.661529447873918, 52.149091190324036], [5.661524272945581, 52.14914063626576], [5.661522702265134, 52.149182209335535], [5.6613948260088325, 52.149176889365016], [5.66138022933793, 52.1491791703123], [5.661350980755188, 52.14917474434845], [5.661347321230519, 52.14917362936166], [5.661356197307452, 52.149132039304234], [5.661361344801825, 52.14907809944308]]}}, {"id": "35", "type": "Feature", "properties": {"line_id": "CAD_LINE_00036", "length_m": 3.0, "mean_confidence": 1.0, "num_vertices": 2, "is_ground_truth": true, "status": "Ground Truth"}, "geometry": {"type": "LineString", "coordinates": [[5.661371715877068, 52.14957690827914], [5.661371550153395, 52.14954994472205]]}}, {"id": "36", "type": "Feature", "properties": {"line_id": "CAD_LINE_00037", "length_m": 7.04, "mean_confidence": 1.0, "num_vertices": 2, "is_ground_truth": true, "status": "Ground Truth"}, "geometry": {"type": "LineString", "coordinates": [[5.661375513321298, 52.14900616263611], [5.661386084437925, 52.14894322217587]]}}, {"id": "37", "type": "Feature", "properties": {"line_id": "CAD_LINE_00038", "length_m": 28.642, "mean_confidence": 1.0, "num_vertices": 6, "is_ground_truth": true, "status": "Ground Truth"}, "geometry": {"type": "LineString", "coordinates": [[5.661416887536455, 52.14979476173937], [5.6614221317228655, 52.14975655062271], [5.661432661509207, 52.14968686927715], [5.661443191262873, 52.14961718792984], [5.661444838008915, 52.14958797316106], [5.66145549205112, 52.14953851447935]]}}, {"id": "38", "type": "Feature", "properties": {"line_id": "CAD_LINE_00039", "length_m": 9.552, "mean_confidence": 1.0, "num_vertices": 2, "is_ground_truth": true, "status": "Ground Truth"}, "geometry": {"type": "LineString", "coordinates": [[5.661478836276882, 52.14917669392168], [5.661492921740616, 52.14909127532237]]}}, {"id": "39", "type": "Feature", "properties": {"line_id": "CAD_LINE_00040", "length_m": 19.836, "mean_confidence": 1.0, "num_vertices": 4, "is_ground_truth": true, "status": "Ground Truth"}, "geometry": {"type": "LineString", "coordinates": [[5.661505855395573, 52.14941256556042], [5.66152002378728, 52.14934062874027], [5.66152517110725, 52.149286688873964], [5.66153033223306, 52.149234995970225]]}}, {"id": "40", "type": "Feature", "properties": {"line_id": "CAD_LINE_00041", "length_m": 7.537, "mean_confidence": 1.0, "num_vertices": 2, "is_ground_truth": true, "status": "Ground Truth"}, "geometry": {"type": "LineString", "coordinates": [[5.661507090052149, 52.14901933849989], [5.661517633351481, 52.14895190410154]]}}, {"id": "41", "type": "Feature", "properties": {"line_id": "CAD_LINE_00042", "length_m": 5.006, "mean_confidence": 1.0, "num_vertices": 2, "is_ground_truth": true, "status": "Ground Truth"}, "geometry": {"type": "LineString", "coordinates": [[5.6615288628686375, 52.14959002464461], [5.661532239154783, 52.149545076882816]]}}, {"id": "42", "type": "Feature", "properties": {"line_id": "CAD_LINE_00043", "length_m": 5.535, "mean_confidence": 1.0, "num_vertices": 2, "is_ground_truth": true, "status": "Ground Truth"}, "geometry": {"type": "LineString", "coordinates": [[5.661610427362984, 52.14919211663264], [5.661530035142929, 52.14918668626134]]}}, {"id": "43", "type": "Feature", "properties": {"line_id": "CAD_LINE_00044", "length_m": 4.507, "mean_confidence": 1.0, "num_vertices": 2, "is_ground_truth": true, "status": "Ground Truth"}, "geometry": {"type": "LineString", "coordinates": [[5.66157400766713, 52.14980338411765], [5.661577411565038, 52.149762930282186]]}}, {"id": "44", "type": "Feature", "properties": {"line_id": "CAD_LINE_00045", "length_m": 3.0, "mean_confidence": 1.0, "num_vertices": 2, "is_ground_truth": true, "status": "Ground Truth"}, "geometry": {"type": "LineString", "coordinates": [[5.661591579951571, 52.14969099345767], [5.661591414094526, 52.14966402990151]]}}, {"id": "45", "type": "Feature", "properties": {"line_id": "CAD_LINE_00046", "length_m": 13.038, "mean_confidence": 1.0, "num_vertices": 2, "is_ground_truth": true, "status": "Ground Truth"}, "geometry": {"type": "LineString", "coordinates": [[5.661607438198966, 52.14929997936803], [5.661621329936757, 52.1491831032706]]}}, {"id": "46", "type": "Feature", "properties": {"line_id": "CAD_LINE_00047", "length_m": 2.512, "mean_confidence": 1.0, "num_vertices": 2, "is_ground_truth": true, "status": "Ground Truth"}, "geometry": {"type": "LineString", "coordinates": [[5.661609110681238, 52.14957186190382], [5.661612625109472, 52.1495493837703]]}}, {"id": "47", "type": "Feature", "properties": {"line_id": "CAD_LINE_00048", "length_m": 19.924, "mean_confidence": 1.0, "num_vertices": 7, "is_ground_truth": true, "status": "Ground Truth"}, "geometry": {"type": "LineString", "coordinates": [[5.661917427457684, 52.149220612509744], [5.661818778948695, 52.1492163483776], [5.6617931829214365, 52.14921191401406], [5.66178223196744, 52.14921306302089], [5.6617383866599065, 52.14921091814839], [5.661694548269766, 52.14920989674118], [5.661628759586273, 52.14920330893263]]}}, {"id": "48", "type": "Feature", "properties": {"line_id": "CAD_LINE_00049", "length_m": 2.761, "mean_confidence": 1.0, "num_vertices": 2, "is_ground_truth": true, "status": "Ground Truth"}, "geometry": {"type": "LineString", "coordinates": [[5.661633396930825, 52.14876962801383], [5.661636897461084, 52.148744902913194]]}}, {"id": "49", "type": "Feature", "properties": {"line_id": "CAD_LINE_00050", "length_m": 7.04, "mean_confidence": 1.0, "num_vertices": 2, "is_ground_truth": true, "status": "Ground Truth"}, "geometry": {"type": "LineString", "coordinates": [[5.661649555565474, 52.14902125388867], [5.661660126299161, 52.14895831340435]]}}, {"id": "50", "type": "Feature", "properties": {"line_id": "CAD_LINE_00051", "length_m": 3.092, "mean_confidence": 1.0, "num_vertices": 2, "is_ground_truth": true, "status": "Ground Truth"}, "geometry": {"type": "LineString", "coordinates": [[5.661654919428497, 52.14989307556792], [5.6616657115623195, 52.14986608649927]]}}, {"id": "51", "type": "Feature", "properties": {"line_id": "CAD_LINE_00052", "length_m": 10.278, "mean_confidence": 1.0, "num_vertices": 3, "is_ground_truth": true, "status": "Ground Truth"}, "geometry": {"type": "LineString", "coordinates": [[5.661662988022613, 52.149423434784815], [5.661668231955285, 52.14938522365503], [5.661673379101181, 52.14933128378283]]}}, {"id": "52", "type": "Feature", "properties": {"line_id": "CAD_LINE_00053", "length_m": 5.025, "mean_confidence": 1.0, "num_vertices": 2, "is_ground_truth": true, "status": "Ground Truth"}, "geometry": {"type": "LineString", "coordinates": [[5.661687547197298, 52.14925934694173], [5.661694575922609, 52.14921439066754]]}}, {"id": "53", "type": "Feature", "properties": {"line_id": "CAD_LINE_00054", "length_m": 18.368, "mean_confidence": 1.0, "num_vertices": 3, "is_ground_truth": true, "status": "Ground Truth"}, "geometry": {"type": "LineString", "coordinates": [[5.661705464657841, 52.14920313033458], [5.661723243795, 52.149124444092166], [5.6617336761656505, 52.14903903397005]]}}, {"id": "54", "type": "Feature", "properties": {"line_id": "CAD_LINE_00055", "length_m": 11.621, "mean_confidence": 1.0, "num_vertices": 3, "is_ground_truth": true, "status": "Ground Truth"}, "geometry": {"type": "LineString", "coordinates": [[5.661734822016453, 52.14981873866869], [5.661694608048787, 52.149813214829315], [5.661719699691893, 52.14973563506552]]}}, {"id": "55", "type": "Feature", "properties": {"line_id": "CAD_LINE_00056", "length_m": 9.334, "mean_confidence": 1.0, "num_vertices": 3, "is_ground_truth": true, "status": "Ground Truth"}, "geometry": {"type": "LineString", "coordinates": [[5.661720169841341, 52.1498120318062], [5.661734365670473, 52.14974458889121], [5.661730616204579, 52.14972886865711]]}}, {"id": "56", "type": "Feature", "properties": {"line_id": "CAD_LINE_00057", "length_m": 25.983, "mean_confidence": 1.0, "num_vertices": 6, "is_ground_truth": true, "status": "Ground Truth"}, "geometry": {"type": "LineString", "coordinates": [[5.66195301261468, 52.14906773388475], [5.661959736569567, 52.14897334440267], [5.661850089290927, 52.14896236494708], [5.661835492713526, 52.148964645950734], [5.661813549431529, 52.148960203081394], [5.661736830949545, 52.14895813478617]]}}, {"id": "57", "type": "Feature", "properties": {"line_id": "CAD_LINE_00058", "length_m": 2.795, "mean_confidence": 1.0, "num_vertices": 2, "is_ground_truth": true, "status": "Ground Truth"}, "geometry": {"type": "LineString", "coordinates": [[5.661755714652781, 52.14965241236614], [5.661762867840765, 52.14962767875799]]}}, {"id": "58", "type": "Feature", "properties": {"line_id": "CAD_LINE_00059", "length_m": 10.429, "mean_confidence": 1.0, "num_vertices": 3, "is_ground_truth": true, "status": "Ground Truth"}, "geometry": {"type": "LineString", "coordinates": [[5.661760903993054, 52.14930861000208], [5.661762564349998, 52.149281642190665], [5.661774940551439, 52.14921532700031]]}}, {"id": "59", "type": "Feature", "properties": {"line_id": "CAD_LINE_00060", "length_m": 45.649, "mean_confidence": 1.0, "num_vertices": 19, "is_ground_truth": true, "status": "Ground Truth"}, "geometry": {"type": "LineString", "coordinates": [[5.662376264725864, 52.1495858025425], [5.662354362664098, 52.149588100663294], [5.66233607167744, 52.14958364936589], [5.662306843521322, 52.14958259408405], [5.662259352100238, 52.149581581411525], [5.662186257480531, 52.149575010960625], [5.662164355414211, 52.14957730904618], [5.662142411798283, 52.14957286623872], [5.662083969356688, 52.149573002534815], [5.662062025750856, 52.149568559712414], [5.662007235966858, 52.14956868745345], [5.661974327494665, 52.14956314667837], [5.6619268361015695, 52.14956213387195], [5.66190854516807, 52.14955768250816], [5.661813548565964, 52.14955340986021], [5.661798910298022, 52.14954894997013], [5.661791632659479, 52.1495534609135], [5.661777022055121, 52.14955349494679], [5.661773576862097, 52.14958720790026]]}}, {"id": "60", "type": "Feature", "properties": {"line_id": "CAD_LINE_00061", "length_m": 42.69, "mean_confidence": 1.0, "num_vertices": 9, "is_ground_truth": true, "status": "Ground Truth"}, "geometry": {"type": "LineString", "coordinates": [[5.662434499225766, 52.149551961657664], [5.662390646623608, 52.14954869354656], [5.6623175520385916, 52.149542123176964], [5.662101921060633, 52.149522403278155], [5.662028826560845, 52.149515832729556], [5.662006903751994, 52.149514760341354], [5.661992265477462, 52.149510300475264], [5.66188635945346, 52.149513917800164], [5.661816966060819, 52.14951520297929]]}}, {"id": "61", "type": "Feature", "properties": {"line_id": "CAD_LINE_00062", "length_m": 42.284, "mean_confidence": 1.0, "num_vertices": 17, "is_ground_truth": true, "status": "Ground Truth"}, "geometry": {"type": "LineString", "coordinates": [[5.66245834236865, 52.149864238324135], [5.662388913794382, 52.149859906433065], [5.662374275368508, 52.14985544661468], [5.662341415146799, 52.149857770312416], [5.6622938887900265, 52.14985114024697], [5.6622792919448415, 52.149853421305394], [5.662213516079755, 52.14984908078728], [5.662195225000107, 52.14984462946832], [5.662173322801976, 52.14984692755549], [5.662060041418223, 52.14983932726288], [5.662034465775401, 52.149838263396774], [5.662019827391962, 52.149833803534406], [5.661965037282215, 52.1498339312561], [5.66194309355985, 52.149829488411825], [5.661888303455114, 52.14982961609787], [5.661866359742481, 52.1498251732393], [5.661851762883841, 52.14982745424487]]}}, {"id": "62", "type": "Feature", "properties": {"line_id": "CAD_LINE_00063", "length_m": 13.153, "mean_confidence": 1.0, "num_vertices": 2, "is_ground_truth": true, "status": "Ground Truth"}, "geometry": {"type": "LineString", "coordinates": [[5.66186633207185, 52.14982067931349], [5.661894833944646, 52.149703769150136]]}}, {"id": "63", "type": "Feature", "properties": {"line_id": "CAD_LINE_00064", "length_m": 4.257, "mean_confidence": 1.0, "num_vertices": 2, "is_ground_truth": true, "status": "Ground Truth"}, "geometry": {"type": "LineString", "coordinates": [[5.661936713867606, 52.148793638421665], [5.661874606021235, 52.14879153616295]]}}, {"id": "64", "type": "Feature", "properties": {"line_id": "CAD_LINE_00065", "length_m": 5.274, "mean_confidence": 1.0, "num_vertices": 2, "is_ground_truth": true, "status": "Ground Truth"}, "geometry": {"type": "LineString", "coordinates": [[5.661893201225055, 52.14943862751493], [5.661900215934256, 52.149391424266824]]}}, {"id": "65", "type": "Feature", "properties": {"line_id": "CAD_LINE_00066", "length_m": 6.824, "mean_confidence": 1.0, "num_vertices": 2, "is_ground_truth": true, "status": "Ground Truth"}, "geometry": {"type": "LineString", "coordinates": [[5.661912626783251, 52.14962732984893], [5.661926863778083, 52.14956662779796]]}}, {"id": "66", "type": "Feature", "properties": {"line_id": "CAD_LINE_00067", "length_m": 10.129, "mean_confidence": 1.0, "num_vertices": 5, "is_ground_truth": true, "status": "Ground Truth"}, "geometry": {"type": "LineString", "coordinates": [[5.661928440681924, 52.14922957482454], [5.661924732705315, 52.14922059548469], [5.661931954922692, 52.14920709668032], [5.6619336428495135, 52.1491846227924], [5.66193884500671, 52.14913967075973]]}}, {"id": "67", "type": "Feature", "properties": {"line_id": "CAD_LINE_00068", "length_m": 28.36, "mean_confidence": 1.0, "num_vertices": 4, "is_ground_truth": true, "status": "Ground Truth"}, "geometry": {"type": "LineString", "coordinates": [[5.6619430658814895, 52.149824994486046], [5.661969810426538, 52.149719323376104], [5.6619804916000245, 52.14967435857443], [5.662007263651472, 52.14957318137946]]}}, {"id": "68", "type": "Feature", "properties": {"line_id": "CAD_LINE_00069", "length_m": 19.081, "mean_confidence": 1.0, "num_vertices": 3, "is_ground_truth": true, "status": "Ground Truth"}, "geometry": {"type": "LineString", "coordinates": [[5.662224737319295, 52.14989174751596], [5.662177231720061, 52.149888487847846], [5.661947036860513, 52.149876666119326]]}}, {"id": "69", "type": "Feature", "properties": {"line_id": "CAD_LINE_00070", "length_m": 9.865, "mean_confidence": 1.0, "num_vertices": 2, "is_ground_truth": true, "status": "Ground Truth"}, "geometry": {"type": "LineString", "coordinates": [[5.661992237794407, 52.14950580654918], [5.662013613815926, 52.149418123900325]]}}, {"id": "70", "type": "Feature", "properties": {"line_id": "CAD_LINE_00071", "length_m": 9.618, "mean_confidence": 1.0, "num_vertices": 2, "is_ground_truth": true, "status": "Ground Truth"}, "geometry": {"type": "LineString", "coordinates": [[5.662019799705874, 52.149829309608634], [5.662041189671066, 52.149743873922404]]}}, {"id": "71", "type": "Feature", "properties": {"line_id": "CAD_LINE_00072", "length_m": 31.54, "mean_confidence": 1.0, "num_vertices": 6, "is_ground_truth": true, "status": "Ground Truth"}, "geometry": {"type": "LineString", "coordinates": [[5.662031406338126, 52.149341684577735], [5.662036705320624, 52.149312461283586], [5.662047386330114, 52.14926749647285], [5.662075790458955, 52.14913485751336], [5.662086471386894, 52.14908989269778], [5.662091770303752, 52.149060669399944]]}}, {"id": "72", "type": "Feature", "properties": {"line_id": "CAD_LINE_00073", "length_m": 16.688, "mean_confidence": 1.0, "num_vertices": 2, "is_ground_truth": true, "status": "Ground Truth"}, "geometry": {"type": "LineString", "coordinates": [[5.662048384248704, 52.1497258811862], [5.662083997049032, 52.149577496460765]]}}, {"id": "73", "type": "Feature", "properties": {"line_id": "CAD_LINE_00074", "length_m": 6.021, "mean_confidence": 1.0, "num_vertices": 2, "is_ground_truth": true, "status": "Ground Truth"}, "geometry": {"type": "LineString", "coordinates": [[5.662068234756077, 52.14879782580713], [5.662075207644527, 52.14874388165384]]}}, {"id": "74", "type": "Feature", "properties": {"line_id": "CAD_LINE_00075", "length_m": 26.518, "mean_confidence": 1.0, "num_vertices": 6, "is_ground_truth": true, "status": "Ground Truth"}, "geometry": {"type": "LineString", "coordinates": [[5.66210739463463, 52.1498178703866], [5.662116263206284, 52.14977515679549], [5.662123360821081, 52.14974143531447], [5.662130458425204, 52.14970771383284], [5.662141139434069, 52.14966274901662], [5.662160730461337, 52.14958181149214]]}}, {"id": "75", "type": "Feature", "properties": {"line_id": "CAD_LINE_00076", "length_m": 36.125, "mean_confidence": 1.0, "num_vertices": 4, "is_ground_truth": true, "status": "Ground Truth"}, "geometry": {"type": "LineString", "coordinates": [[5.6621095625507385, 52.14898423006115], [5.662148799454516, 52.148831342853136], [5.6622802996899155, 52.148832159557124], [5.662290710142916, 52.14874337893741]]}}, {"id": "76", "type": "Feature", "properties": {"line_id": "CAD_LINE_00077", "length_m": 28.606, "mean_confidence": 1.0, "num_vertices": 4, "is_ground_truth": true, "status": "Ground Truth"}, "geometry": {"type": "LineString", "coordinates": [[5.66219519729635, 52.14984013554257], [5.662221955106561, 52.149736711339074], [5.662232636030123, 52.14969174651485], [5.662259379810246, 52.14958607533744]]}}, {"id": "77", "type": "Feature", "properties": {"line_id": "CAD_LINE_00078", "length_m": 24.54, "mean_confidence": 1.0, "num_vertices": 6, "is_ground_truth": true, "status": "Ground Truth"}, "geometry": {"type": "LineString", "coordinates": [[5.66245959636907, 52.14947550521558], [5.662452304944657, 52.14947776923673], [5.662412084264611, 52.14947112216], [5.662368252534171, 52.149471224484905], [5.662258603932461, 52.149460245410935], [5.662268979934277, 52.149365847394876]]}}, {"id": "78", "type": "Feature", "properties": {"line_id": "CAD_LINE_00079", "length_m": 26.197, "mean_confidence": 1.0, "num_vertices": 5, "is_ground_truth": true, "status": "Ground Truth"}, "geometry": {"type": "LineString", "coordinates": [[5.66228314708122, 52.14929391048335], [5.662288376611593, 52.14925345236244], [5.662311065515909, 52.14908262775902], [5.662318287594161, 52.149069128930776], [5.66231457955254, 52.149060149602995]]}}, {"id": "79", "type": "Feature", "properties": {"line_id": "CAD_LINE_00080", "length_m": 26.521, "mean_confidence": 1.0, "num_vertices": 4, "is_ground_truth": true, "status": "Ground Truth"}, "geometry": {"type": "LineString", "coordinates": [[5.66230105556857, 52.14982865357006], [5.662309923956991, 52.149785939964595], [5.662322292554416, 52.149718501241466], [5.662354390383676, 52.149592594589166]]}}, {"id": "80", "type": "Feature", "properties": {"line_id": "CAD_LINE_00081", "length_m": 11.045, "mean_confidence": 1.0, "num_vertices": 2, "is_ground_truth": true, "status": "Ground Truth"}, "geometry": {"type": "LineString", "coordinates": [[5.662458909277321, 52.14877219723785], [5.662298140021806, 52.148763584558594]]}}, {"id": "81", "type": "Feature", "properties": {"line_id": "CAD_LINE_00082", "length_m": 10.913, "mean_confidence": 1.0, "num_vertices": 3, "is_ground_truth": true, "status": "Ground Truth"}, "geometry": {"type": "LineString", "coordinates": [[5.662461779308931, 52.14923731860771], [5.6624215588442155, 52.14923067153381], [5.662304619430373, 52.149221956520634]]}}, {"id": "82", "type": "Feature", "properties": {"line_id": "CAD_LINE_00083", "length_m": 9.368, "mean_confidence": 1.0, "num_vertices": 4, "is_ground_truth": true, "status": "Ground Truth"}, "geometry": {"type": "LineString", "coordinates": [[5.662460808759134, 52.14908003119206], [5.662438865358368, 52.14907558843924], [5.662373097554573, 52.149072371490355], [5.662325592816799, 52.149069111880905]]}}, {"id": "83", "type": "Feature", "properties": {"line_id": "CAD_LINE_00084", "length_m": 16.574, "mean_confidence": 1.0, "num_vertices": 3, "is_ground_truth": true, "status": "Ground Truth"}, "geometry": {"type": "LineString", "coordinates": [[5.662328746529872, 52.148988212682376], [5.662342885743876, 52.1489117818328], [5.662459796622736, 52.14891600288271]]}}, {"id": "84", "type": "Feature", "properties": {"line_id": "CAD_LINE_00085", "length_m": 9.83, "mean_confidence": 1.0, "num_vertices": 2, "is_ground_truth": true, "status": "Ground Truth"}, "geometry": {"type": "LineString", "coordinates": [[5.662374247646712, 52.14985095268902], [5.662391970413581, 52.149763278503684]]}}, {"id": "85", "type": "Feature", "properties": {"line_id": "CAD_LINE_00086", "length_m": 18.644, "mean_confidence": 1.0, "num_vertices": 5, "is_ground_truth": true, "status": "Ground Truth"}, "geometry": {"type": "LineString", "coordinates": [[5.662399137128678, 52.14974079182052], [5.662404435917278, 52.14971156851202], [5.662415116651008, 52.14966660367119], [5.662429290588729, 52.14959579022731], [5.662463997738032, 52.14959683268489]]}}, {"id": "86", "type": "Feature", "properties": {"line_id": "CAD_LINE_00087", "length_m": 16.688, "mean_confidence": 1.0, "num_vertices": 2, "is_ground_truth": true, "status": "Ground Truth"}, "geometry": {"type": "LineString", "coordinates": [[5.662400613435623, 52.14938801011225], [5.662436224797318, 52.14923962527295]]}}, {"id": "87", "type": "Feature", "properties": {"line_id": "CAD_LINE_00088", "length_m": 3.041, "mean_confidence": 1.0, "num_vertices": 2, "is_ground_truth": true, "status": "Ground Truth"}, "geometry": {"type": "LineString", "coordinates": [[5.662459352949203, 52.1488441000607], [5.6624154941095055, 52.14883970847634]]}}, {"id": "88", "type": "Feature", "properties": {"line_id": "CAD_LINE_00089", "length_m": 5.303, "mean_confidence": 1.0, "num_vertices": 2, "is_ground_truth": true, "status": "Ground Truth"}, "geometry": {"type": "LineString", "coordinates": [[5.6624546203675665, 52.1498530120392], [5.6624652872188515, 52.14980580023209]]}}]}