{"type": "FeatureCollection", "features": [{"id": "0", "type": "Feature", "properties": {"line_id": "CAD_LINE_00001", "length_m": 4.243, "mean_confidence": 1.0, "num_vertices": 2, "is_ground_truth": true, "status": "Ground Truth"}, "geometry": {"type": "LineString", "coordinates": [[6.022421093011627, 50.855564214338315], [6.022378122716253, 50.85553748341183]]}}, {"id": "1", "type": "Feature", "properties": {"line_id": "CAD_LINE_00002", "length_m": 2.828, "mean_confidence": 1.0, "num_vertices": 2, "is_ground_truth": true, "status": "Ground Truth"}, "geometry": {"type": "LineString", "coordinates": [[6.022408926627799, 50.85571259977206], [6.022380279671377, 50.8556947791532]]}}, {"id": "2", "type": "Feature", "properties": {"line_id": "CAD_LINE_00003", "length_m": 5.315, "mean_confidence": 1.0, "num_vertices": 2, "is_ground_truth": true, "status": "Ground Truth"}, "geometry": {"type": "LineString", "coordinates": [[6.022431829409558, 50.855829331003996], [6.022381635480426, 50.85579365076238]]}}, {"id": "3", "type": "Feature", "properties": {"line_id": "CAD_LINE_00004", "length_m": 3.536, "mean_confidence": 1.0, "num_vertices": 2, "is_ground_truth": true, "status": "Ground Truth"}, "geometry": {"type": "LineString", "coordinates": [[6.022419354835122, 50.855955245619654], [6.022383545950005, 50.85593296984842]]}}, {"id": "4", "type": "Feature", "properties": {"line_id": "CAD_LINE_00005", "length_m": 3.889, "mean_confidence": 1.0, "num_vertices": 2, "is_ground_truth": true, "status": "Ground Truth"}, "geometry": {"type": "LineString", "coordinates": [[6.022428297773184, 50.85634846547006], [6.022388907661528, 50.8563239621245]]}}, {"id": "5", "type": "Feature", "properties": {"line_id": "CAD_LINE_00006", "length_m": 8.485, "mean_confidence": 1.0, "num_vertices": 2, "is_ground_truth": true, "status": "Ground Truth"}, "geometry": {"type": "LineString", "coordinates": [[6.0224773461233525, 50.85655943759678], [6.0223914036664405, 50.856505975771455]]}}, {"id": "6", "type": "Feature", "properties": {"line_id": "CAD_LINE_00007", "length_m": 2.828, "mean_confidence": 1.0, "num_vertices": 4, "is_ground_truth": true, "status": "Ground Truth"}, "geometry": {"type": "LineString", "coordinates": [[6.0224826397937, 50.85590995286368], [6.022468316237422, 50.855901042564376], [6.022475354740632, 50.85589650938625], [6.0224681929645865, 50.85589205423635]]}}, {"id": "7", "type": "Feature", "properties": {"line_id": "CAD_LINE_00008", "length_m": 4.596, "mean_confidence": 1.0, "num_vertices": 2, "is_ground_truth": true, "status": "Ground Truth"}, "geometry": {"type": "LineString", "coordinates": [[6.022515181736432, 50.85569403791399], [6.022468630395915, 50.855665079447625]]}}, {"id": "8", "type": "Feature", "properties": {"line_id": "CAD_LINE_00009", "length_m": 3.202, "mean_confidence": 1.0, "num_vertices": 2, "is_ground_truth": true, "status": "Ground Truth"}, "geometry": {"type": "LineString", "coordinates": [[6.022526972272109, 50.85577712142149], [6.022491225111833, 50.855759339847516]]}}, {"id": "9", "type": "Feature", "properties": {"line_id": "CAD_LINE_00010", "length_m": 5.484, "mean_confidence": 1.0, "num_vertices": 3, "is_ground_truth": true, "status": "Ground Truth"}, "geometry": {"type": "LineString", "coordinates": [[6.022508495869555, 50.85650083789378], [6.022501272355995, 50.85649188858199], [6.0225149488607865, 50.856453610154595]]}}, {"id": "10", "type": "Feature", "properties": {"line_id": "CAD_LINE_00011", "length_m": 4.854, "mean_confidence": 1.0, "num_vertices": 2, "is_ground_truth": true, "status": "Ground Truth"}, "geometry": {"type": "LineString", "coordinates": [[6.022557581033284, 50.85645562312724], [6.0225711958336365, 50.85641285052929]]}}, {"id": "11", "type": "Feature", "properties": {"line_id": "CAD_LINE_00012", "length_m": 5.484, "mean_confidence": 1.0, "num_vertices": 3, "is_ground_truth": true, "status": "Ground Truth"}, "geometry": {"type": "LineString", "coordinates": [[6.022620989842014, 50.85641931862202], [6.022613766319535, 50.85641036931732], [6.022627442707559, 50.85637209087686]]}}, {"id": "12", "type": "Feature", "properties": {"line_id": "CAD_LINE_00013", "length_m": 3.182, "mean_confidence": 1.0, "num_vertices": 2, "is_ground_truth": true, "status": "Ground Truth"}, "geometry": {"type": "LineString", "coordinates": [[6.022649606512473, 50.856434892098655], [6.022681280049948, 50.85641449274328]]}}, {"id": "13", "type": "Feature", "properties": {"line_id": "CAD_LINE_00014", "length_m": 4.707, "mean_confidence": 1.0, "num_vertices": 3, "is_ground_truth": true, "status": "Ground Truth"}, "geometry": {"type": "LineString", "coordinates": [[6.022838999751478, 50.85626530711733], [6.022831837883405, 50.85626085199009], [6.022775036322462, 50.856261164266776]]}}, {"id": "14", "type": "Feature", "properties": {"line_id": "CAD_LINE_00015", "length_m": 5.963, "mean_confidence": 1.0, "num_vertices": 3, "is_ground_truth": true, "status": "Ground Truth"}, "geometry": {"type": "LineString", "coordinates": [[6.022898765466024, 50.856222280733505], [6.022891603598891, 50.85621782560997], [6.022817082455308, 50.856220482587666]]}}, {"id": "15", "type": "Feature", "properties": {"line_id": "CAD_LINE_00016", "length_m": 8.476, "mean_confidence": 1.0, "num_vertices": 4, "is_ground_truth": true, "status": "Ground Truth"}, "geometry": {"type": "LineString", "coordinates": [[6.022944299863204, 50.85617708532445], [6.02286971711245, 50.856175248172214], [6.022865858644159, 50.85615279687267], [6.022858696790948, 50.8561483417471]]}}, {"id": "16", "type": "Feature", "properties": {"line_id": "CAD_LINE_00017", "length_m": 9.427, "mean_confidence": 1.0, "num_vertices": 5, "is_ground_truth": true, "status": "Ground Truth"}, "geometry": {"type": "LineString", "coordinates": [[6.0231272695218285, 50.85605697471913], [6.023120107658406, 50.85605251960974], [6.0230420058665715, 50.85605294917699], [6.023038147325262, 50.8560304978834], [6.023030985474485, 50.856026042768505]]}}, {"id": "17", "type": "Feature", "properties": {"line_id": "CAD_LINE_00018", "length_m": 9.464, "mean_confidence": 1.0, "num_vertices": 5, "is_ground_truth": true, "status": "Ground Truth"}, "geometry": {"type": "LineString", "coordinates": [[6.023187065553307, 50.856016195269206], [6.023179903690469, 50.85601174016355], [6.0231018019681075, 50.856012169771084], [6.023094393324701, 50.855989738005775], [6.02308723147485, 50.85598528289438]]}}, {"id": "18", "type": "Feature", "properties": {"line_id": "CAD_LINE_00019", "length_m": 10.96, "mean_confidence": 1.0, "num_vertices": 2, "is_ground_truth": true, "status": "Ground Truth"}, "geometry": {"type": "LineString", "coordinates": [[6.023089426735839, 50.85562795783911], [6.023198521795119, 50.85555769294756]]}}, {"id": "19", "type": "Feature", "properties": {"line_id": "CAD_LINE_00020", "length_m": 9.432, "mean_confidence": 1.0, "num_vertices": 5, "is_ground_truth": true, "status": "Ground Truth"}, "geometry": {"type": "LineString", "coordinates": [[6.023243311404117, 50.85597543531943], [6.023236149542203, 50.855970980217265], [6.023158017037508, 50.8559691627809], [6.023154158447154, 50.855946711491306], [6.023146996598242, 50.855942256383564]]}}, {"id": "20", "type": "Feature", "properties": {"line_id": "CAD_LINE_00021", "length_m": 13.343, "mean_confidence": 1.0, "num_vertices": 4, "is_ground_truth": true, "status": "Ground Truth"}, "geometry": {"type": "LineString", "coordinates": [[6.023183174109225, 50.856249930830884], [6.023160423482572, 50.856144435159], [6.023163881014512, 50.85613767438543], [6.023156719135071, 50.85613321927833]]}}, {"id": "21", "type": "Feature", "properties": {"line_id": "CAD_LINE_00022", "length_m": 3.225, "mean_confidence": 1.0, "num_vertices": 3, "is_ground_truth": true, "status": "Ground Truth"}, "geometry": {"type": "LineString", "coordinates": [[6.0231774314448225, 50.85634884148684], [6.023202066193962, 50.856332975210265], [6.023201973631438, 50.856326233964964]]}}, {"id": "22", "type": "Feature", "properties": {"line_id": "CAD_LINE_00023", "length_m": 3.579, "mean_confidence": 1.0, "num_vertices": 2, "is_ground_truth": true, "status": "Ground Truth"}, "geometry": {"type": "LineString", "coordinates": [[6.0232421355774415, 50.85640691407684], [6.023231053272878, 50.85637551352394]]}}, {"id": "23", "type": "Feature", "properties": {"line_id": "CAD_LINE_00024", "length_m": 6.824, "mean_confidence": 1.0, "num_vertices": 2, "is_ground_truth": true, "status": "Ground Truth"}, "geometry": {"type": "LineString", "coordinates": [[6.023388863658219, 50.85623306839681], [6.023303260208015, 50.85620432514914]]}}, {"id": "24", "type": "Feature", "properties": {"line_id": "CAD_LINE_00025", "length_m": 3.182, "mean_confidence": 1.0, "num_vertices": 2, "is_ground_truth": true, "status": "Ground Truth"}, "geometry": {"type": "LineString", "coordinates": [[6.023482772197109, 50.85557410690591], [6.023450544005932, 50.8555540590092]]}}, {"id": "25", "type": "Feature", "properties": {"line_id": "CAD_LINE_00026", "length_m": 5.385, "mean_confidence": 1.0, "num_vertices": 3, "is_ground_truth": true, "status": "Ground Truth"}, "geometry": {"type": "LineString", "coordinates": [[6.0235991840618075, 50.856553267842536], [6.023595664815756, 50.85655553446586], [6.023531484827696, 50.85653566246291]]}}, {"id": "26", "type": "Feature", "properties": {"line_id": "CAD_LINE_00027", "length_m": 7.045, "mean_confidence": 1.0, "num_vertices": 2, "is_ground_truth": true, "status": "Ground Truth"}, "geometry": {"type": "LineString", "coordinates": [[6.02369920407241, 50.85633922833348], [6.02361005013335, 50.856310504858236]]}}, {"id": "27", "type": "Feature", "properties": {"line_id": "CAD_LINE_00028", "length_m": 2.693, "mean_confidence": 1.0, "num_vertices": 2, "is_ground_truth": true, "status": "Ground Truth"}, "geometry": {"type": "LineString", "coordinates": [[6.023794099484036, 50.856269041055775], [6.023807991039432, 50.85624649204856]]}}, {"id": "28", "type": "Feature", "properties": {"line_id": "CAD_LINE_00029", "length_m": 4.809, "mean_confidence": 1.0, "num_vertices": 2, "is_ground_truth": true, "status": "Ground Truth"}, "geometry": {"type": "LineString", "coordinates": [[6.023806876253966, 50.85564872926358], [6.023838301669294, 50.85561035294142]]}}, {"id": "29", "type": "Feature", "properties": {"line_id": "CAD_LINE_00030", "length_m": 6.564, "mean_confidence": 1.0, "num_vertices": 3, "is_ground_truth": true, "status": "Ground Truth"}, "geometry": {"type": "LineString", "coordinates": [[6.0238184251391225, 50.85623070383284], [6.023833999063568, 50.856201403803674], [6.023846053763491, 50.856174370403366]]}}, {"id": "30", "type": "Feature", "properties": {"line_id": "CAD_LINE_00031", "length_m": 18.414, "mean_confidence": 1.0, "num_vertices": 4, "is_ground_truth": true, "status": "Ground Truth"}, "geometry": {"type": "LineString", "coordinates": [[6.02382043260531, 50.85637676413376], [6.023889922213423, 50.85639548310983], [6.023903551209788, 50.85635383389809], [6.023922057441485, 50.85627957267547]]}}, {"id": "31", "type": "Feature", "properties": {"line_id": "CAD_LINE_00032", "length_m": 22.528, "mean_confidence": 1.0, "num_vertices": 8, "is_ground_truth": true, "status": "Ground Truth"}, "geometry": {"type": "LineString", "coordinates": [[6.024169328276893, 50.856188320537214], [6.024165809086456, 50.856190587177785], [6.024155097011668, 50.85618615169174], [6.024069771240389, 50.85617763274508], [6.0240627019552315, 50.85617991893865], [6.024051989892747, 50.85617548344301], [6.023906204525578, 50.85615943201995], [6.023859976151317, 50.856154068471554]]}}, {"id": "32", "type": "Feature", "properties": {"line_id": "CAD_LINE_00033", "length_m": 8.878, "mean_confidence": 1.0, "num_vertices": 2, "is_ground_truth": true, "status": "Ground Truth"}, "geometry": {"type": "LineString", "coordinates": [[6.023932306172464, 50.8562503019604], [6.023952525581752, 50.85617153679428]]}}, {"id": "33", "type": "Feature", "properties": {"line_id": "CAD_LINE_00034", "length_m": 6.865, "mean_confidence": 1.0, "num_vertices": 2, "is_ground_truth": true, "status": "Ground Truth"}, "geometry": {"type": "LineString", "coordinates": [[6.024057329029477, 50.8560473606885], [6.023961322401145, 50.85603665324664]]}}, {"id": "34", "type": "Feature", "properties": {"line_id": "CAD_LINE_00035", "length_m": 2.795, "mean_confidence": 1.0, "num_vertices": 2, "is_ground_truth": true, "status": "Ground Truth"}, "geometry": {"type": "LineString", "coordinates": [[6.023995005642037, 50.85642074775516], [6.024001766036883, 50.856395990750705]]}}, {"id": "35", "type": "Feature", "properties": {"line_id": "CAD_LINE_00036", "length_m": 6.576, "mean_confidence": 1.0, "num_vertices": 2, "is_ground_truth": true, "status": "Ground Truth"}, "geometry": {"type": "LineString", "coordinates": [[6.024012014742904, 50.856366720028596], [6.02402541191534, 50.85630821769155]]}}, {"id": "36", "type": "Feature", "properties": {"line_id": "CAD_LINE_00037", "length_m": 9.124, "mean_confidence": 1.0, "num_vertices": 3, "is_ground_truth": true, "status": "Ground Truth"}, "geometry": {"type": "LineString", "coordinates": [[6.024035660587242, 50.85627894696747], [6.024047437133437, 50.856231689813], [6.024055848937566, 50.856197934701996]]}}, {"id": "37", "type": "Feature", "properties": {"line_id": "CAD_LINE_00038", "length_m": 4.746, "mean_confidence": 1.0, "num_vertices": 3, "is_ground_truth": true, "status": "Ground Truth"}, "geometry": {"type": "LineString", "coordinates": [[6.024039429749433, 50.856553090908314], [6.024049925629717, 50.85654179683455], [6.024056624221011, 50.85651254566391]]}}, {"id": "38", "type": "Feature", "properties": {"line_id": "CAD_LINE_00039", "length_m": 4.854, "mean_confidence": 1.0, "num_vertices": 2, "is_ground_truth": true, "status": "Ground Truth"}, "geometry": {"type": "LineString", "coordinates": [[6.024063508180477, 50.85649677698173], [6.0240771216017475, 50.856454004208885]]}}, {"id": "39", "type": "Feature", "properties": {"line_id": "CAD_LINE_00040", "length_m": 5.936, "mean_confidence": 1.0, "num_vertices": 3, "is_ground_truth": true, "status": "Ground Truth"}, "geometry": {"type": "LineString", "coordinates": [[6.024083872839413, 50.85565394543146], [6.024123077884152, 50.85566496571023], [6.024144069198271, 50.85564237754792]]}}, {"id": "40", "type": "Feature", "properties": {"line_id": "CAD_LINE_00041", "length_m": 11.004, "mean_confidence": 1.0, "num_vertices": 5, "is_ground_truth": true, "status": "Ground Truth"}, "geometry": {"type": "LineString", "coordinates": [[6.024204925618514, 50.856453300107326], [6.024194337088773, 50.85645785295071], [6.024139403053636, 50.856464897362166], [6.024100166429488, 50.85645163000842], [6.024105120819718, 50.856424635695106]]}}, {"id": "41", "type": "Feature", "properties": {"line_id": "CAD_LINE_00042", "length_m": 7.865, "mean_confidence": 1.0, "num_vertices": 3, "is_ground_truth": true, "status": "Ground Truth"}, "geometry": {"type": "LineString", "coordinates": [[6.024103572768548, 50.85605384769882], [6.024146204639592, 50.856055860086286], [6.024159817856701, 50.856013087304554]]}}, {"id": "42", "type": "Feature", "properties": {"line_id": "CAD_LINE_00043", "length_m": 2.795, "mean_confidence": 1.0, "num_vertices": 2, "is_ground_truth": true, "status": "Ground Truth"}, "geometry": {"type": "LineString", "coordinates": [[6.024104709681015, 50.85562012186916], [6.024122150937891, 50.85559755326798]]}}, {"id": "43", "type": "Feature", "properties": {"line_id": "CAD_LINE_00044", "length_m": 6.576, "mean_confidence": 1.0, "num_vertices": 2, "is_ground_truth": true, "status": "Ground Truth"}, "geometry": {"type": "LineString", "coordinates": [[6.024115369466662, 50.856395364963866], [6.024128766516667, 50.85633686261506]]}}, {"id": "44", "type": "Feature", "properties": {"line_id": "CAD_LINE_00045", "length_m": 2.512, "mean_confidence": 1.0, "num_vertices": 2, "is_ground_truth": true, "status": "Ground Truth"}, "geometry": {"type": "LineString", "coordinates": [[6.024149720417026, 50.855795159525], [6.024114188907727, 50.855793108023704]]}}, {"id": "45", "type": "Feature", "properties": {"line_id": "CAD_LINE_00046", "length_m": 6.374, "mean_confidence": 1.0, "num_vertices": 2, "is_ground_truth": true, "status": "Ground Truth"}, "geometry": {"type": "LineString", "coordinates": [[6.024124230922283, 50.85652340949143], [6.0241412090097, 50.85646713466445]]}}, {"id": "46", "type": "Feature", "properties": {"line_id": "CAD_LINE_00047", "length_m": 11.952, "mean_confidence": 1.0, "num_vertices": 4, "is_ground_truth": true, "status": "Ground Truth"}, "geometry": {"type": "LineString", "coordinates": [[6.024170066379168, 50.85598381656902], [6.024176780266007, 50.85595568893279], [6.024185176475884, 50.855920810272174], [6.0241193147770495, 50.855907689618654]]}}, {"id": "47", "type": "Feature", "properties": {"line_id": "CAD_LINE_00048", "length_m": 10.607, "mean_confidence": 1.0, "num_vertices": 3, "is_ground_truth": true, "status": "Ground Truth"}, "geometry": {"type": "LineString", "coordinates": [[6.024139015129491, 50.85630759188187], [6.024150729777129, 50.85625584055418], [6.024159017908312, 50.85621309711006]]}}, {"id": "48", "type": "Feature", "properties": {"line_id": "CAD_LINE_00049", "length_m": 5.368, "mean_confidence": 1.0, "num_vertices": 2, "is_ground_truth": true, "status": "Ground Truth"}, "geometry": {"type": "LineString", "coordinates": [[6.02413607303237, 50.85557725130378], [6.02417098636695, 50.85553436117089]]}}, {"id": "49", "type": "Feature", "properties": {"line_id": "CAD_LINE_00050", "length_m": 2.55, "mean_confidence": 1.0, "num_vertices": 2, "is_ground_truth": true, "status": "Ground Truth"}, "geometry": {"type": "LineString", "coordinates": [[6.0242059763198865, 50.856529700875846], [6.024170413343403, 50.856525402311384]]}}, {"id": "50", "type": "Feature", "properties": {"line_id": "CAD_LINE_00051", "length_m": 3.913, "mean_confidence": 1.0, "num_vertices": 2, "is_ground_truth": true, "status": "Ground Truth"}, "geometry": {"type": "LineString", "coordinates": [[6.024164751489559, 50.85559731856792], [6.024189169191492, 50.855565722513035]]}}]}