{"type": "FeatureCollection", "features": [{"id": "0", "type": "Feature", "properties": {"line_id": "CAD_LINE_00001", "length_m": 3.162, "mean_confidence": 1.0, "num_vertices": 2, "is_ground_truth": true, "status": "Ground Truth"}, "geometry": {"type": "LineString", "coordinates": [[6.01595312918423, 51.18532337631996], [6.015995912296844, 51.185314155768864]]}}, {"id": "1", "type": "Feature", "properties": {"line_id": "CAD_LINE_00002", "length_m": 10.279, "mean_confidence": 1.0, "num_vertices": 4, "is_ground_truth": true, "status": "Ground Truth"}, "geometry": {"type": "LineString", "coordinates": [[6.016030644470688, 51.185761170757594], [6.016017775892403, 51.18573539702089], [6.015995799085906, 51.185697312698096], [6.015958363551081, 51.185705380681576]]}}, {"id": "2", "type": "Feature", "properties": {"line_id": "CAD_LINE_00003", "length_m": 5.062, "mean_confidence": 1.0, "num_vertices": 2, "is_ground_truth": true, "status": "Ground Truth"}, "geometry": {"type": "LineString", "coordinates": [[6.015994245885324, 51.185453494357944], [6.015968632121812, 51.18541093521219]]}}, {"id": "3", "type": "Feature", "properties": {"line_id": "CAD_LINE_00004", "length_m": 3.64, "mean_confidence": 1.0, "num_vertices": 2, "is_ground_truth": true, "status": "Ground Truth"}, "geometry": {"type": "LineString", "coordinates": [[6.015984816228999, 51.18528724880982], [6.01597008307394, 51.185255867031785]]}}, {"id": "4", "type": "Feature", "properties": {"line_id": "CAD_LINE_00005", "length_m": 4.67, "mean_confidence": 1.0, "num_vertices": 2, "is_ground_truth": true, "status": "Ground Truth"}, "geometry": {"type": "LineString", "coordinates": [[6.016002721036403, 51.185550080286276], [6.015984289078134, 51.185509729524426]]}}, {"id": "5", "type": "Feature", "properties": {"line_id": "CAD_LINE_00006", "length_m": 4.43, "mean_confidence": 1.0, "num_vertices": 2, "is_ground_truth": true, "status": "Ground Truth"}, "geometry": {"type": "LineString", "coordinates": [[6.01600620063652, 51.18580400082959], [6.015987799364449, 51.185765897153196]]}}, {"id": "6", "type": "Feature", "properties": {"line_id": "CAD_LINE_00007", "length_m": 2.61, "mean_confidence": 1.0, "num_vertices": 2, "is_ground_truth": true, "status": "Ground Truth"}, "geometry": {"type": "LineString", "coordinates": [[6.0160009078735035, 51.18515682115156], [6.015989873424617, 51.185134408361826]]}}, {"id": "7", "type": "Feature", "properties": {"line_id": "CAD_LINE_00008", "length_m": 3.64, "mean_confidence": 1.0, "num_vertices": 2, "is_ground_truth": true, "status": "Ground Truth"}, "geometry": {"type": "LineString", "coordinates": [[6.016037679183208, 51.185230781414695], [6.016022946010326, 51.18519939964329]]}}, {"id": "8", "type": "Feature", "properties": {"line_id": "CAD_LINE_00009", "length_m": 2.828, "mean_confidence": 1.0, "num_vertices": 2, "is_ground_truth": true, "status": "Ground Truth"}, "geometry": {"type": "LineString", "coordinates": [[6.016050920992027, 51.186197027723146], [6.01607927934736, 51.1861788962159]]}}, {"id": "9", "type": "Feature", "properties": {"line_id": "CAD_LINE_00010", "length_m": 8.465, "mean_confidence": 1.0, "num_vertices": 4, "is_ground_truth": true, "status": "Ground Truth"}, "geometry": {"type": "LineString", "coordinates": [[6.016049014981179, 51.185797027342744], [6.01606185279856, 51.185820553991476], [6.016131376064394, 51.185805570521865], [6.016138557985852, 51.185807778894095]]}}, {"id": "10", "type": "Feature", "properties": {"line_id": "CAD_LINE_00011", "length_m": 2.85, "mean_confidence": 1.0, "num_vertices": 2, "is_ground_truth": true, "status": "Ground Truth"}, "geometry": {"type": "LineString", "coordinates": [[6.0160560494851305, 51.185266637999526], [6.01604498418819, 51.185241978130726]]}}, {"id": "11", "type": "Feature", "properties": {"line_id": "CAD_LINE_00012", "length_m": 2.693, "mean_confidence": 1.0, "num_vertices": 2, "is_ground_truth": true, "status": "Ground Truth"}, "geometry": {"type": "LineString", "coordinates": [[6.016064309161045, 51.18534749433245], [6.016049699111437, 51.185325100902446]]}}, {"id": "12", "type": "Feature", "properties": {"line_id": "CAD_LINE_00013", "length_m": 8.621, "mean_confidence": 1.0, "num_vertices": 3, "is_ground_truth": true, "status": "Ground Truth"}, "geometry": {"type": "LineString", "coordinates": [[6.016098022670323, 51.18598103666021], [6.016085169390618, 51.1859563864735], [6.016061250657217, 51.18590707641871]]}}, {"id": "13", "type": "Feature", "properties": {"line_id": "CAD_LINE_00014", "length_m": 3.889, "mean_confidence": 1.0, "num_vertices": 3, "is_ground_truth": true, "status": "Ground Truth"}, "geometry": {"type": "LineString", "coordinates": [[6.016102491386802, 51.18604618275284], [6.016070034001345, 51.18602613318486], [6.016062944437226, 51.18603066606171]]}}, {"id": "14", "type": "Feature", "properties": {"line_id": "CAD_LINE_00015", "length_m": 6.325, "mean_confidence": 1.0, "num_vertices": 2, "is_ground_truth": true, "status": "Ground Truth"}, "geometry": {"type": "LineString", "coordinates": [[6.016100554140838, 51.1856439352882], [6.016071210646155, 51.18559016009837]]}}, {"id": "15", "type": "Feature", "properties": {"line_id": "CAD_LINE_00016", "length_m": 2.85, "mean_confidence": 1.0, "num_vertices": 2, "is_ground_truth": true, "status": "Ground Truth"}, "geometry": {"type": "LineString", "coordinates": [[6.016090388024128, 51.18516307857335], [6.016079322733954, 51.18513841870777]]}}, {"id": "16", "type": "Feature", "properties": {"line_id": "CAD_LINE_00017", "length_m": 3.64, "mean_confidence": 1.0, "num_vertices": 2, "is_ground_truth": true, "status": "Ground Truth"}, "geometry": {"type": "LineString", "coordinates": [[6.016112426246912, 51.18520565704799], [6.0160976930311, 51.18517427528614]]}}, {"id": "17", "type": "Feature", "properties": {"line_id": "CAD_LINE_00018", "length_m": 10.447, "mean_confidence": 1.0, "num_vertices": 3, "is_ground_truth": true, "status": "Ground Truth"}, "geometry": {"type": "LineString", "coordinates": [[6.01616772218728, 51.18532670926442], [6.01614021277691, 51.1852762950395], [6.016123583966302, 51.18523705816362]]}}, {"id": "18", "type": "Feature", "properties": {"line_id": "CAD_LINE_00019", "length_m": 2.85, "mean_confidence": 1.0, "num_vertices": 2, "is_ground_truth": true, "status": "Ground Truth"}, "geometry": {"type": "LineString", "coordinates": [[6.016148329866891, 51.18573806120861], [6.016137264405668, 51.18571340134914]]}}, {"id": "19", "type": "Feature", "properties": {"line_id": "CAD_LINE_00020", "length_m": 4.67, "mean_confidence": 1.0, "num_vertices": 2, "is_ground_truth": true, "status": "Ground Truth"}, "geometry": {"type": "LineString", "coordinates": [[6.01617166207248, 51.185875017215345], [6.016153229834093, 51.18583466648109]]}}, {"id": "20", "type": "Feature", "properties": {"line_id": "CAD_LINE_00021", "length_m": 3.64, "mean_confidence": 1.0, "num_vertices": 2, "is_ground_truth": true, "status": "Ground Truth"}, "geometry": {"type": "LineString", "coordinates": [[6.016170368421743, 51.18578063967108], [6.016155634980097, 51.18574925791738]]}}, {"id": "21", "type": "Feature", "properties": {"line_id": "CAD_LINE_00022", "length_m": 4.43, "mean_confidence": 1.0, "num_vertices": 2, "is_ground_truth": true, "status": "Ground Truth"}, "geometry": {"type": "LineString", "coordinates": [[6.01617280957831, 51.18517611589409], [6.016154408422, 51.18513801224326]]}}, {"id": "22", "type": "Feature", "properties": {"line_id": "CAD_LINE_00023", "length_m": 37.427, "mean_confidence": 1.0, "num_vertices": 5, "is_ground_truth": true, "status": "Ground Truth"}, "geometry": {"type": "LineString", "coordinates": [[6.016179123799541, 51.18563676819798], [6.016140548763302, 51.18556169411721], [6.016217268897796, 51.18555004251075], [6.016233836294822, 51.18558478520385], [6.0163165350205, 51.185748386753346]]}}, {"id": "23", "type": "Feature", "properties": {"line_id": "CAD_LINE_00024", "length_m": 16.214, "mean_confidence": 1.0, "num_vertices": 4, "is_ground_truth": true, "status": "Ground Truth"}, "geometry": {"type": "LineString", "coordinates": [[6.016178725968407, 51.18534687495254], [6.016253627167335, 51.18533298591693], [6.016328497512276, 51.185316849748695], [6.0163998230948845, 51.18530297998094]]}}, {"id": "24", "type": "Feature", "properties": {"line_id": "CAD_LINE_00025", "length_m": 3.64, "mean_confidence": 1.0, "num_vertices": 2, "is_ground_truth": true, "status": "Ground Truth"}, "geometry": {"type": "LineString", "coordinates": [[6.016194847883797, 51.1852186943529], [6.016180114607459, 51.1851873126016]]}}, {"id": "25", "type": "Feature", "properties": {"line_id": "CAD_LINE_00026", "length_m": 3.64, "mean_confidence": 1.0, "num_vertices": 2, "is_ground_truth": true, "status": "Ground Truth"}, "geometry": {"type": "LineString", "coordinates": [[6.0162011623338945, 51.18567934665477], [6.016186428904024, 51.185647964904895]]}}, {"id": "26", "type": "Feature", "properties": {"line_id": "CAD_LINE_00027", "length_m": 3.881, "mean_confidence": 1.0, "num_vertices": 2, "is_ground_truth": true, "status": "Ground Truth"}, "geometry": {"type": "LineString", "coordinates": [[6.016204797059445, 51.185944502611314], [6.016190032738986, 51.18591087377786]]}}, {"id": "27", "type": "Feature", "properties": {"line_id": "CAD_LINE_00028", "length_m": 3.182, "mean_confidence": 1.0, "num_vertices": 2, "is_ground_truth": true, "status": "Ground Truth"}, "geometry": {"type": "LineString", "coordinates": [[6.016194560701877, 51.18624119517977], [6.016226463816661, 51.186220797194316]]}}, {"id": "28", "type": "Feature", "properties": {"line_id": "CAD_LINE_00029", "length_m": 2.85, "mean_confidence": 1.0, "num_vertices": 2, "is_ground_truth": true, "status": "Ground Truth"}, "geometry": {"type": "LineString", "coordinates": [[6.016213218303514, 51.1852545509127], [6.016202152925136, 51.18522989105898]]}}, {"id": "29", "type": "Feature", "properties": {"line_id": "CAD_LINE_00030", "length_m": 4.67, "mean_confidence": 1.0, "num_vertices": 2, "is_ground_truth": true, "status": "Ground Truth"}, "geometry": {"type": "LineString", "coordinates": [[6.016226899679058, 51.18573089408586], [6.016208467450568, 51.18569054336023]]}}, {"id": "30", "type": "Feature", "properties": {"line_id": "CAD_LINE_00031", "length_m": 10.544, "mean_confidence": 1.0, "num_vertices": 4, "is_ground_truth": true, "status": "Ground Truth"}, "geometry": {"type": "LineString", "coordinates": [[6.016235591003962, 51.1858432095862], [6.016215355540295, 51.185801744999246], [6.016254532680184, 51.18579029662652], [6.016245270330507, 51.18576675063979]]}}, {"id": "31", "type": "Feature", "properties": {"line_id": "CAD_LINE_00032", "length_m": 2.85, "mean_confidence": 1.0, "num_vertices": 2, "is_ground_truth": true, "status": "Ground Truth"}, "geometry": {"type": "LineString", "coordinates": [[6.0162477105006165, 51.185162226862666], [6.016236645126192, 51.185137567012205]]}}, {"id": "32", "type": "Feature", "properties": {"line_id": "CAD_LINE_00033", "length_m": 7.995, "mean_confidence": 1.0, "num_vertices": 3, "is_ground_truth": true, "status": "Ground Truth"}, "geometry": {"type": "LineString", "coordinates": [[6.016248782099177, 51.18602291825658], [6.016318305609752, 51.18600793467478], [6.016334719202908, 51.1860314419311]]}}, {"id": "33", "type": "Feature", "properties": {"line_id": "CAD_LINE_00034", "length_m": 12.335, "mean_confidence": 1.0, "num_vertices": 4, "is_ground_truth": true, "status": "Ground Truth"}, "geometry": {"type": "LineString", "coordinates": [[6.016300076274177, 51.18559116829457], [6.016283555034445, 51.18555979623755], [6.016257879332833, 51.18551274298748], [6.01624499529504, 51.185485845733666]]}}, {"id": "34", "type": "Feature", "properties": {"line_id": "CAD_LINE_00035", "length_m": 3.64, "mean_confidence": 1.0, "num_vertices": 2, "is_ground_truth": true, "status": "Ground Truth"}, "geometry": {"type": "LineString", "coordinates": [[6.016269748868801, 51.18520480530721], [6.016255015545791, 51.18517342356546]]}}, {"id": "35", "type": "Feature", "properties": {"line_id": "CAD_LINE_00036", "length_m": 2.85, "mean_confidence": 1.0, "num_vertices": 2, "is_ground_truth": true, "status": "Ground Truth"}, "geometry": {"type": "LineString", "coordinates": [[6.01628336721588, 51.185937335449864], [6.01627230163366, 51.1859126756036]]}}, {"id": "36", "type": "Feature", "properties": {"line_id": "CAD_LINE_00037", "length_m": 3.182, "mean_confidence": 1.0, "num_vertices": 2, "is_ground_truth": true, "status": "Ground Truth"}, "geometry": {"type": "LineString", "coordinates": [[6.016318535785037, 51.186155128378815], [6.0162860782282195, 51.18613507887151]]}}, {"id": "37", "type": "Feature", "properties": {"line_id": "CAD_LINE_00038", "length_m": 3.64, "mean_confidence": 1.0, "num_vertices": 2, "is_ground_truth": true, "status": "Ground Truth"}, "geometry": {"type": "LineString", "coordinates": [[6.016291787278024, 51.185247383747445], [6.016277053926163, 51.185216002008566]]}}, {"id": "38", "type": "Feature", "properties": {"line_id": "CAD_LINE_00039", "length_m": 3.64, "mean_confidence": 1.0, "num_vertices": 2, "is_ground_truth": true, "status": "Ground Truth"}, "geometry": {"type": "LineString", "coordinates": [[6.016305405992367, 51.18597991388617], [6.0162906723939145, 51.185948532149986]]}}, {"id": "39", "type": "Feature", "properties": {"line_id": "CAD_LINE_00040", "length_m": 3.482, "mean_confidence": 1.0, "num_vertices": 2, "is_ground_truth": true, "status": "Ground Truth"}, "geometry": {"type": "LineString", "coordinates": [[6.016310400570742, 51.18582257925974], [6.016292122267225, 51.18579346396938]]}}, {"id": "40", "type": "Feature", "properties": {"line_id": "CAD_LINE_00041", "length_m": 2.693, "mean_confidence": 1.0, "num_vertices": 2, "is_ground_truth": true, "status": "Ground Truth"}, "geometry": {"type": "LineString", "coordinates": [[6.016309815218853, 51.18577988465728], [6.016295204911063, 51.18575749125882]]}}, {"id": "41", "type": "Feature", "properties": {"line_id": "CAD_LINE_00042", "length_m": 3.64, "mean_confidence": 1.0, "num_vertices": 2, "is_ground_truth": true, "status": "Ground Truth"}, "geometry": {"type": "LineString", "coordinates": [[6.016313825728282, 51.18528996218339], [6.016299092347576, 51.18525858044739]]}}, {"id": "42", "type": "Feature", "properties": {"line_id": "CAD_LINE_00043", "length_m": 3.64, "mean_confidence": 1.0, "num_vertices": 2, "is_ground_truth": true, "status": "Ground Truth"}, "geometry": {"type": "LineString", "coordinates": [[6.016322114898558, 51.18563374672828], [6.016307381400826, 51.185602364993855]]}}, {"id": "43", "type": "Feature", "properties": {"line_id": "CAD_LINE_00044", "length_m": 6.25, "mean_confidence": 1.0, "num_vertices": 3, "is_ground_truth": true, "status": "Ground Truth"}, "geometry": {"type": "LineString", "coordinates": [[6.016347111296923, 51.185892045253375], [6.016334227099456, 51.18586514800999], [6.016321342917149, 51.18583825076516]]}}, {"id": "44", "type": "Feature", "properties": {"line_id": "CAD_LINE_00045", "length_m": 12.574, "mean_confidence": 1.0, "num_vertices": 3, "is_ground_truth": true, "status": "Ground Truth"}, "geometry": {"type": "LineString", "coordinates": [[6.016370356227769, 51.18524021652911], [6.016339086281203, 51.18517633920853], [6.01631524470446, 51.18513264691579]]}}, {"id": "45", "type": "Feature", "properties": {"line_id": "CAD_LINE_00046", "length_m": 8.071, "mean_confidence": 1.0, "num_vertices": 3, "is_ground_truth": true, "status": "Ground Truth"}, "geometry": {"type": "LineString", "coordinates": [[6.016324179071485, 51.1857843013792], [6.0163634177903615, 51.185777347138504], [6.016434744077324, 51.18576347734825]]}}, {"id": "46", "type": "Feature", "properties": {"line_id": "CAD_LINE_00047", "length_m": 5.534, "mean_confidence": 1.0, "num_vertices": 2, "is_ground_truth": true, "status": "Ground Truth"}, "geometry": {"type": "LineString", "coordinates": [[6.016355095886816, 51.185691996660005], [6.0163294200373985, 51.18564494342617]]}}, {"id": "47", "type": "Feature", "properties": {"line_id": "CAD_LINE_00048", "length_m": 3.953, "mean_confidence": 1.0, "num_vertices": 2, "is_ground_truth": true, "status": "Ground Truth"}, "geometry": {"type": "LineString", "coordinates": [[6.016352292182143, 51.18548751198531], [6.016333952368709, 51.185453902532366]]}}, {"id": "48", "type": "Feature", "properties": {"line_id": "CAD_LINE_00049", "length_m": 3.64, "mean_confidence": 1.0, "num_vertices": 2, "is_ground_truth": true, "status": "Ground Truth"}, "geometry": {"type": "LineString", "coordinates": [[6.016365636161369, 51.18593913720943], [6.016350902534981, 51.18590775548091]]}}, {"id": "49", "type": "Feature", "properties": {"line_id": "CAD_LINE_00050", "length_m": 3.64, "mean_confidence": 1.0, "num_vertices": 2, "is_ground_truth": true, "status": "Ground Truth"}, "geometry": {"type": "LineString", "coordinates": [[6.016374330804733, 51.18553009040925], [6.016359597304909, 51.18549870868132]]}}, {"id": "50", "type": "Feature", "properties": {"line_id": "CAD_LINE_00051", "length_m": 3.64, "mean_confidence": 1.0, "num_vertices": 2, "is_ground_truth": true, "status": "Ground Truth"}, "geometry": {"type": "LineString", "coordinates": [[6.016392823371828, 51.185835616422075], [6.0163780897604, 51.18580423469694]]}}, {"id": "51", "type": "Feature", "properties": {"line_id": "CAD_LINE_00052", "length_m": 2.85, "mean_confidence": 1.0, "num_vertices": 2, "is_ground_truth": true, "status": "Ground Truth"}, "geometry": {"type": "LineString", "coordinates": [[6.016395165099514, 51.18600639482932], [6.016384099440465, 51.18598173499382]]}}, {"id": "52", "type": "Feature", "properties": {"line_id": "CAD_LINE_00053", "length_m": 3.64, "mean_confidence": 1.0, "num_vertices": 2, "is_ground_truth": true, "status": "Ground Truth"}, "geometry": {"type": "LineString", "coordinates": [[6.0163963694683655, 51.18557266882889], [6.016381635939693, 51.18554128710386]]}}, {"id": "53", "type": "Feature", "properties": {"line_id": "CAD_LINE_00054", "length_m": 3.64, "mean_confidence": 1.0, "num_vertices": 2, "is_ground_truth": true, "status": "Ground Truth"}, "geometry": {"type": "LineString", "coordinates": [[6.016383672339793, 51.185168232376], [6.016433606241558, 51.18515897293661]]}}, {"id": "54", "type": "Feature", "properties": {"line_id": "CAD_LINE_00055", "length_m": 3.64, "mean_confidence": 1.0, "num_vertices": 2, "is_ground_truth": true, "status": "Ground Truth"}, "geometry": {"type": "LineString", "coordinates": [[6.0164148622005165, 51.18587819483764], [6.01640012856024, 51.185846813115354]]}}, {"id": "55", "type": "Feature", "properties": {"line_id": "CAD_LINE_00056", "length_m": 3.64, "mean_confidence": 1.0, "num_vertices": 2, "is_ground_truth": true, "status": "Ground Truth"}, "geometry": {"type": "LineString", "coordinates": [[6.016418408173038, 51.18561524724424], [6.016403674615517, 51.18558386552205]]}}, {"id": "56", "type": "Feature", "properties": {"line_id": "CAD_LINE_00057", "length_m": 6.25, "mean_confidence": 1.0, "num_vertices": 3, "is_ground_truth": true, "status": "Ground Truth"}, "geometry": {"type": "LineString", "coordinates": [[6.016431571400466, 51.185271346518306], [6.01641868732934, 51.18524444928365], [6.016405803273373, 51.18521755204755]]}}, {"id": "57", "type": "Feature", "properties": {"line_id": "CAD_LINE_00058", "length_m": 3.64, "mean_confidence": 1.0, "num_vertices": 2, "is_ground_truth": true, "status": "Ground Truth"}, "geometry": {"type": "LineString", "coordinates": [[6.016436901070246, 51.18592077324888], [6.016422167401119, 51.18588939152948]]}}, {"id": "58", "type": "Feature", "properties": {"line_id": "CAD_LINE_00059", "length_m": 4.43, "mean_confidence": 1.0, "num_vertices": 2, "is_ground_truth": true, "status": "Ground Truth"}, "geometry": {"type": "LineString", "coordinates": [[6.016462608000866, 51.18597007354253], [6.016444206283041, 51.185931969939304]]}}, {"id": "59", "type": "Feature", "properties": {"line_id": "CAD_LINE_00060", "length_m": 3.092, "mean_confidence": 1.0, "num_vertices": 2, "is_ground_truth": true, "status": "Ground Truth"}, "geometry": {"type": "LineString", "coordinates": [[6.016440017731574, 51.185105004182], [6.01648283135808, 51.185098030536416]]}}, {"id": "60", "type": "Feature", "properties": {"line_id": "CAD_LINE_00061", "length_m": 14.489, "mean_confidence": 1.0, "num_vertices": 4, "is_ground_truth": true, "status": "Ground Truth"}, "geometry": {"type": "LineString", "coordinates": [[6.016442544470003, 51.185289265096934], [6.016520959378146, 51.18527086235512], [6.016549517301674, 51.185267336781926], [6.01663864326927, 51.18524775231187]]}}, {"id": "61", "type": "Feature", "properties": {"line_id": "CAD_LINE_00062", "length_m": 3.64, "mean_confidence": 1.0, "num_vertices": 2, "is_ground_truth": true, "status": "Ground Truth"}, "geometry": {"type": "LineString", "coordinates": [[6.016467725302306, 51.18582172724741], [6.016452991644209, 51.18579034553183]]}}, {"id": "62", "type": "Feature", "properties": {"line_id": "CAD_LINE_00063", "length_m": 3.64, "mean_confidence": 1.0, "num_vertices": 2, "is_ground_truth": true, "status": "Ground Truth"}, "geometry": {"type": "LineString", "coordinates": [[6.016448555381539, 51.18520608424577], [6.016498489311241, 51.18519682477842]]}}, {"id": "63", "type": "Feature", "properties": {"line_id": "CAD_LINE_00064", "length_m": 3.64, "mean_confidence": 1.0, "num_vertices": 2, "is_ground_truth": true, "status": "Ground Truth"}, "geometry": {"type": "LineString", "coordinates": [[6.016451422164804, 51.185154381940556], [6.016501356037721, 51.18514512247205]]}}, {"id": "64", "type": "Feature", "properties": {"line_id": "CAD_LINE_00065", "length_m": 5.772, "mean_confidence": 1.0, "num_vertices": 2, "is_ground_truth": true, "status": "Ground Truth"}, "geometry": {"type": "LineString", "coordinates": [[6.016491090936775, 51.185439567984496], [6.0164653842751585, 51.185390267696086]]}}, {"id": "65", "type": "Feature", "properties": {"line_id": "CAD_LINE_00066", "length_m": 3.64, "mean_confidence": 1.0, "num_vertices": 2, "is_ground_truth": true, "status": "Ground Truth"}, "geometry": {"type": "LineString", "coordinates": [[6.016482213306999, 51.18557445114288], [6.016467479719104, 51.18554306942882]]}}, {"id": "66", "type": "Feature", "properties": {"line_id": "CAD_LINE_00067", "length_m": 2.926, "mean_confidence": 1.0, "num_vertices": 2, "is_ground_truth": true, "status": "Ground Truth"}, "geometry": {"type": "LineString", "coordinates": [[6.016483014529895, 51.18563287533449], [6.016468373369226, 51.18560823487348]]}}, {"id": "67", "type": "Feature", "properties": {"line_id": "CAD_LINE_00068", "length_m": 3.64, "mean_confidence": 1.0, "num_vertices": 2, "is_ground_truth": true, "status": "Ground Truth"}, "geometry": {"type": "LineString", "coordinates": [[6.016489764193693, 51.18586430564866], [6.016475030506744, 51.18583292393594]]}}, {"id": "68", "type": "Feature", "properties": {"line_id": "CAD_LINE_00069", "length_m": 4.981, "mean_confidence": 1.0, "num_vertices": 2, "is_ground_truth": true, "status": "Ground Truth"}, "geometry": {"type": "LineString", "coordinates": [[6.016484523692459, 51.18600366360744], [6.016552274718859, 51.185989813111405]]}}, {"id": "69", "type": "Feature", "properties": {"line_id": "CAD_LINE_00070", "length_m": 3.64, "mean_confidence": 1.0, "num_vertices": 2, "is_ground_truth": true, "status": "Ground Truth"}, "geometry": {"type": "LineString", "coordinates": [[6.0165118031261215, 51.1859068840456], [6.016497069410324, 51.18587550233577]]}}, {"id": "70", "type": "Feature", "properties": {"line_id": "CAD_LINE_00071", "length_m": 4.67, "mean_confidence": 1.0, "num_vertices": 2, "is_ground_truth": true, "status": "Ground Truth"}, "geometry": {"type": "LineString", "coordinates": [[6.01652789408255, 51.18551577517458], [6.016509461676858, 51.18547542449671]]}}, {"id": "71", "type": "Feature", "properties": {"line_id": "CAD_LINE_00072", "length_m": 3.482, "mean_confidence": 1.0, "num_vertices": 2, "is_ground_truth": true, "status": "Ground Truth"}, "geometry": {"type": "LineString", "coordinates": [[6.016514701369585, 51.185596747680485], [6.016561029346695, 51.18558526046907]]}}, {"id": "72", "type": "Feature", "properties": {"line_id": "CAD_LINE_00073", "length_m": 4.43, "mean_confidence": 1.0, "num_vertices": 2, "is_ground_truth": true, "status": "Ground Truth"}, "geometry": {"type": "LineString", "coordinates": [[6.016537510129279, 51.1859561843226], [6.0165191083549425, 51.18591808073129]]}}, {"id": "73", "type": "Feature", "properties": {"line_id": "CAD_LINE_00074", "length_m": 3.64, "mean_confidence": 1.0, "num_vertices": 2, "is_ground_truth": true, "status": "Ground Truth"}, "geometry": {"type": "LineString", "coordinates": [[6.0165163052426305, 51.185192233772455], [6.016566239143485, 51.185182974276024]]}}, {"id": "74", "type": "Feature", "properties": {"line_id": "CAD_LINE_00075", "length_m": 3.64, "mean_confidence": 1.0, "num_vertices": 2, "is_ground_truth": true, "status": "Ground Truth"}, "geometry": {"type": "LineString", "coordinates": [[6.016519171948777, 51.18514053146567], [6.016569105792846, 51.18513127196812]]}}, {"id": "75", "type": "Feature", "properties": {"line_id": "CAD_LINE_00076", "length_m": 3.482, "mean_confidence": 1.0, "num_vertices": 2, "is_ground_truth": true, "status": "Ground Truth"}, "geometry": {"type": "LineString", "coordinates": [[6.016525736186654, 51.185619160419485], [6.016572064183578, 51.18560767320369]]}}, {"id": "76", "type": "Feature", "properties": {"line_id": "CAD_LINE_00077", "length_m": 3.64, "mean_confidence": 1.0, "num_vertices": 2, "is_ground_truth": true, "status": "Ground Truth"}, "geometry": {"type": "LineString", "coordinates": [[6.01654993288158, 51.18555835356488], [6.016535199252634, 51.18552697185947]]}}, {"id": "77", "type": "Feature", "properties": {"line_id": "CAD_LINE_00078", "length_m": 14.559, "mean_confidence": 1.0, "num_vertices": 4, "is_ground_truth": true, "status": "Ground Truth"}, "geometry": {"type": "LineString", "coordinates": [[6.016540254638419, 51.18537413139144], [6.016611549423056, 51.18535801440943], [6.016686465920987, 51.18534524863716], [6.016704790535079, 51.18537773449208]]}}, {"id": "78", "type": "Feature", "properties": {"line_id": "CAD_LINE_00079", "length_m": 2.85, "mean_confidence": 1.0, "num_vertices": 2, "is_ground_truth": true, "status": "Ground Truth"}, "geometry": {"type": "LineString", "coordinates": [[6.016557360912268, 51.18583921972862], [6.016546295206835, 51.18581455990861]]}}, {"id": "79", "type": "Feature", "properties": {"line_id": "CAD_LINE_00080", "length_m": 2.61, "mean_confidence": 1.0, "num_vertices": 2, "is_ground_truth": true, "status": "Ground Truth"}, "geometry": {"type": "LineString", "coordinates": [[6.016555019040943, 51.1854077601807], [6.016543984260856, 51.18538534744429]]}}, {"id": "80", "type": "Feature", "properties": {"line_id": "CAD_LINE_00081", "length_m": 3.536, "mean_confidence": 1.0, "num_vertices": 3, "is_ground_truth": true, "status": "Ground Truth"}, "geometry": {"type": "LineString", "coordinates": [[6.01655569576212, 51.18623923946187], [6.016552089347414, 51.18623701174672], [6.016583992299985, 51.18621661366337]]}}, {"id": "81", "type": "Feature", "properties": {"line_id": "CAD_LINE_00082", "length_m": 3.64, "mean_confidence": 1.0, "num_vertices": 2, "is_ground_truth": true, "status": "Ground Truth"}, "geometry": {"type": "LineString", "coordinates": [[6.016579399895202, 51.185881798112696], [6.01656466614135, 51.18585041641148]]}}, {"id": "82", "type": "Feature", "properties": {"line_id": "CAD_LINE_00083", "length_m": 3.64, "mean_confidence": 1.0, "num_vertices": 2, "is_ground_truth": true, "status": "Ground Truth"}, "geometry": {"type": "LineString", "coordinates": [[6.0165770578128175, 51.185450338566014], [6.016562324200333, 51.18541895686392]]}}, {"id": "83", "type": "Feature", "properties": {"line_id": "CAD_LINE_00084", "length_m": 7.04, "mean_confidence": 1.0, "num_vertices": 3, "is_ground_truth": true, "status": "Ground Truth"}, "geometry": {"type": "LineString", "coordinates": [[6.0166161418989965, 51.18595351110472], [6.016603257526595, 51.18592661389149], [6.016586705136474, 51.18589299479413]]}}, {"id": "84", "type": "Feature", "properties": {"line_id": "CAD_LINE_00085", "length_m": 3.64, "mean_confidence": 1.0, "num_vertices": 2, "is_ground_truth": true, "status": "Ground Truth"}, "geometry": {"type": "LineString", "coordinates": [[6.016599096625733, 51.18549291694705], [6.016584362984399, 51.185461535247825]]}}, {"id": "85", "type": "Feature", "properties": {"line_id": "CAD_LINE_00086", "length_m": 11.546, "mean_confidence": 1.0, "num_vertices": 4, "is_ground_truth": true, "status": "Ground Truth"}, "geometry": {"type": "LineString", "coordinates": [[6.016639506395183, 51.18583203295763], [6.016626622043504, 51.18580513574689], [6.016611919104974, 51.18577600113582], [6.016588092365592, 51.1857334324428]]}}, {"id": "86", "type": "Feature", "properties": {"line_id": "CAD_LINE_00087", "length_m": 3.64, "mean_confidence": 1.0, "num_vertices": 2, "is_ground_truth": true, "status": "Ground Truth"}, "geometry": {"type": "LineString", "coordinates": [[6.016584055062684, 51.185178383259675], [6.016633988934692, 51.18516912373425]]}}, {"id": "87", "type": "Feature", "properties": {"line_id": "CAD_LINE_00088", "length_m": 3.64, "mean_confidence": 1.0, "num_vertices": 2, "is_ground_truth": true, "status": "Ground Truth"}, "geometry": {"type": "LineString", "coordinates": [[6.016586921691711, 51.18512668095138], [6.016636855506931, 51.18511742142472]]}}, {"id": "88", "type": "Feature", "properties": {"line_id": "CAD_LINE_00089", "length_m": 3.64, "mean_confidence": 1.0, "num_vertices": 2, "is_ground_truth": true, "status": "Ground Truth"}, "geometry": {"type": "LineString", "coordinates": [[6.0166211354796895, 51.18553549532376], [6.016606401809507, 51.18550411362741]]}}, {"id": "89", "type": "Feature", "properties": {"line_id": "CAD_LINE_00090", "length_m": 2.669, "mean_confidence": 1.0, "num_vertices": 4, "is_ground_truth": true, "status": "Ground Truth"}, "geometry": {"type": "LineString", "coordinates": [[6.016622953935413, 51.18618943557656], [6.016630043468536, 51.186184902665616], [6.016622799817196, 51.1861782001555], [6.016633434113779, 51.18617140078891]]}}, {"id": "90", "type": "Feature", "properties": {"line_id": "CAD_LINE_00091", "length_m": 2.85, "mean_confidence": 1.0, "num_vertices": 2, "is_ground_truth": true, "status": "Ground Truth"}, "geometry": {"type": "LineString", "coordinates": [[6.016633619046721, 51.185402839868296], [6.0166225534065605, 51.185378180055146]]}}, {"id": "91", "type": "Feature", "properties": {"line_id": "CAD_LINE_00092", "length_m": 3.64, "mean_confidence": 1.0, "num_vertices": 2, "is_ground_truth": true, "status": "Ground Truth"}, "geometry": {"type": "LineString", "coordinates": [[6.016655657889062, 51.18544541823859], [6.016640924224474, 51.18541403654654]]}}, {"id": "92", "type": "Feature", "properties": {"line_id": "CAD_LINE_00093", "length_m": 5.534, "mean_confidence": 1.0, "num_vertices": 3, "is_ground_truth": true, "status": "Ground Truth"}, "geometry": {"type": "LineString", "coordinates": [[6.016657322558661, 51.18582744192969], [6.016694758069122, 51.18581937372112], [6.016707596223488, 51.18584290029794]]}}, {"id": "93", "type": "Feature", "properties": {"line_id": "CAD_LINE_00094", "length_m": 3.64, "mean_confidence": 1.0, "num_vertices": 2, "is_ground_truth": true, "status": "Ground Truth"}, "geometry": {"type": "LineString", "coordinates": [[6.016677696772445, 51.18548799660457], [6.016662963079007, 51.18545661491541]]}}, {"id": "94", "type": "Feature", "properties": {"line_id": "CAD_LINE_00095", "length_m": 11.638, "mean_confidence": 1.0, "num_vertices": 5, "is_ground_truth": true, "status": "Ground Truth"}, "geometry": {"type": "LineString", "coordinates": [[6.016665583213606, 51.18564761707509], [6.016681996854771, 51.18567112428246], [6.016723023197027, 51.18566416023409], [6.01676401869669, 51.185654949087066], [6.016751180566414, 51.18563142251635]]}}, {"id": "95", "type": "Feature", "properties": {"line_id": "CAD_LINE_00096", "length_m": 5.772, "mean_confidence": 1.0, "num_vertices": 3, "is_ground_truth": true, "status": "Ground Truth"}, "geometry": {"type": "LineString", "coordinates": [[6.016708798498265, 51.18593053658164], [6.01669594490509, 51.185905886462955], [6.016683091325769, 51.1858812363428]]}}, {"id": "96", "type": "Feature", "properties": {"line_id": "CAD_LINE_00097", "length_m": 2.61, "mean_confidence": 1.0, "num_vertices": 2, "is_ground_truth": true, "status": "Ground Truth"}, "geometry": {"type": "LineString", "coordinates": [[6.016694650351524, 51.18594184949685], [6.016683615373788, 51.185919436774284]]}}, {"id": "97", "type": "Feature", "properties": {"line_id": "CAD_LINE_00098", "length_m": 3.64, "mean_confidence": 1.0, "num_vertices": 2, "is_ground_truth": true, "status": "Ground Truth"}, "geometry": {"type": "LineString", "coordinates": [[6.016699735696867, 51.18553057496629], [6.016685001974582, 51.18549919327997]]}}, {"id": "98", "type": "Feature", "properties": {"line_id": "CAD_LINE_00099", "length_m": 4.981, "mean_confidence": 1.0, "num_vertices": 2, "is_ground_truth": true, "status": "Ground Truth"}, "geometry": {"type": "LineString", "coordinates": [[6.0167131125850535, 51.18520240380106], [6.016691073807113, 51.185159825441325]]}}, {"id": "99", "type": "Feature", "properties": {"line_id": "CAD_LINE_00100", "length_m": 5.534, "mean_confidence": 1.0, "num_vertices": 2, "is_ground_truth": true, "status": "Ground Truth"}, "geometry": {"type": "LineString", "coordinates": [[6.016698441339697, 51.18569687857168], [6.016773312120061, 51.185680742116325]]}}, {"id": "100", "type": "Feature", "properties": {"line_id": "CAD_LINE_00101", "length_m": 6.486, "mean_confidence": 1.0, "num_vertices": 2, "is_ground_truth": true, "status": "Ground Truth"}, "geometry": {"type": "LineString", "coordinates": [[6.016716504543092, 51.18597094534931], [6.016798372747922, 51.185943534708045]]}}, {"id": "101", "type": "Feature", "properties": {"line_id": "CAD_LINE_00102", "length_m": 8.362, "mean_confidence": 1.0, "num_vertices": 3, "is_ground_truth": true, "status": "Ground Truth"}, "geometry": {"type": "LineString", "coordinates": [[6.016712372733365, 51.18514847377941], [6.016762291131964, 51.18513809065679], [6.0167509942698905, 51.18509657772404]]}}, {"id": "102", "type": "Feature", "properties": {"line_id": "CAD_LINE_00103", "length_m": 12.339, "mean_confidence": 1.0, "num_vertices": 5, "is_ground_truth": true, "status": "Ground Truth"}, "geometry": {"type": "LineString", "coordinates": [[6.016767485960081, 51.18551672434594], [6.016743566725405, 51.18546741443192], [6.016734442918936, 51.18545398036326], [6.016741532327731, 51.18544944744563], [6.016719585886928, 51.18541361034442]]}}, {"id": "103", "type": "Feature", "properties": {"line_id": "CAD_LINE_00104", "length_m": 5.534, "mean_confidence": 1.0, "num_vertices": 2, "is_ground_truth": true, "status": "Ground Truth"}, "geometry": {"type": "LineString", "coordinates": [[6.01675161285301, 51.185923562835946], [6.016725936466924, 51.18587650969085]]}}, {"id": "104", "type": "Feature", "properties": {"line_id": "CAD_LINE_00105", "length_m": 8.65, "mean_confidence": 1.0, "num_vertices": 5, "is_ground_truth": true, "status": "Ground Truth"}, "geometry": {"type": "LineString", "coordinates": [[6.0167427661035795, 51.18580001195564], [6.016738974740508, 51.18578430174104], [6.016733503501625, 51.18577646600824], [6.01677449909938, 51.185767254857396], [6.016813722318505, 51.185759176922694]]}}, {"id": "105", "type": "Feature", "properties": {"line_id": "CAD_LINE_00106", "length_m": 3.482, "mean_confidence": 1.0, "num_vertices": 2, "is_ground_truth": true, "status": "Ground Truth"}, "geometry": {"type": "LineString", "coordinates": [[6.016786596893612, 51.18560651083454], [6.016768318374987, 51.185577395619255]]}}, {"id": "106", "type": "Feature", "properties": {"line_id": "CAD_LINE_00107", "length_m": 2.61, "mean_confidence": 1.0, "num_vertices": 2, "is_ground_truth": true, "status": "Ground Truth"}, "geometry": {"type": "LineString", "coordinates": [[6.016779631620555, 51.18588071323248], [6.016815294786257, 51.18587377821508]]}}, {"id": "107", "type": "Feature", "properties": {"line_id": "CAD_LINE_00108", "length_m": 3.64, "mean_confidence": 1.0, "num_vertices": 2, "is_ground_truth": true, "status": "Ground Truth"}, "geometry": {"type": "LineString", "coordinates": [[6.016793223848745, 51.18556827165093], [6.016778490050381, 51.18553688997662]]}}, {"id": "108", "type": "Feature", "properties": {"line_id": "CAD_LINE_00109", "length_m": 14.785, "mean_confidence": 1.0, "num_vertices": 5, "is_ground_truth": true, "status": "Ground Truth"}, "geometry": {"type": "LineString", "coordinates": [[6.01680262566288, 51.185732270043054], [6.016722406888768, 51.18574955912087], [6.016707765562224, 51.18572491869037], [6.016748761119188, 51.18571570754868], [6.016787984298867, 51.185707629622726]]}}, {"id": "109", "type": "Feature", "properties": {"line_id": "CAD_LINE_00110", "length_m": 2.926, "mean_confidence": 1.0, "num_vertices": 2, "is_ground_truth": true, "status": "Ground Truth"}, "geometry": {"type": "LineString", "coordinates": [[6.016793193925228, 51.185826705707754], [6.016832401775009, 51.18581750422462]]}}, {"id": "110", "type": "Feature", "properties": {"line_id": "CAD_LINE_00111", "length_m": 5.46, "mean_confidence": 1.0, "num_vertices": 2, "is_ground_truth": true, "status": "Ground Truth"}, "geometry": {"type": "LineString", "coordinates": [[6.016812857990316, 51.18543557742429], [6.016790757344712, 51.18538850491566]]}}, {"id": "111", "type": "Feature", "properties": {"line_id": "CAD_LINE_00112", "length_m": 3.953, "mean_confidence": 1.0, "num_vertices": 2, "is_ground_truth": true, "status": "Ground Truth"}, "geometry": {"type": "LineString", "coordinates": [[6.016824354330101, 51.18523101525476], [6.016806014274621, 51.185197405876515]]}}, {"id": "112", "type": "Feature", "properties": {"line_id": "CAD_LINE_00113", "length_m": 2.85, "mean_confidence": 1.0, "num_vertices": 2, "is_ground_truth": true, "status": "Ground Truth"}, "geometry": {"type": "LineString", "coordinates": [[6.0168086956637605, 51.18513222105795], [6.0168479337514995, 51.18512526665461]]}}, {"id": "113", "type": "Feature", "properties": {"line_id": "CAD_LINE_00114", "length_m": 3.64, "mean_confidence": 1.0, "num_vertices": 2, "is_ground_truth": true, "status": "Ground Truth"}, "geometry": {"type": "LineString", "coordinates": [[6.016819640116692, 51.18566925480182], [6.016869574474332, 51.185659995174376]]}}, {"id": "114", "type": "Feature", "properties": {"line_id": "CAD_LINE_00115", "length_m": 5.701, "mean_confidence": 1.0, "num_vertices": 2, "is_ground_truth": true, "status": "Ground Truth"}, "geometry": {"type": "LineString", "coordinates": [[6.01684599362709, 51.18550506263703], [6.016823862080924, 51.185455743050724]]}}, {"id": "115", "type": "Feature", "properties": {"line_id": "CAD_LINE_00116", "length_m": 3.482, "mean_confidence": 1.0, "num_vertices": 2, "is_ground_truth": true, "status": "Ground Truth"}, "geometry": {"type": "LineString", "coordinates": [[6.016853794732663, 51.186073574927896], [6.01683551598418, 51.186044459723874]]}}, {"id": "116", "type": "Feature", "properties": {"line_id": "CAD_LINE_00117", "length_m": 4.736, "mean_confidence": 1.0, "num_vertices": 3, "is_ground_truth": true, "status": "Ground Truth"}, "geometry": {"type": "LineString", "coordinates": [[6.016894170131521, 51.18536771920159], [6.016858229860663, 51.18535443048501], [6.016833262849298, 51.18535906029872]]}}, {"id": "117", "type": "Feature", "properties": {"line_id": "CAD_LINE_00118", "length_m": 3.64, "mean_confidence": 1.0, "num_vertices": 2, "is_ground_truth": true, "status": "Ground Truth"}, "geometry": {"type": "LineString", "coordinates": [[6.016845285647777, 51.18571406084234], [6.016895220048902, 51.185704801203826]]}}, {"id": "118", "type": "Feature", "properties": {"line_id": "CAD_LINE_00119", "length_m": 3.64, "mean_confidence": 1.0, "num_vertices": 2, "is_ground_truth": true, "status": "Ground Truth"}, "geometry": {"type": "LineString", "coordinates": [[6.01684827657359, 51.18593202800515], [6.016898211211048, 51.185922768364996]]}}, {"id": "119", "type": "Feature", "properties": {"line_id": "CAD_LINE_00120", "length_m": 3.953, "mean_confidence": 1.0, "num_vertices": 2, "is_ground_truth": true, "status": "Ground Truth"}, "geometry": {"type": "LineString", "coordinates": [[6.016861003687399, 51.18529598691812], [6.0168426635789425, 51.18526237754583]]}}, {"id": "120", "type": "Feature", "properties": {"line_id": "CAD_LINE_00121", "length_m": 3.64, "mean_confidence": 1.0, "num_vertices": 2, "is_ground_truth": true, "status": "Ground Truth"}, "geometry": {"type": "LineString", "coordinates": [[6.016868032715756, 51.18554764096653], [6.016853298872968, 51.1855162593018]]}}, {"id": "121", "type": "Feature", "properties": {"line_id": "CAD_LINE_00122", "length_m": 3.64, "mean_confidence": 1.0, "num_vertices": 2, "is_ground_truth": true, "status": "Ground Truth"}, "geometry": {"type": "LineString", "coordinates": [[6.016867386507452, 51.18576113333984], [6.016917320955248, 51.185751873691785]]}}, {"id": "122", "type": "Feature", "properties": {"line_id": "CAD_LINE_00123", "length_m": 4.67, "mean_confidence": 1.0, "num_vertices": 2, "is_ground_truth": true, "status": "Ground Truth"}, "geometry": {"type": "LineString", "coordinates": [[6.016872349661762, 51.1858622327477], [6.01693655563646, 51.185850648491034]]}}, {"id": "123", "type": "Feature", "properties": {"line_id": "CAD_LINE_00124", "length_m": 2.926, "mean_confidence": 1.0, "num_vertices": 2, "is_ground_truth": true, "status": "Ground Truth"}, "geometry": {"type": "LineString", "coordinates": [[6.016890255408998, 51.185343020655154], [6.016875614123056, 51.18531838024549]]}}, {"id": "124", "type": "Feature", "properties": {"line_id": "CAD_LINE_00125", "length_m": 6.795, "mean_confidence": 1.0, "num_vertices": 4, "is_ground_truth": true, "status": "Ground Truth"}, "geometry": {"type": "LineString", "coordinates": [[6.016882305455193, 51.18580599750733], [6.016953600788982, 51.1857898803147], [6.016960813587164, 51.18579433572014], [6.016971509425574, 51.18579203049105]]}}, {"id": "125", "type": "Feature", "properties": {"line_id": "CAD_LINE_00126", "length_m": 3.64, "mean_confidence": 1.0, "num_vertices": 2, "is_ground_truth": true, "status": "Ground Truth"}, "geometry": {"type": "LineString", "coordinates": [[6.016887390547941, 51.18565540411132], [6.016937324876734, 51.18564614445483]]}}, {"id": "126", "type": "Feature", "properties": {"line_id": "CAD_LINE_00127", "length_m": 5.657, "mean_confidence": 1.0, "num_vertices": 5, "is_ground_truth": true, "status": "Ground Truth"}, "geometry": {"type": "LineString", "coordinates": [[6.016909217032922, 51.18620361512041], [6.0168983977469335, 51.18619693200747], [6.016909032006909, 51.18619013261572], [6.016890999870704, 51.18617899409358], [6.016908723630503, 51.18616766177464]]}}, {"id": "127", "type": "Feature", "properties": {"line_id": "CAD_LINE_00128", "length_m": 5.46, "mean_confidence": 1.0, "num_vertices": 2, "is_ground_truth": true, "status": "Ground Truth"}, "geometry": {"type": "LineString", "coordinates": [[6.016904096488417, 51.18556991801635], [6.016978997829526, 51.18555602851302]]}}, {"id": "128", "type": "Feature", "properties": {"line_id": "CAD_LINE_00129", "length_m": 7.591, "mean_confidence": 1.0, "num_vertices": 2, "is_ground_truth": true, "status": "Ground Truth"}, "geometry": {"type": "LineString", "coordinates": [[6.016904987689112, 51.18511372117259], [6.017008399805196, 51.18509293535787]]}}, {"id": "129", "type": "Feature", "properties": {"line_id": "CAD_LINE_00130", "length_m": 3.64, "mean_confidence": 1.0, "num_vertices": 2, "is_ground_truth": true, "status": "Ground Truth"}, "geometry": {"type": "LineString", "coordinates": [[6.016913036137305, 51.185700210136794], [6.0169629705095815, 51.18569095046922]]}}, {"id": "130", "type": "Feature", "properties": {"line_id": "CAD_LINE_00131", "length_m": 15.425, "mean_confidence": 1.0, "num_vertices": 4, "is_ground_truth": true, "status": "Ground Truth"}, "geometry": {"type": "LineString", "coordinates": [[6.016916027383662, 51.18591817729742], [6.016973097709032, 51.185907755322596], [6.017080087148205, 51.185886950059526], [6.017126430699459, 51.1858765861646]]}}, {"id": "131", "type": "Feature", "properties": {"line_id": "CAD_LINE_00132", "length_m": 5.772, "mean_confidence": 1.0, "num_vertices": 3, "is_ground_truth": true, "status": "Ground Truth"}, "geometry": {"type": "LineString", "coordinates": [[6.016916053416529, 51.18513838095885], [6.016955276073613, 51.18513030297721], [6.016994498716842, 51.18512222498233]]}}, {"id": "132", "type": "Feature", "properties": {"line_id": "CAD_LINE_00133", "length_m": 3.64, "mean_confidence": 1.0, "num_vertices": 2, "is_ground_truth": true, "status": "Ground Truth"}, "geometry": {"type": "LineString", "coordinates": [[6.016941883773076, 51.185196669483915], [6.016927149993528, 51.18516528782817]]}}, {"id": "133", "type": "Feature", "properties": {"line_id": "CAD_LINE_00134", "length_m": 3.64, "mean_confidence": 1.0, "num_vertices": 2, "is_ground_truth": true, "status": "Ground Truth"}, "geometry": {"type": "LineString", "coordinates": [[6.016935137059675, 51.18574728262135], [6.016985071478622, 51.18573802294424]]}}, {"id": "134", "type": "Feature", "properties": {"line_id": "CAD_LINE_00135", "length_m": 3.64, "mean_confidence": 1.0, "num_vertices": 2, "is_ground_truth": true, "status": "Ground Truth"}, "geometry": {"type": "LineString", "coordinates": [[6.016954371777247, 51.18584605741762], [6.017004306299652, 51.18583679773204]]}}, {"id": "135", "type": "Feature", "properties": {"line_id": "CAD_LINE_00136", "length_m": 2.85, "mean_confidence": 1.0, "num_vertices": 2, "is_ground_truth": true, "status": "Ground Truth"}, "geometry": {"type": "LineString", "coordinates": [[6.016960254766974, 51.185232525924675], [6.016949188992913, 51.185207866142754]]}}, {"id": "136", "type": "Feature", "properties": {"line_id": "CAD_LINE_00137", "length_m": 3.64, "mean_confidence": 1.0, "num_vertices": 2, "is_ground_truth": true, "status": "Ground Truth"}, "geometry": {"type": "LineString", "coordinates": [[6.01695514093815, 51.18564155338139], [6.017005075238092, 51.18563229369585]]}}, {"id": "137", "type": "Feature", "properties": {"line_id": "CAD_LINE_00138", "length_m": 3.64, "mean_confidence": 1.0, "num_vertices": 2, "is_ground_truth": true, "status": "Ground Truth"}, "geometry": {"type": "LineString", "coordinates": [[6.01698078658579, 51.185686359391845], [6.017030720929216, 51.18567709969523]]}}, {"id": "138", "type": "Feature", "properties": {"line_id": "CAD_LINE_00139", "length_m": 4.596, "mean_confidence": 1.0, "num_vertices": 3, "is_ground_truth": true, "status": "Ground Truth"}, "geometry": {"type": "LineString", "coordinates": [[6.016988710738796, 51.186003178868226], [6.017027702796641, 51.185978247730375], [6.017034915631674, 51.18598270313111]]}}, {"id": "139", "type": "Feature", "properties": {"line_id": "CAD_LINE_00140", "length_m": 3.64, "mean_confidence": 1.0, "num_vertices": 2, "is_ground_truth": true, "status": "Ground Truth"}, "geometry": {"type": "LineString", "coordinates": [[6.017002887570855, 51.185733431863426], [6.017052821960955, 51.18572417215724]]}}, {"id": "140", "type": "Feature", "properties": {"line_id": "CAD_LINE_00141", "length_m": 6.325, "mean_confidence": 1.0, "num_vertices": 2, "is_ground_truth": true, "status": "Ground Truth"}, "geometry": {"type": "LineString", "coordinates": [[6.0170116381877, 51.185328879191495], [6.0170972039772925, 51.18531043729489]]}}, {"id": "141", "type": "Feature", "properties": {"line_id": "CAD_LINE_00142", "length_m": 2.85, "mean_confidence": 1.0, "num_vertices": 2, "is_ground_truth": true, "status": "Ground Truth"}, "geometry": {"type": "LineString", "coordinates": [[6.017022122428249, 51.18583220664826], [6.0170613610812875, 51.18582525217203]]}}, {"id": "142", "type": "Feature", "properties": {"line_id": "CAD_LINE_00143", "length_m": 3.092, "mean_confidence": 1.0, "num_vertices": 2, "is_ground_truth": true, "status": "Ground Truth"}, "geometry": {"type": "LineString", "coordinates": [[6.0170249886014435, 51.18578050433073], [6.017067802767798, 51.18577353046883]]}}, {"id": "143", "type": "Feature", "properties": {"line_id": "CAD_LINE_00144", "length_m": 3.64, "mean_confidence": 1.0, "num_vertices": 2, "is_ground_truth": true, "status": "Ground Truth"}, "geometry": {"type": "LineString", "coordinates": [[6.017024770479072, 51.18550409360286], [6.017074704615416, 51.18549483388764]]}}, {"id": "144", "type": "Feature", "properties": {"line_id": "CAD_LINE_00145", "length_m": 13.546, "mean_confidence": 1.0, "num_vertices": 6, "is_ground_truth": true, "status": "Ground Truth"}, "geometry": {"type": "LineString", "coordinates": [[6.017076987166475, 51.18566111811003], [6.017058554219524, 51.18562076752038], [6.017051279750997, 51.185611817952754], [6.017041939920193, 51.1855826543198], [6.017028932031642, 51.185546768817375], [6.017032476728779, 51.18554450234966]]}}, {"id": "145", "type": "Feature", "properties": {"line_id": "CAD_LINE_00146", "length_m": 4.04, "mean_confidence": 1.0, "num_vertices": 3, "is_ground_truth": true, "status": "Ground Truth"}, "geometry": {"type": "LineString", "coordinates": [[6.017087991427517, 51.185681283711055], [6.01707704885731, 51.18566561227821], [6.017048536993234, 51.185672508607475]]}}, {"id": "146", "type": "Feature", "properties": {"line_id": "CAD_LINE_00147", "length_m": 3.536, "mean_confidence": 1.0, "num_vertices": 4, "is_ground_truth": true, "status": "Ground Truth"}, "geometry": {"type": "LineString", "coordinates": [[6.017052916880862, 51.185991594547005], [6.0170601297204405, 51.18599604994618], [6.01707785336792, 51.1859847176016], [6.017088672629812, 51.18599140069787]]}}, {"id": "147", "type": "Feature", "properties": {"line_id": "CAD_LINE_00148", "length_m": 2.85, "mean_confidence": 1.0, "num_vertices": 2, "is_ground_truth": true, "status": "Ground Truth"}, "geometry": {"type": "LineString", "coordinates": [[6.017067612774148, 51.185238685685086], [6.017056546940954, 51.1852140259135]]}}, {"id": "148", "type": "Feature", "properties": {"line_id": "CAD_LINE_00149", "length_m": 5.303, "mean_confidence": 1.0, "num_vertices": 2, "is_ground_truth": true, "status": "Ground Truth"}, "geometry": {"type": "LineString", "coordinates": [[6.017077269829967, 51.18620270414029], [6.017130440972166, 51.18616870709026]]}}, {"id": "149", "type": "Feature", "properties": {"line_id": "CAD_LINE_00150", "length_m": 3.64, "mean_confidence": 1.0, "num_vertices": 2, "is_ground_truth": true, "status": "Ground Truth"}, "geometry": {"type": "LineString", "coordinates": [[6.017089651939253, 51.185281263972705], [6.017074918031354, 51.18524988233596]]}}, {"id": "150", "type": "Feature", "properties": {"line_id": "CAD_LINE_00151", "length_m": 2.85, "mean_confidence": 1.0, "num_vertices": 2, "is_ground_truth": true, "status": "Ground Truth"}, "geometry": {"type": "LineString", "coordinates": [[6.017092520604335, 51.18549024279324], [6.017131758954487, 51.18548328829371]]}}, {"id": "151", "type": "Feature", "properties": {"line_id": "CAD_LINE_00152", "length_m": 5.22, "mean_confidence": 1.0, "num_vertices": 2, "is_ground_truth": true, "status": "Ground Truth"}, "geometry": {"type": "LineString", "coordinates": [[6.017128402163714, 51.18575971840711], [6.0171063318841504, 51.18571489304373]]}}, {"id": "152", "type": "Feature", "properties": {"line_id": "CAD_LINE_00153", "length_m": 2.85, "mean_confidence": 1.0, "num_vertices": 2, "is_ground_truth": true, "status": "Ground Truth"}, "geometry": {"type": "LineString", "coordinates": [[6.017112367066616, 51.18511259696511], [6.017101301240084, 51.18508793719774]]}}, {"id": "153", "type": "Feature", "properties": {"line_id": "CAD_LINE_00154", "length_m": 2.85, "mean_confidence": 1.0, "num_vertices": 2, "is_ground_truth": true, "status": "Ground Truth"}, "geometry": {"type": "LineString", "coordinates": [[6.017126394254817, 51.18535297680387], [6.017115328362248, 51.18532831703805]]}}, {"id": "154", "type": "Feature", "properties": {"line_id": "CAD_LINE_00155", "length_m": 5.22, "mean_confidence": 1.0, "num_vertices": 2, "is_ground_truth": true, "status": "Ground Truth"}, "geometry": {"type": "LineString", "coordinates": [[6.0171454103761475, 51.18517534084038], [6.017123340363428, 51.18513051547915]]}}, {"id": "155", "type": "Feature", "properties": {"line_id": "CAD_LINE_00156", "length_m": 3.881, "mean_confidence": 1.0, "num_vertices": 2, "is_ground_truth": true, "status": "Ground Truth"}, "geometry": {"type": "LineString", "coordinates": [[6.017125715609328, 51.18530354095408], [6.0171792250276335, 51.18529426180769]]}}, {"id": "156", "type": "Feature", "properties": {"line_id": "CAD_LINE_00157", "length_m": 3.604, "mean_confidence": 1.0, "num_vertices": 3, "is_ground_truth": true, "status": "Ground Truth"}, "geometry": {"type": "LineString", "coordinates": [[6.017133952012022, 51.185903512399754], [6.017151459660761, 51.18587645045563], [6.017147853245798, 51.185874222758905]]}}, {"id": "157", "type": "Feature", "properties": {"line_id": "CAD_LINE_00158", "length_m": 4.257, "mean_confidence": 1.0, "num_vertices": 2, "is_ground_truth": true, "status": "Ground Truth"}, "geometry": {"type": "LineString", "coordinates": [[6.017158425694994, 51.18586292917639], [6.017161476814514, 51.18582470936007]]}}, {"id": "158", "type": "Feature", "properties": {"line_id": "CAD_LINE_00159", "length_m": 3.64, "mean_confidence": 1.0, "num_vertices": 2, "is_ground_truth": true, "status": "Ground Truth"}, "geometry": {"type": "LineString", "coordinates": [[6.017167449582688, 51.185217919113256], [6.01715271564216, 51.18518653748638]]}}, {"id": "159", "type": "Feature", "properties": {"line_id": "CAD_LINE_00160", "length_m": 5.303, "mean_confidence": 1.0, "num_vertices": 2, "is_ground_truth": true, "status": "Ground Truth"}, "geometry": {"type": "LineString", "coordinates": [[6.017248281125031, 51.18615683184692], [6.017194184535712, 51.186123416430306]]}}, {"id": "160", "type": "Feature", "properties": {"line_id": "CAD_LINE_00161", "length_m": 4.008, "mean_confidence": 1.0, "num_vertices": 2, "is_ground_truth": true, "status": "Ground Truth"}, "geometry": {"type": "LineString", "coordinates": [[6.017218805888369, 51.185572706342256], [6.017221887791745, 51.18553673360819]]}}, {"id": "161", "type": "Feature", "properties": {"line_id": "CAD_LINE_00162", "length_m": 3.881, "mean_confidence": 1.0, "num_vertices": 2, "is_ground_truth": true, "status": "Ground Truth"}, "geometry": {"type": "LineString", "coordinates": [[6.017241061329172, 51.18563101418852], [6.017226296351867, 51.185597385487576]]}}, {"id": "162", "type": "Feature", "properties": {"line_id": "CAD_LINE_00163", "length_m": 2.61, "mean_confidence": 1.0, "num_vertices": 2, "is_ground_truth": true, "status": "Ground Truth"}, "geometry": {"type": "LineString", "coordinates": [[6.0172342119561035, 51.185132161531435], [6.017223176911479, 51.18510974885981]]}}, {"id": "163", "type": "Feature", "properties": {"line_id": "CAD_LINE_00164", "length_m": 7.071, "mean_confidence": 1.0, "num_vertices": 2, "is_ground_truth": true, "status": "Ground Truth"}, "geometry": {"type": "LineString", "coordinates": [[6.017238634244052, 51.186235537957494], [6.017309528973603, 51.186190208453844]]}}, {"id": "164", "type": "Feature", "properties": {"line_id": "CAD_LINE_00165", "length_m": 19.264, "mean_confidence": 1.0, "num_vertices": 6, "is_ground_truth": true, "status": "Ground Truth"}, "geometry": {"type": "LineString", "coordinates": [[6.017236409345828, 51.18581306677439], [6.0172161575660255, 51.185770478821155], [6.017205076097768, 51.185744695522345], [6.017249647126674, 51.18573546481503], [6.017294279849806, 51.18573072825867], [6.017318091813441, 51.18577217326378]]}}, {"id": "165", "type": "Feature", "properties": {"line_id": "CAD_LINE_00166", "length_m": 2.85, "mean_confidence": 1.0, "num_vertices": 2, "is_ground_truth": true, "status": "Ground Truth"}, "geometry": {"type": "LineString", "coordinates": [[6.017232703571501, 51.18528273555273], [6.017271941722955, 51.18527578100615]]}}, {"id": "166", "type": "Feature", "properties": {"line_id": "CAD_LINE_00167", "length_m": 3.64, "mean_confidence": 1.0, "num_vertices": 2, "is_ground_truth": true, "status": "Ground Truth"}, "geometry": {"type": "LineString", "coordinates": [[6.017258448945471, 51.18585564502864], [6.0172437147361855, 51.18582426341427]]}}, {"id": "167", "type": "Feature", "properties": {"line_id": "CAD_LINE_00168", "length_m": 3.64, "mean_confidence": 1.0, "num_vertices": 2, "is_ground_truth": true, "status": "Ground Truth"}, "geometry": {"type": "LineString", "coordinates": [[6.017263100844985, 51.185673592442235], [6.017248366691496, 51.18564221082822]]}}, {"id": "168", "type": "Feature", "properties": {"line_id": "CAD_LINE_00169", "length_m": 6.25, "mean_confidence": 1.0, "num_vertices": 2, "is_ground_truth": true, "status": "Ground Truth"}, "geometry": {"type": "LineString", "coordinates": [[6.0172783522427835, 51.18522181220707], [6.017252583152131, 51.18516801792564]]}}, {"id": "169", "type": "Feature", "properties": {"line_id": "CAD_LINE_00170", "length_m": 3.64, "mean_confidence": 1.0, "num_vertices": 2, "is_ground_truth": true, "status": "Ground Truth"}, "geometry": {"type": "LineString", "coordinates": [[6.017280488586153, 51.185898223278606], [6.017265754348017, 51.185866841667114]]}}, {"id": "170", "type": "Feature", "properties": {"line_id": "CAD_LINE_00171", "length_m": 2.693, "mean_confidence": 1.0, "num_vertices": 2, "is_ground_truth": true, "status": "Ground Truth"}, "geometry": {"type": "LineString", "coordinates": [[6.017273079724246, 51.18509824197601], [6.017308711351031, 51.1850890597242]]}}, {"id": "171", "type": "Feature", "properties": {"line_id": "CAD_LINE_00172", "length_m": 3.64, "mean_confidence": 1.0, "num_vertices": 2, "is_ground_truth": true, "status": "Ground Truth"}, "geometry": {"type": "LineString", "coordinates": [[6.017302528267879, 51.185940801524325], [6.017287794000894, 51.18590941991568]]}}, {"id": "172", "type": "Feature", "properties": {"line_id": "CAD_LINE_00173", "length_m": 2.795, "mean_confidence": 1.0, "num_vertices": 2, "is_ground_truth": true, "status": "Ground Truth"}, "geometry": {"type": "LineString", "coordinates": [[6.017288681380072, 51.18545322307918], [6.017324282421653, 51.18544179373818]]}}, {"id": "173", "type": "Feature", "properties": {"line_id": "CAD_LINE_00174", "length_m": 3.162, "mean_confidence": 1.0, "num_vertices": 2, "is_ground_truth": true, "status": "Ground Truth"}, "geometry": {"type": "LineString", "coordinates": [[6.01730399796934, 51.18526661814652], [6.017289325630621, 51.185239730705234]]}}, {"id": "174", "type": "Feature", "properties": {"line_id": "CAD_LINE_00175", "length_m": 4.981, "mean_confidence": 1.0, "num_vertices": 2, "is_ground_truth": true, "status": "Ground Truth"}, "geometry": {"type": "LineString", "coordinates": [[6.017331873429773, 51.185994576399935], [6.017309833694811, 51.18595199815994]]}}, {"id": "175", "type": "Feature", "properties": {"line_id": "CAD_LINE_00176", "length_m": 13.918, "mean_confidence": 1.0, "num_vertices": 3, "is_ground_truth": true, "status": "Ground Truth"}, "geometry": {"type": "LineString", "coordinates": [[6.017325975652475, 51.18530470222083], [6.017422267829036, 51.18528620190669], [6.01751495354289, 51.18526547382743]]}}, {"id": "176", "type": "Feature", "properties": {"line_id": "CAD_LINE_00177", "length_m": 3.64, "mean_confidence": 1.0, "num_vertices": 2, "is_ground_truth": true, "status": "Ground Truth"}, "geometry": {"type": "LineString", "coordinates": [[6.017348813355487, 51.18514502350468], [6.017334079314673, 51.18511364190092]]}}, {"id": "177", "type": "Feature", "properties": {"line_id": "CAD_LINE_00178", "length_m": 2.85, "mean_confidence": 1.0, "num_vertices": 2, "is_ground_truth": true, "status": "Ground Truth"}, "geometry": {"type": "LineString", "coordinates": [[6.017349928316837, 51.18548659966694], [6.017338862271742, 51.18546193992274]]}}, {"id": "178", "type": "Feature", "properties": {"line_id": "CAD_LINE_00179", "length_m": 4.981, "mean_confidence": 1.0, "num_vertices": 2, "is_ground_truth": true, "status": "Ground Truth"}, "geometry": {"type": "LineString", "coordinates": [[6.017372223140041, 51.186068516841466], [6.017350183331883, 51.186025938609355]]}}, {"id": "179", "type": "Feature", "properties": {"line_id": "CAD_LINE_00180", "length_m": 3.64, "mean_confidence": 1.0, "num_vertices": 2, "is_ground_truth": true, "status": "Ground Truth"}, "geometry": {"type": "LineString", "coordinates": [[6.01737196786363, 51.1855291779001], [6.017357233682552, 51.1854977962998]]}}, {"id": "180", "type": "Feature", "properties": {"line_id": "CAD_LINE_00181", "length_m": 2.926, "mean_confidence": 1.0, "num_vertices": 2, "is_ground_truth": true, "status": "Ground Truth"}, "geometry": {"type": "LineString", "coordinates": [[6.0173759796591515, 51.185821298817146], [6.017361337959046, 51.18579665846967]]}}, {"id": "181", "type": "Feature", "properties": {"line_id": "CAD_LINE_00182", "length_m": 2.85, "mean_confidence": 1.0, "num_vertices": 2, "is_ground_truth": true, "status": "Ground Truth"}, "geometry": {"type": "LineString", "coordinates": [[6.0173671846461545, 51.18518087988068], [6.017356118666205, 51.185156220137834]]}}, {"id": "182", "type": "Feature", "properties": {"line_id": "CAD_LINE_00183", "length_m": 3.64, "mean_confidence": 1.0, "num_vertices": 2, "is_ground_truth": true, "status": "Ground Truth"}, "geometry": {"type": "LineString", "coordinates": [[6.017394262989241, 51.186111095069286], [6.01737952860442, 51.18607971347263]]}}, {"id": "183", "type": "Feature", "properties": {"line_id": "CAD_LINE_00184", "length_m": 3.64, "mean_confidence": 1.0, "num_vertices": 2, "is_ground_truth": true, "status": "Ground Truth"}, "geometry": {"type": "LineString", "coordinates": [[6.017394007451462, 51.18557175612897], [6.017379273241534, 51.185540374531556]]}}, {"id": "184", "type": "Feature", "properties": {"line_id": "CAD_LINE_00185", "length_m": 5.786, "mean_confidence": 1.0, "num_vertices": 3, "is_ground_truth": true, "status": "Ground Truth"}, "geometry": {"type": "LineString", "coordinates": [[6.017386953229391, 51.185839217305514], [6.017403398170076, 51.18586497149411], [6.017440864442335, 51.18585915012932]]}}, {"id": "185", "type": "Feature", "properties": {"line_id": "CAD_LINE_00186", "length_m": 3.162, "mean_confidence": 1.0, "num_vertices": 2, "is_ground_truth": true, "status": "Ground Truth"}, "geometry": {"type": "LineString", "coordinates": [[6.017416241154571, 51.186149179124946], [6.017401568465811, 51.18612229169904]]}}, {"id": "186", "type": "Feature", "properties": {"line_id": "CAD_LINE_00187", "length_m": 3.64, "mean_confidence": 1.0, "num_vertices": 2, "is_ground_truth": true, "status": "Ground Truth"}, "geometry": {"type": "LineString", "coordinates": [[6.017416047080339, 51.18561433435356], [6.01740131284156, 51.18558295275902]]}}, {"id": "187", "type": "Feature", "properties": {"line_id": "CAD_LINE_00188", "length_m": 3.4, "mean_confidence": 1.0, "num_vertices": 2, "is_ground_truth": true, "status": "Ground Truth"}, "geometry": {"type": "LineString", "coordinates": [[6.017402578154619, 51.185675083201794], [6.017448936850601, 51.185665842720624]]}}, {"id": "188", "type": "Feature", "properties": {"line_id": "CAD_LINE_00189", "length_m": 5.46, "mean_confidence": 1.0, "num_vertices": 2, "is_ground_truth": true, "status": "Ground Truth"}, "geometry": {"type": "LineString", "coordinates": [[6.01743106363708, 51.18592662083606], [6.017408962119363, 51.185879548447]]}}, {"id": "189", "type": "Feature", "properties": {"line_id": "CAD_LINE_00190", "length_m": 6.49, "mean_confidence": 1.0, "num_vertices": 2, "is_ground_truth": true, "status": "Ground Truth"}, "geometry": {"type": "LineString", "coordinates": [[6.017403865591811, 51.18524809845565], [6.017493037452835, 51.18523188395698]]}}, {"id": "190", "type": "Feature", "properties": {"line_id": "CAD_LINE_00191", "length_m": 2.85, "mean_confidence": 1.0, "num_vertices": 2, "is_ground_truth": true, "status": "Ground Truth"}, "geometry": {"type": "LineString", "coordinates": [[6.017424952835074, 51.18548169821261], [6.017413886750894, 51.18545703847559]]}}, {"id": "191", "type": "Feature", "properties": {"line_id": "CAD_LINE_00192", "length_m": 2.85, "mean_confidence": 1.0, "num_vertices": 2, "is_ground_truth": true, "status": "Ground Truth"}, "geometry": {"type": "LineString", "coordinates": [[6.0174433243210546, 51.18551755457592], [6.017432258218284, 51.185492894840706]]}}, {"id": "192", "type": "Feature", "properties": {"line_id": "CAD_LINE_00193", "length_m": 5.46, "mean_confidence": 1.0, "num_vertices": 2, "is_ground_truth": true, "status": "Ground Truth"}, "geometry": {"type": "LineString", "coordinates": [[6.017467837871398, 51.18600058064027], [6.017445736280058, 51.18595350825846]]}}, {"id": "193", "type": "Feature", "properties": {"line_id": "CAD_LINE_00194", "length_m": 3.132, "mean_confidence": 1.0, "num_vertices": 2, "is_ground_truth": true, "status": "Ground Truth"}, "geometry": {"type": "LineString", "coordinates": [[6.017474499966559, 51.18622526963497], [6.01745270690187, 51.18620066809406]]}}, {"id": "194", "type": "Feature", "properties": {"line_id": "CAD_LINE_00195", "length_m": 3.64, "mean_confidence": 1.0, "num_vertices": 2, "is_ground_truth": true, "status": "Ground Truth"}, "geometry": {"type": "LineString", "coordinates": [[6.017459684990366, 51.185146669341776], [6.017444950873279, 51.18511528775218]]}}, {"id": "195", "type": "Feature", "properties": {"line_id": "CAD_LINE_00196", "length_m": 8.86, "mean_confidence": 1.0, "num_vertices": 3, "is_ground_truth": true, "status": "Ground Truth"}, "geometry": {"type": "LineString", "coordinates": [[6.01745291362964, 51.185695035415435], [6.017527815007161, 51.18568114555838], [6.017574173683831, 51.185671905027306]]}}, {"id": "196", "type": "Feature", "properties": {"line_id": "CAD_LINE_00197", "length_m": 3.881, "mean_confidence": 1.0, "num_vertices": 2, "is_ground_truth": true, "status": "Ground Truth"}, "geometry": {"type": "LineString", "coordinates": [[6.0174817553391176, 51.18519149463854], [6.017466990328367, 51.18515786596785]]}}, {"id": "197", "type": "Feature", "properties": {"line_id": "CAD_LINE_00198", "length_m": 3.64, "mean_confidence": 1.0, "num_vertices": 2, "is_ground_truth": true, "status": "Ground Truth"}, "geometry": {"type": "LineString", "coordinates": [[6.017481183342587, 51.18593084344925], [6.017531117849905, 51.185921583537386]]}}, {"id": "198", "type": "Feature", "properties": {"line_id": "CAD_LINE_00199", "length_m": 2.85, "mean_confidence": 1.0, "num_vertices": 2, "is_ground_truth": true, "status": "Ground Truth"}, "geometry": {"type": "LineString", "coordinates": [[6.017491102665703, 51.185611679940166], [6.017480036514371, 51.18558702020964]]}}, {"id": "199", "type": "Feature", "properties": {"line_id": "CAD_LINE_00200", "length_m": 3.64, "mean_confidence": 1.0, "num_vertices": 2, "is_ground_truth": true, "status": "Ground Truth"}, "geometry": {"type": "LineString", "coordinates": [[6.017500913177443, 51.18606557149515], [6.017486178734506, 51.18603418991206]]}}, {"id": "200", "type": "Feature", "properties": {"line_id": "CAD_LINE_00201", "length_m": 21.507, "mean_confidence": 1.0, "num_vertices": 4, "is_ground_truth": true, "status": "Ground Truth"}, "geometry": {"type": "LineString", "coordinates": [[6.017496565939365, 51.18600941379538], [6.01753936481252, 51.1860013162176], [6.017585723809949, 51.18599207568149], [6.017788960269279, 51.18594939860905]]}}, {"id": "201", "type": "Feature", "properties": {"line_id": "CAD_LINE_00202", "length_m": 4.67, "mean_confidence": 1.0, "num_vertices": 2, "is_ground_truth": true, "status": "Ground Truth"}, "geometry": {"type": "LineString", "coordinates": [[6.017497919140993, 51.18584760435507], [6.017562124935871, 51.18583601975312]]}}, {"id": "202", "type": "Feature", "properties": {"line_id": "CAD_LINE_00203", "length_m": 3.64, "mean_confidence": 1.0, "num_vertices": 2, "is_ground_truth": true, "status": "Ground Truth"}, "geometry": {"type": "LineString", "coordinates": [[6.017513142403896, 51.18565425814608], [6.017498408085855, 51.18562287656402]]}}, {"id": "203", "type": "Feature", "properties": {"line_id": "CAD_LINE_00204", "length_m": 6.882, "mean_confidence": 1.0, "num_vertices": 3, "is_ground_truth": true, "status": "Ground Truth"}, "geometry": {"type": "LineString", "coordinates": [[6.017508990346102, 51.18613294521583], [6.01752910365277, 51.18616542123938], [6.0175701148717184, 51.18615733334959]]}}, {"id": "204", "type": "Feature", "properties": {"line_id": "CAD_LINE_00205", "length_m": 2.85, "mean_confidence": 1.0, "num_vertices": 2, "is_ground_truth": true, "status": "Ground Truth"}, "geometry": {"type": "LineString", "coordinates": [[6.017518410613429, 51.18551714722908], [6.017507344470447, 51.18549248750112]]}}, {"id": "205", "type": "Feature", "properties": {"line_id": "CAD_LINE_00206", "length_m": 4.743, "mean_confidence": 1.0, "num_vertices": 2, "is_ground_truth": true, "status": "Ground Truth"}, "geometry": {"type": "LineString", "coordinates": [[6.017507277782561, 51.18522731219697], [6.017571451838813, 51.18521348050718]]}}, {"id": "206", "type": "Feature", "properties": {"line_id": "CAD_LINE_00207", "length_m": 8.469, "mean_confidence": 1.0, "num_vertices": 3, "is_ground_truth": true, "status": "Ground Truth"}, "geometry": {"type": "LineString", "coordinates": [[6.017519892228512, 51.18562500725783], [6.017567992318697, 51.185612386404074], [6.017547755755018, 51.185570922050736]]}}, {"id": "207", "type": "Feature", "properties": {"line_id": "CAD_LINE_00208", "length_m": 3.64, "mean_confidence": 1.0, "num_vertices": 2, "is_ground_truth": true, "status": "Ground Truth"}, "geometry": {"type": "LineString", "coordinates": [[6.017540450331165, 51.18555972542998], [6.017525716025091, 51.185528343851274]]}}, {"id": "208", "type": "Feature", "properties": {"line_id": "CAD_LINE_00209", "length_m": 4.138, "mean_confidence": 1.0, "num_vertices": 2, "is_ground_truth": true, "status": "Ground Truth"}, "geometry": {"type": "LineString", "coordinates": [[6.017560098107792, 51.18620907447935], [6.017534605942235, 51.18617550401822]]}}, {"id": "209", "type": "Feature", "properties": {"line_id": "CAD_LINE_00210", "length_m": 5.852, "mean_confidence": 1.0, "num_vertices": 2, "is_ground_truth": true, "status": "Ground Truth"}, "geometry": {"type": "LineString", "coordinates": [[6.017530958410486, 51.185649666984446], [6.017609373494171, 51.185631263508064]]}}, {"id": "210", "type": "Feature", "properties": {"line_id": "CAD_LINE_00211", "length_m": 2.61, "mean_confidence": 1.0, "num_vertices": 2, "is_ground_truth": true, "status": "Ground Truth"}, "geometry": {"type": "LineString", "coordinates": [[6.017552123460108, 51.18510796456156], [6.017541088266249, 51.185085551920395]]}}, {"id": "211", "type": "Feature", "properties": {"line_id": "CAD_LINE_00212", "length_m": 9.25, "mean_confidence": 1.0, "num_vertices": 2, "is_ground_truth": true, "status": "Ground Truth"}, "geometry": {"type": "LineString", "coordinates": [[6.017607083494875, 51.18520429816382], [6.017563096927298, 51.18512588303378]]}}, {"id": "212", "type": "Feature", "properties": {"line_id": "CAD_LINE_00213", "length_m": 3.64, "mean_confidence": 1.0, "num_vertices": 2, "is_ground_truth": true, "status": "Ground Truth"}, "geometry": {"type": "LineString", "coordinates": [[6.017585512334278, 51.185456107369745], [6.0175707780309855, 51.18542472579664]]}}, {"id": "213", "type": "Feature", "properties": {"line_id": "CAD_LINE_00214", "length_m": 4.981, "mean_confidence": 1.0, "num_vertices": 2, "is_ground_truth": true, "status": "Ground Truth"}, "geometry": {"type": "LineString", "coordinates": [[6.017590636823704, 51.18582912329785], [6.0176583872561284, 51.18581527215792]]}}, {"id": "214", "type": "Feature", "properties": {"line_id": "CAD_LINE_00215", "length_m": 5.46, "mean_confidence": 1.0, "num_vertices": 2, "is_ground_truth": true, "status": "Ground Truth"}, "geometry": {"type": "LineString", "coordinates": [[6.0175939400095135, 51.18606956127362], [6.017668841954663, 51.186055671324866]]}}, {"id": "215", "type": "Feature", "properties": {"line_id": "CAD_LINE_00216", "length_m": 10.759, "mean_confidence": 1.0, "num_vertices": 4, "is_ground_truth": true, "status": "Ground Truth"}, "geometry": {"type": "LineString", "coordinates": [[6.017591768157679, 51.18539090313461], [6.017630990910461, 51.18538282492478], [6.0176720168497875, 51.18537586054203], [6.017695828968689, 51.18541730546986]]}}, {"id": "216", "type": "Feature", "properties": {"line_id": "CAD_LINE_00217", "length_m": 3.64, "mean_confidence": 1.0, "num_vertices": 2, "is_ground_truth": true, "status": "Ground Truth"}, "geometry": {"type": "LineString", "coordinates": [[6.017607552084652, 51.18549868555787], [6.017592817752511, 51.185467303987686]]}}, {"id": "217", "type": "Feature", "properties": {"line_id": "CAD_LINE_00218", "length_m": 3.092, "mean_confidence": 1.0, "num_vertices": 2, "is_ground_truth": true, "status": "Ground Truth"}, "geometry": {"type": "LineString", "coordinates": [[6.0176131398372, 51.185905407742595], [6.017655954029682, 51.18589843366398]]}}, {"id": "218", "type": "Feature", "properties": {"line_id": "CAD_LINE_00219", "length_m": 12.649, "mean_confidence": 1.0, "num_vertices": 3, "is_ground_truth": true, "status": "Ground Truth"}, "geometry": {"type": "LineString", "coordinates": [[6.01762001873471, 51.186145826315304], [6.01766993801003, 51.18613544280154], [6.017791152795281, 51.18610894155973]]}}, {"id": "219", "type": "Feature", "properties": {"line_id": "CAD_LINE_00220", "length_m": 3.64, "mean_confidence": 1.0, "num_vertices": 2, "is_ground_truth": true, "status": "Ground Truth"}, "geometry": {"type": "LineString", "coordinates": [[6.017629591876067, 51.18554126374175], [6.017614857515077, 51.18550988217444]]}}, {"id": "220", "type": "Feature", "properties": {"line_id": "CAD_LINE_00221", "length_m": 3.64, "mean_confidence": 1.0, "num_vertices": 2, "is_ground_truth": true, "status": "Ground Truth"}, "geometry": {"type": "LineString", "coordinates": [[6.017635401642707, 51.186224396642125], [6.017685336437739, 51.18621513666356]]}}, {"id": "221", "type": "Feature", "properties": {"line_id": "CAD_LINE_00222", "length_m": 2.85, "mean_confidence": 1.0, "num_vertices": 2, "is_ground_truth": true, "status": "Ground Truth"}, "geometry": {"type": "LineString", "coordinates": [[6.0176396701647485, 51.18549401677336], [6.017628603962298, 51.18546935705704]]}}, {"id": "222", "type": "Feature", "properties": {"line_id": "CAD_LINE_00223", "length_m": 4.272, "mean_confidence": 1.0, "num_vertices": 2, "is_ground_truth": true, "status": "Ground Truth"}, "geometry": {"type": "LineString", "coordinates": [[6.017631228116124, 51.18566035918804], [6.017688251644276, 51.18564656623691]]}}, {"id": "223", "type": "Feature", "properties": {"line_id": "CAD_LINE_00224", "length_m": 3.64, "mean_confidence": 1.0, "num_vertices": 2, "is_ground_truth": true, "status": "Ground Truth"}, "geometry": {"type": "LineString", "coordinates": [[6.0176617099836704, 51.18553659495108], [6.017646975602252, 51.18550521338791]]}}, {"id": "224", "type": "Feature", "properties": {"line_id": "CAD_LINE_00225", "length_m": 18.745, "mean_confidence": 1.0, "num_vertices": 5, "is_ground_truth": true, "status": "Ground Truth"}, "geometry": {"type": "LineString", "coordinates": [[6.017664396028768, 51.18573209124858], [6.017726798404419, 51.18571939271553], [6.017704727560506, 51.18567456746671], [6.017743935096395, 51.1856653656765], [6.017775022054659, 51.18571576011144]]}}, {"id": "225", "type": "Feature", "properties": {"line_id": "CAD_LINE_00226", "length_m": 2.61, "mean_confidence": 1.0, "num_vertices": 2, "is_ground_truth": true, "status": "Ground Truth"}, "geometry": {"type": "LineString", "coordinates": [[6.017670115149689, 51.18510732431465], [6.017659079898418, 51.18508491168476]]}}, {"id": "226", "type": "Feature", "properties": {"line_id": "CAD_LINE_00227", "length_m": 4.191, "mean_confidence": 1.0, "num_vertices": 2, "is_ground_truth": true, "status": "Ground Truth"}, "geometry": {"type": "LineString", "coordinates": [[6.017703128341506, 51.185167820946184], [6.017684756793902, 51.185131964623714]]}}, {"id": "227", "type": "Feature", "properties": {"line_id": "CAD_LINE_00228", "length_m": 2.61, "mean_confidence": 1.0, "num_vertices": 2, "is_ground_truth": true, "status": "Ground Truth"}, "geometry": {"type": "LineString", "coordinates": [[6.017703152644458, 51.18621054547527], [6.017738815925467, 51.18620361017434]]}}, {"id": "228", "type": "Feature", "properties": {"line_id": "CAD_LINE_00229", "length_m": 3.64, "mean_confidence": 1.0, "num_vertices": 2, "is_ground_truth": true, "status": "Ground Truth"}, "geometry": {"type": "LineString", "coordinates": [[6.017717868802521, 51.18545988363699], [6.017703134407585, 51.18542850208086]]}}, {"id": "229", "type": "Feature", "properties": {"line_id": "CAD_LINE_00230", "length_m": 3.4, "mean_confidence": 1.0, "num_vertices": 2, "is_ground_truth": true, "status": "Ground Truth"}, "geometry": {"type": "LineString", "coordinates": [[6.017708290725291, 51.185803765086305], [6.01775464948906, 51.1857945244831]]}}, {"id": "230", "type": "Feature", "properties": {"line_id": "CAD_LINE_00231", "length_m": 5.46, "mean_confidence": 1.0, "num_vertices": 2, "is_ground_truth": true, "status": "Ground Truth"}, "geometry": {"type": "LineString", "coordinates": [[6.017713008722572, 51.18588688778419], [6.0177879103334915, 51.185872997759155]]}}, {"id": "231", "type": "Feature", "properties": {"line_id": "CAD_LINE_00232", "length_m": 2.85, "mean_confidence": 1.0, "num_vertices": 2, "is_ground_truth": true, "status": "Ground Truth"}, "geometry": {"type": "LineString", "coordinates": [[6.01772149991792, 51.1852036772656], [6.017710433742212, 51.185179017556834]]}}, {"id": "232", "type": "Feature", "properties": {"line_id": "CAD_LINE_00233", "length_m": 3.64, "mean_confidence": 1.0, "num_vertices": 2, "is_ground_truth": true, "status": "Ground Truth"}, "geometry": {"type": "LineString", "coordinates": [[6.017739908677394, 51.185502461799835], [6.01772517425361, 51.185471080246614]]}}, {"id": "233", "type": "Feature", "properties": {"line_id": "CAD_LINE_00234", "length_m": 3.162, "mean_confidence": 1.0, "num_vertices": 2, "is_ground_truth": true, "status": "Ground Truth"}, "geometry": {"type": "LineString", "coordinates": [[6.017736048988762, 51.1852215763164], [6.01777883164558, 51.185212355109684]]}}, {"id": "234", "type": "Feature", "properties": {"line_id": "CAD_LINE_00235", "length_m": 3.64, "mean_confidence": 1.0, "num_vertices": 2, "is_ground_truth": true, "status": "Ground Truth"}, "geometry": {"type": "LineString", "coordinates": [[6.017761948593314, 51.185545039958434], [6.017747214140678, 51.18551365840804]]}}, {"id": "235", "type": "Feature", "properties": {"line_id": "CAD_LINE_00236", "length_m": 6.329, "mean_confidence": 1.0, "num_vertices": 3, "is_ground_truth": true, "status": "Ground Truth"}, "geometry": {"type": "LineString", "coordinates": [[6.017781765202158, 51.18542582807595], [6.017765304768355, 51.18539895039875], [6.017752419880156, 51.18537205331346]]}}, {"id": "236", "type": "Feature", "properties": {"line_id": "CAD_LINE_00237", "length_m": 2.693, "mean_confidence": 1.0, "num_vertices": 2, "is_ground_truth": true, "status": "Ground Truth"}, "geometry": {"type": "LineString", "coordinates": [[6.017773817751552, 51.18562812384176], [6.017759206778917, 51.185605730628396]]}}]}