{"type": "FeatureCollection", "features": [{"id": "0", "type": "Feature", "properties": {"line_id": "CAD_LINE_00001", "length_m": 59.042, "mean_confidence": 1.0, "num_vertices": 10, "is_ground_truth": true, "status": "Ground Truth"}, "geometry": {"type": "LineString", "coordinates": [[6.0091193244084025, 50.815723169106555], [6.009190324730667, 50.815727281414794], [6.009197358455164, 50.815722749058274], [6.009222232681781, 50.815725986021576], [6.009321578891681, 50.815727698401105], [6.00937479900168, 50.81572853545914], [6.009463489138027, 50.81572918147345], [6.00967633944147, 50.81573028221322], [6.0097756856756765, 50.815731994202366], [6.009953081060714, 50.81573440908945]]}}, {"id": "1", "type": "Feature", "properties": {"line_id": "CAD_LINE_00002", "length_m": 3.5, "mean_confidence": 1.0, "num_vertices": 2, "is_ground_truth": true, "status": "Ground Truth"}, "geometry": {"type": "LineString", "coordinates": [[6.009122338065742, 50.815947877517225], [6.009171996336222, 50.815947610218146]]}}, {"id": "2", "type": "Feature", "properties": {"line_id": "CAD_LINE_00003", "length_m": 3.25, "mean_confidence": 1.0, "num_vertices": 2, "is_ground_truth": true, "status": "Ground Truth"}, "geometry": {"type": "LineString", "coordinates": [[6.009123814770188, 50.81605798463898], [6.009169926130815, 50.81605773643265]]}}, {"id": "3", "type": "Feature", "properties": {"line_id": "CAD_LINE_00004", "length_m": 2.75, "mean_confidence": 1.0, "num_vertices": 2, "is_ground_truth": true, "status": "Ground Truth"}, "geometry": {"type": "LineString", "coordinates": [[6.009125351756911, 50.81617258592935], [6.009164369158479, 50.816172375909105]]}}, {"id": "4", "type": "Feature", "properties": {"line_id": "CAD_LINE_00005", "length_m": 2.5, "mean_confidence": 1.0, "num_vertices": 2, "is_ground_truth": true, "status": "Ground Truth"}, "geometry": {"type": "LineString", "coordinates": [[6.009126858615183, 50.81628494013596], [6.009162329066168, 50.81628474920839]]}}, {"id": "5", "type": "Feature", "properties": {"line_id": "CAD_LINE_00006", "length_m": 67.272, "mean_confidence": 1.0, "num_vertices": 8, "is_ground_truth": true, "status": "Ground Truth"}, "geometry": {"type": "LineString", "coordinates": [[6.009174025085395, 50.81636333987235], [6.009174593026128, 50.816273446960615], [6.009176633088348, 50.81616107366118], [6.009179396492202, 50.81610263038061], [6.009177020186245, 50.8160576982454], [6.009182757952776, 50.815956541273394], [6.009183054618448, 50.81584642460603], [6.009183652679164, 50.81575877877984]]}}, {"id": "6", "type": "Feature", "properties": {"line_id": "CAD_LINE_00007", "length_m": 66.823, "mean_confidence": 1.0, "num_vertices": 10, "is_ground_truth": true, "status": "Ground Truth"}, "geometry": {"type": "LineString", "coordinates": [[6.00931590712609, 50.81636257603847], [6.009316715963363, 50.816290659799066], [6.009319298318576, 50.81621873401085], [6.0093198056842665, 50.81612434693117], [6.009326477694808, 50.816092849557954], [6.0093233777294515, 50.815993987408845], [6.009324035818695, 50.81591083575003], [6.009330557062424, 50.81586810295668], [6.00932769827775, 50.81578721748062], [6.009329140168396, 50.815762490007145]]}}, {"id": "7", "type": "Feature", "properties": {"line_id": "CAD_LINE_00008", "length_m": 21.006, "mean_confidence": 1.0, "num_vertices": 4, "is_ground_truth": true, "status": "Ground Truth"}, "geometry": {"type": "LineString", "coordinates": [[6.009325975486726, 50.81631982414654], [6.0094217608485, 50.81632043199407], [6.009563672911018, 50.81632191494028], [6.009623987802215, 50.816322713670964]]}}, {"id": "8", "type": "Feature", "properties": {"line_id": "CAD_LINE_00009", "length_m": 21.002, "mean_confidence": 1.0, "num_vertices": 3, "is_ground_truth": true, "status": "Ground Truth"}, "geometry": {"type": "LineString", "coordinates": [[6.009328738711007, 50.816261380862436], [6.009389053519961, 50.816262179715835], [6.00962672048969, 50.816262023296375]]}}, {"id": "9", "type": "Feature", "properties": {"line_id": "CAD_LINE_00010", "length_m": 20.256, "mean_confidence": 1.0, "num_vertices": 4, "is_ground_truth": true, "status": "Ground Truth"}, "geometry": {"type": "LineString", "coordinates": [[6.009331140163761, 50.81617597256963], [6.009391454861687, 50.816176771422015], [6.009533366483853, 50.81617825440619], [6.009618510445057, 50.816178919404685]]}}, {"id": "10", "type": "Feature", "properties": {"line_id": "CAD_LINE_00011", "length_m": 21.256, "mean_confidence": 1.0, "num_vertices": 4, "is_ground_truth": true, "status": "Ground Truth"}, "geometry": {"type": "LineString", "coordinates": [[6.009332818079013, 50.816036634259895], [6.009393132595772, 50.81603743311165], [6.009535043791669, 50.81603891609449], [6.009634375601432, 50.81603950466204]]}}, {"id": "11", "type": "Feature", "properties": {"line_id": "CAD_LINE_00012", "length_m": 20.256, "mean_confidence": 1.0, "num_vertices": 4, "is_ground_truth": true, "status": "Ground Truth"}, "geometry": {"type": "LineString", "coordinates": [[6.0093335717554375, 50.8160928113611], [6.009393886345262, 50.8160936102124], [6.009535797713057, 50.816095093194015], [6.00962094152163, 50.81609575819097]]}}, {"id": "12", "type": "Feature", "properties": {"line_id": "CAD_LINE_00013", "length_m": 21.256, "mean_confidence": 1.0, "num_vertices": 3, "is_ground_truth": true, "status": "Ground Truth"}, "geometry": {"type": "LineString", "coordinates": [[6.009336867265103, 50.8158096405748], [6.009578109083996, 50.81581171224467], [6.009638423311955, 50.81581251096892]]}}, {"id": "13", "type": "Feature", "properties": {"line_id": "CAD_LINE_00014", "length_m": 20.256, "mean_confidence": 1.0, "num_vertices": 4, "is_ground_truth": true, "status": "Ground Truth"}, "geometry": {"type": "LineString", "coordinates": [[6.009345890720394, 50.81595341575549], [6.009431034266771, 50.81595408089279], [6.009572945208664, 50.81595556382957], [6.009633259623604, 50.81595636255618]]}}, {"id": "14", "type": "Feature", "properties": {"line_id": "CAD_LINE_00015", "length_m": 20.256, "mean_confidence": 1.0, "num_vertices": 4, "is_ground_truth": true, "status": "Ground Truth"}, "geometry": {"type": "LineString", "coordinates": [[6.009348322275657, 50.81587025454732], [6.009433465669408, 50.81587091968305], [6.009575376356932, 50.81587240261729], [6.00963569066377, 50.81587320134284]]}}, {"id": "15", "type": "Feature", "properties": {"line_id": "CAD_LINE_00016", "length_m": 69.635, "mean_confidence": 1.0, "num_vertices": 11, "is_ground_truth": true, "status": "Ground Truth"}, "geometry": {"type": "LineString", "coordinates": [[6.009631594647209, 50.816360875883234], [6.009638592224201, 50.816221508908065], [6.009636275790559, 50.81618107095082], [6.00964279678349, 50.81613833813987], [6.009643635273604, 50.81606866898354], [6.009640353663029, 50.81595632434056], [6.009646874621487, 50.81591359152977], [6.009642784690472, 50.815873163127065], [6.009649456446218, 50.815841665735896], [6.009645517329373, 50.81581247275296], [6.0096515858300465, 50.815736033683386]]}}, {"id": "16", "type": "Feature", "properties": {"line_id": "CAD_LINE_00017", "length_m": 20.788, "mean_confidence": 1.0, "num_vertices": 8, "is_ground_truth": true, "status": "Ground Truth"}, "geometry": {"type": "LineString", "coordinates": [[6.009759582035009, 50.81558938082367], [6.009748880726664, 50.815584943990046], [6.009716942722643, 50.81558399244456], [6.0096850047198975, 50.81558304089032], [6.00967427325696, 50.81557635696585], [6.009680733805363, 50.815529129986004], [6.009679979720567, 50.81547295288873], [6.009672553962249, 50.815448273183904]]}}, {"id": "17", "type": "Feature", "properties": {"line_id": "CAD_LINE_00018", "length_m": 69.339, "mean_confidence": 1.0, "num_vertices": 9, "is_ground_truth": true, "status": "Ground Truth"}, "geometry": {"type": "LineString", "coordinates": [[6.009688347457152, 50.816360570145946], [6.0096949287562245, 50.816322331499734], [6.009690084632625, 50.81622572599984], [6.009696605582072, 50.8161829931859], [6.009696870862364, 50.816070629434606], [6.009696593180345, 50.815917818173226], [6.009703114081716, 50.81587508535941], [6.009700948433798, 50.815845882823496], [6.009701274034326, 50.815738013241194]]}}, {"id": "18", "type": "Feature", "properties": {"line_id": "CAD_LINE_00019", "length_m": 14.259, "mean_confidence": 1.0, "num_vertices": 3, "is_ground_truth": true, "status": "Ground Truth"}, "geometry": {"type": "LineString", "coordinates": [[6.009686651394642, 50.81544145549595], [6.009825028879819, 50.81544408077698], [6.009888889613898, 50.815444860257756]]}}, {"id": "19", "type": "Feature", "properties": {"line_id": "CAD_LINE_00020", "length_m": 14.253, "mean_confidence": 1.0, "num_vertices": 3, "is_ground_truth": true, "status": "Ground Truth"}, "geometry": {"type": "LineString", "coordinates": [[6.009687073686011, 50.815472914670366], [6.00982542109467, 50.81547329286688], [6.0098892818689755, 50.8154740723474]]}}, {"id": "20", "type": "Feature", "properties": {"line_id": "CAD_LINE_00021", "length_m": 14.253, "mean_confidence": 1.0, "num_vertices": 3, "is_ground_truth": true, "status": "Ground Truth"}, "geometry": {"type": "LineString", "coordinates": [[6.0096874658143085, 50.81550212676091], [6.009825813310094, 50.81550250495682], [6.009889674124625, 50.815503284437014]]}}, {"id": "21", "type": "Feature", "properties": {"line_id": "CAD_LINE_00022", "length_m": 34.823, "mean_confidence": 1.0, "num_vertices": 6, "is_ground_truth": true, "status": "Ground Truth"}, "geometry": {"type": "LineString", "coordinates": [[6.009687827779397, 50.81552909176755], [6.009890066380844, 50.81553249652667], [6.009897522442467, 50.81555942330122], [6.009954319534615, 50.81556248806071], [6.010085588324024, 50.81556402772205], [6.010145902237516, 50.815564826182005]]}}, {"id": "22", "type": "Feature", "properties": {"line_id": "CAD_LINE_00023", "length_m": 19.007, "mean_confidence": 1.0, "num_vertices": 4, "is_ground_truth": true, "status": "Ground Truth"}, "geometry": {"type": "LineString", "coordinates": [[6.0097012687239895, 50.816266116181744], [6.009761583544688, 50.81626691484071], [6.009903495452551, 50.816268397369946], [6.009970904366156, 50.816269157687415]]}}, {"id": "23", "type": "Feature", "properties": {"line_id": "CAD_LINE_00024", "length_m": 19.007, "mean_confidence": 1.0, "num_vertices": 4, "is_ground_truth": true, "status": "Ground Truth"}, "geometry": {"type": "LineString", "coordinates": [[6.009703699656089, 50.816182954966315], [6.009764014368683, 50.8161837536242], [6.009905926022172, 50.8161852361509], [6.009973334814953, 50.816185996467134]]}}, {"id": "24", "type": "Feature", "properties": {"line_id": "CAD_LINE_00025", "length_m": 18.752, "mean_confidence": 1.0, "num_vertices": 3, "is_ground_truth": true, "status": "Ground Truth"}, "geometry": {"type": "LineString", "coordinates": [[6.009706130580105, 50.81609979375106], [6.009766445184594, 50.81610059240789], [6.009972188046891, 50.81610060728139]]}}, {"id": "25", "type": "Feature", "properties": {"line_id": "CAD_LINE_00026", "length_m": 19.002, "mean_confidence": 1.0, "num_vertices": 3, "is_ground_truth": true, "status": "Ground Truth"}, "geometry": {"type": "LineString", "coordinates": [[6.009707777201991, 50.815958208354175], [6.009775185662072, 50.81595896878656], [6.009977380876404, 50.81595900276387]]}}, {"id": "26", "type": "Feature", "properties": {"line_id": "CAD_LINE_00027", "length_m": 18.757, "mean_confidence": 1.0, "num_vertices": 4, "is_ground_truth": true, "status": "Ground Truth"}, "geometry": {"type": "LineString", "coordinates": [[6.009708893313442, 50.81604135045911], [6.009769207841974, 50.816042149114594], [6.009911119062355, 50.81604363163564], [6.00997498062315, 50.81604441106747]]}}, {"id": "27", "type": "Feature", "properties": {"line_id": "CAD_LINE_00028", "length_m": 19.007, "mean_confidence": 1.0, "num_vertices": 4, "is_ground_truth": true, "status": "Ground Truth"}, "geometry": {"type": "LineString", "coordinates": [[6.009710208108636, 50.81587504713949], [6.009777616447892, 50.81587580757064], [6.009919527159573, 50.815877290082206], [6.009979841477925, 50.81587808862817]]}}, {"id": "28", "type": "Feature", "properties": {"line_id": "CAD_LINE_00029", "length_m": 18.757, "mean_confidence": 1.0, "num_vertices": 4, "is_ground_truth": true, "status": "Ground Truth"}, "geometry": {"type": "LineString", "coordinates": [[6.009712970824654, 50.81581660384788], [6.009776832070007, 50.8158173833897], [6.009918742602916, 50.815818865902564], [6.009979056845284, 50.815819664449045]]}}, {"id": "29", "type": "Feature", "properties": {"line_id": "CAD_LINE_00030", "length_m": 16.758, "mean_confidence": 1.0, "num_vertices": 4, "is_ground_truth": true, "status": "Ground Truth"}, "geometry": {"type": "LineString", "coordinates": [[6.009730429399242, 50.8163243874817], [6.009797838391812, 50.81632514789997], [6.00990428000002, 50.8163268215506], [6.009968141950625, 50.816327600985524]]}}, {"id": "30", "type": "Feature", "properties": {"line_id": "CAD_LINE_00031", "length_m": 35.745, "mean_confidence": 1.0, "num_vertices": 4, "is_ground_truth": true, "status": "Ground Truth"}, "geometry": {"type": "LineString", "coordinates": [[6.009721940205485, 50.81542778189447], [6.009757244079018, 50.815415231824204], [6.009986711246046, 50.815333094334456], [6.010165018279499, 50.815271457452546]]}}, {"id": "31", "type": "Feature", "properties": {"line_id": "CAD_LINE_00032", "length_m": 3.351, "mean_confidence": 1.0, "num_vertices": 3, "is_ground_truth": true, "status": "Ground Truth"}, "geometry": {"type": "LineString", "coordinates": [[6.009784863504022, 50.81562295329817], [6.009784652324193, 50.815607223711126], [6.009770313513224, 50.815596064740184]]}}, {"id": "32", "type": "Feature", "properties": {"line_id": "CAD_LINE_00033", "length_m": 70.914, "mean_confidence": 1.0, "num_vertices": 12, "is_ground_truth": true, "status": "Ground Truth"}, "geometry": {"type": "LineString", "coordinates": [[6.009788651848111, 50.8156409108567], [6.009905717785299, 50.815641403628945], [6.009976687872165, 50.81564326837037], [6.0100831279213, 50.815644941858864], [6.010150505745045, 50.81564345498931], [6.010155313067503, 50.81560522588041], [6.010157984648344, 50.81554004132847], [6.010155215002663, 50.81546589712728], [6.0101680747033415, 50.81536694894821], [6.0101656974805, 50.81532201683598], [6.0101685954334, 50.815273685412215], [6.010219769848523, 50.815254307890704]]}}, {"id": "33", "type": "Feature", "properties": {"line_id": "CAD_LINE_00034", "length_m": 17.253, "mean_confidence": 1.0, "num_vertices": 3, "is_ground_truth": true, "status": "Ground Truth"}, "geometry": {"type": "LineString", "coordinates": [[6.009903349103059, 50.81546500754923], [6.009956568921003, 50.81546584433989], [6.010148121038802, 50.81546593537445]]}}, {"id": "34", "type": "Feature", "properties": {"line_id": "CAD_LINE_00035", "length_m": 17.252, "mean_confidence": 1.0, "num_vertices": 3, "is_ground_truth": true, "status": "Ground Truth"}, "geometry": {"type": "LineString", "coordinates": [[6.0099040129354675, 50.81551444339312], [6.0100884712828595, 50.815514572757905], [6.0101487851320865, 50.81551537121645]]}}, {"id": "35", "type": "Feature", "properties": {"line_id": "CAD_LINE_00036", "length_m": 17.253, "mean_confidence": 1.0, "num_vertices": 3, "is_ground_truth": true, "status": "Ground Truth"}, "geometry": {"type": "LineString", "coordinates": [[6.009906262424767, 50.81541779967329], [6.009959482188591, 50.81541863646265], [6.010151034111429, 50.81541872749268]]}}, {"id": "36", "type": "Feature", "properties": {"line_id": "CAD_LINE_00037", "length_m": 81.288, "mean_confidence": 1.0, "num_vertices": 14, "is_ground_truth": true, "status": "Ground Truth"}, "geometry": {"type": "LineString", "coordinates": [[6.0101244535408, 50.816344736356925], [6.010122944263636, 50.81623238216728], [6.010129464815112, 50.81618964932955], [6.0101253442526845, 50.816146973860576], [6.0101318346045, 50.81610199393908], [6.010127925346893, 50.81607504805672], [6.010134626987408, 50.816045797721664], [6.010133744150028, 50.81584804478869], [6.010136204473719, 50.815767130650386], [6.010141374051415, 50.81575586654682], [6.010160686359262, 50.815741155322826], [6.010137555375501, 50.815735661916264], [6.0100133951937735, 50.81573520761822], [6.009970846251184, 50.815736560584455]]}}, {"id": "37", "type": "Feature", "properties": {"line_id": "CAD_LINE_00038", "length_m": 67.031, "mean_confidence": 1.0, "num_vertices": 6, "is_ground_truth": true, "status": "Ground Truth"}, "geometry": {"type": "LineString", "coordinates": [[6.009979205594496, 50.81635900280481], [6.0099801642962625, 50.81629832198174], [6.009979282108006, 50.81610056904489], [6.009988746225073, 50.81601287542026], [6.009989252228058, 50.81591848834062], [6.009988852871624, 50.81575668874708]]}}, {"id": "38", "type": "Feature", "properties": {"line_id": "CAD_LINE_00039", "length_m": 21.506, "mean_confidence": 1.0, "num_vertices": 4, "is_ground_truth": true, "status": "Ground Truth"}, "geometry": {"type": "LineString", "coordinates": [[6.010134128733371, 50.816272772306654], [6.010194443569212, 50.81627357073969], [6.010336355509009, 50.8162750527374], [6.010439234875381, 50.81627562148293]]}}, {"id": "39", "type": "Feature", "properties": {"line_id": "CAD_LINE_00040", "length_m": 21.253, "mean_confidence": 1.0, "num_vertices": 3, "is_ground_truth": true, "status": "Ground Truth"}, "geometry": {"type": "LineString", "coordinates": [[6.010134913571424, 50.81633119648521], [6.010383222029596, 50.81633098113957], [6.010436442848896, 50.81633181770755]]}}, {"id": "40", "type": "Feature", "properties": {"line_id": "CAD_LINE_00041", "length_m": 21.252, "mean_confidence": 1.0, "num_vertices": 3, "is_ground_truth": true, "status": "Ground Truth"}, "geometry": {"type": "LineString", "coordinates": [[6.010136558889675, 50.81618961108339], [6.010338755106959, 50.81618964442683], [6.010438087246757, 50.81619023230303]]}}, {"id": "41", "type": "Feature", "properties": {"line_id": "CAD_LINE_00042", "length_m": 21.252, "mean_confidence": 1.0, "num_vertices": 3, "is_ground_truth": true, "status": "Ground Truth"}, "geometry": {"type": "LineString", "coordinates": [[6.010138928665654, 50.81610195569282], [6.010199243279442, 50.81610275412375], [6.010440456452927, 50.81610257690724]]}}, {"id": "42", "type": "Feature", "properties": {"line_id": "CAD_LINE_00043", "length_m": 21.252, "mean_confidence": 1.0, "num_vertices": 3, "is_ground_truth": true, "status": "Ground Truth"}, "geometry": {"type": "LineString", "coordinates": [[6.010140604152582, 50.81596261737578], [6.010381816598072, 50.8159624402829], [6.010442131034079, 50.81596323858741]]}}, {"id": "43", "type": "Feature", "properties": {"line_id": "CAD_LINE_00044", "length_m": 21.252, "mean_confidence": 1.0, "num_vertices": 3, "is_ground_truth": true, "status": "Ground Truth"}, "geometry": {"type": "LineString", "coordinates": [[6.010141721039964, 50.8160457594752], [6.0103829339177945, 50.81604558237927], [6.010443248461934, 50.81604638068298]]}}, {"id": "44", "type": "Feature", "properties": {"line_id": "CAD_LINE_00045", "length_m": 19.257, "mean_confidence": 1.0, "num_vertices": 4, "is_ground_truth": true, "status": "Ground Truth"}, "geometry": {"type": "LineString", "coordinates": [[6.010142973911146, 50.81587496198579], [6.010242305375285, 50.81587555003142], [6.0103487459660085, 50.81587722327441], [6.0104161543173085, 50.815877983333124]]}}, {"id": "45", "type": "Feature", "properties": {"line_id": "CAD_LINE_00046", "length_m": 21.252, "mean_confidence": 1.0, "num_vertices": 3, "is_ground_truth": true, "status": "Ground Truth"}, "geometry": {"type": "LineString", "coordinates": [[6.010145796454274, 50.81582101285228], [6.010245127802904, 50.81582160089565], [6.010447322415281, 50.815821634051915]]}}, {"id": "46", "type": "Feature", "properties": {"line_id": "CAD_LINE_00047", "length_m": 39.033, "mean_confidence": 1.0, "num_vertices": 6, "is_ground_truth": true, "status": "Ground Truth"}, "geometry": {"type": "LineString", "coordinates": [[6.010730025614428, 50.81574145516534], [6.010527831353458, 50.81574142250311], [6.01045690639751, 50.815742928725875], [6.010396546950324, 50.81573875980311], [6.010268839756256, 50.81573832491052], [6.010176602591151, 50.81573769863872]]}}, {"id": "47", "type": "Feature", "properties": {"line_id": "CAD_LINE_00048", "length_m": 62.039, "mean_confidence": 1.0, "num_vertices": 8, "is_ground_truth": true, "status": "Ground Truth"}, "geometry": {"type": "LineString", "coordinates": [[6.0102106685843255, 50.81536896653553], [6.010320639888919, 50.81536949713914], [6.010508659734318, 50.81537073024729], [6.010618600836562, 50.815369013483796], [6.010623015029881, 50.81530157227018], [6.010627761510443, 50.81525884897562], [6.0108299536672245, 50.81525888146665], [6.010925767076031, 50.81526173515487]]}}, {"id": "48", "type": "Feature", "properties": {"line_id": "CAD_LINE_00049", "length_m": 3.579, "mean_confidence": 1.0, "num_vertices": 2, "is_ground_truth": true, "status": "Ground Truth"}, "geometry": {"type": "LineString", "coordinates": [[6.010240961071734, 50.815247451884], [6.010286890463439, 50.81523372073136]]}}, {"id": "49", "type": "Feature", "properties": {"line_id": "CAD_LINE_00050", "length_m": 2.5, "mean_confidence": 1.0, "num_vertices": 2, "is_ground_truth": true, "status": "Ground Truth"}, "geometry": {"type": "LineString", "coordinates": [[6.010275933155115, 50.81547423519456], [6.010275631233086, 50.8154517643577]]}}, {"id": "50", "type": "Feature", "properties": {"line_id": "CAD_LINE_00051", "length_m": 17.507, "mean_confidence": 1.0, "num_vertices": 3, "is_ground_truth": true, "status": "Ground Truth"}, "geometry": {"type": "LineString", "coordinates": [[6.010317184335804, 50.81564030897895], [6.010318444528296, 50.81560209899204], [6.01032216470517, 50.81548297486423]]}}, {"id": "51", "type": "Feature", "properties": {"line_id": "CAD_LINE_00052", "length_m": 23.756, "mean_confidence": 1.0, "num_vertices": 4, "is_ground_truth": true, "status": "Ground Truth"}, "geometry": {"type": "LineString", "coordinates": [[6.010391671233771, 50.815639907253164], [6.010392931364886, 50.81560169726552], [6.010395270433038, 50.81551179478856], [6.010395896399623, 50.81542639604462]]}}, {"id": "52", "type": "Feature", "properties": {"line_id": "CAD_LINE_00053", "length_m": 17.257, "mean_confidence": 1.0, "num_vertices": 4, "is_ground_truth": true, "status": "Ground Truth"}, "geometry": {"type": "LineString", "coordinates": [[6.0103915038832625, 50.81536349683371], [6.010392764007983, 50.81532528684645], [6.010395193658182, 50.815242125621175], [6.0103965141726485, 50.8152084098013]]}}, {"id": "53", "type": "Feature", "properties": {"line_id": "CAD_LINE_00054", "length_m": 4.757, "mean_confidence": 1.0, "num_vertices": 2, "is_ground_truth": true, "status": "Ground Truth"}, "geometry": {"type": "LineString", "coordinates": [[6.0104469933891265, 50.81632501905876], [6.0104499666104525, 50.81628230533604]]}}, {"id": "54", "type": "Feature", "properties": {"line_id": "CAD_LINE_00055", "length_m": 8.254, "mean_confidence": 1.0, "num_vertices": 2, "is_ground_truth": true, "status": "Ground Truth"}, "geometry": {"type": "LineString", "coordinates": [[6.010448637754627, 50.8161834336542], [6.01045118814803, 50.81610926076024]]}}, {"id": "55", "type": "Feature", "properties": {"line_id": "CAD_LINE_00056", "length_m": 8.0, "mean_confidence": 1.0, "num_vertices": 2, "is_ground_truth": true, "status": "Ground Truth"}, "geometry": {"type": "LineString", "coordinates": [[6.010449785402455, 50.81626882283394], [6.010448818961853, 50.81619691615626]]}}, {"id": "56", "type": "Feature", "properties": {"line_id": "CAD_LINE_00057", "length_m": 4.757, "mean_confidence": 1.0, "num_vertices": 2, "is_ground_truth": true, "status": "Ground Truth"}, "geometry": {"type": "LineString", "coordinates": [[6.010451006940568, 50.81609577825822], [6.010453980144404, 50.816053064535744]]}}, {"id": "57", "type": "Feature", "properties": {"line_id": "CAD_LINE_00058", "length_m": 7.754, "mean_confidence": 1.0, "num_vertices": 2, "is_ground_truth": true, "status": "Ground Truth"}, "geometry": {"type": "LineString", "coordinates": [[6.01045268148987, 50.81595643993835], [6.010455292268392, 50.81588676121217]]}}, {"id": "58", "type": "Feature", "properties": {"line_id": "CAD_LINE_00059", "length_m": 7.75, "mean_confidence": 1.0, "num_vertices": 2, "is_ground_truth": true, "status": "Ground Truth"}, "geometry": {"type": "LineString", "coordinates": [[6.0104537989364175, 50.81603958203373], [6.010452862697102, 50.81596992244029]]}}, {"id": "59", "type": "Feature", "properties": {"line_id": "CAD_LINE_00060", "length_m": 20.502, "mean_confidence": 1.0, "num_vertices": 3, "is_ground_truth": true, "status": "Ground Truth"}, "geometry": {"type": "LineString", "coordinates": [[6.010457725136773, 50.81633170291112], [6.010518040054099, 50.81633250117521], [6.01074861327469, 50.81633238071773]]}}, {"id": "60", "type": "Feature", "properties": {"line_id": "CAD_LINE_00061", "length_m": 21.502, "mean_confidence": 1.0, "num_vertices": 3, "is_ground_truth": true, "status": "Ground Truth"}, "geometry": {"type": "LineString", "coordinates": [[6.010459369469666, 50.81619011750644], [6.010661565686975, 50.81619015028509], [6.010764444867788, 50.81619071874149]]}}, {"id": "61", "type": "Feature", "properties": {"line_id": "CAD_LINE_00062", "length_m": 21.252, "mean_confidence": 1.0, "num_vertices": 3, "is_ground_truth": true, "status": "Ground Truth"}, "geometry": {"type": "LineString", "coordinates": [[6.0104605171374645, 50.816275506686054], [6.010662713726987, 50.81627553946209], [6.01076204605365, 50.81627612705952]]}}, {"id": "62", "type": "Feature", "properties": {"line_id": "CAD_LINE_00063", "length_m": 7.5, "mean_confidence": 1.0, "num_vertices": 2, "is_ground_truth": true, "status": "Ground Truth"}, "geometry": {"type": "LineString", "coordinates": [[6.010457872838186, 50.81581483540244], [6.01045696679995, 50.81574742289316]]}}, {"id": "63", "type": "Feature", "properties": {"line_id": "CAD_LINE_00064", "length_m": 21.256, "mean_confidence": 1.0, "num_vertices": 3, "is_ground_truth": true, "status": "Ground Truth"}, "geometry": {"type": "LineString", "coordinates": [[6.0104617386356125, 50.8161024621103], [6.010702982017681, 50.81610453142947], [6.0107632966432725, 50.81610532956606]]}}, {"id": "64", "type": "Feature", "properties": {"line_id": "CAD_LINE_00065", "length_m": 21.256, "mean_confidence": 1.0, "num_vertices": 4, "is_ground_truth": true, "status": "Ground Truth"}, "geometry": {"type": "LineString", "coordinates": [[6.01046341315283, 50.81596312379025], [6.010562744808654, 50.81596371156014], [6.010704655810254, 50.81596519310719], [6.01076497025468, 50.8159659912432]]}}, {"id": "65", "type": "Feature", "properties": {"line_id": "CAD_LINE_00066", "length_m": 21.006, "mean_confidence": 1.0, "num_vertices": 4, "is_ground_truth": true, "status": "Ground Truth"}, "geometry": {"type": "LineString", "coordinates": [[6.010464530618827, 50.81604626588554], [6.01056031542658, 50.8160468727904], [6.010702226682549, 50.81604835433999], [6.010762541235079, 50.81604915247709]]}}, {"id": "66", "type": "Feature", "properties": {"line_id": "CAD_LINE_00067", "length_m": 21.252, "mean_confidence": 1.0, "num_vertices": 3, "is_ground_truth": true, "status": "Ground Truth"}, "geometry": {"type": "LineString", "coordinates": [[6.010465842704899, 50.81587996256196], [6.010565174182656, 50.81588055033006], [6.010767369049831, 50.81588058292591]]}}, {"id": "67", "type": "Feature", "properties": {"line_id": "CAD_LINE_00068", "length_m": 17.507, "mean_confidence": 1.0, "num_vertices": 3, "is_ground_truth": true, "status": "Ground Truth"}, "geometry": {"type": "LineString", "coordinates": [[6.0104661883318125, 50.81564175256296], [6.01046744840159, 50.81560354257465], [6.010471168195884, 50.81548441844267]]}}, {"id": "68", "type": "Feature", "properties": {"line_id": "CAD_LINE_00069", "length_m": 17.253, "mean_confidence": 1.0, "num_vertices": 3, "is_ground_truth": true, "status": "Ground Truth"}, "geometry": {"type": "LineString", "coordinates": [[6.010473084283672, 50.81536305679421], [6.010473226880483, 50.81524170471285], [6.010474547338214, 50.81520798889221]]}}, {"id": "69", "type": "Feature", "properties": {"line_id": "CAD_LINE_00070", "length_m": 19.502, "mean_confidence": 1.0, "num_vertices": 3, "is_ground_truth": true, "status": "Ground Truth"}, "geometry": {"type": "LineString", "coordinates": [[6.010489916725574, 50.81582365153562], [6.010706299381187, 50.81582360770194], [6.010766613641524, 50.8158244058374]]}}, {"id": "70", "type": "Feature", "properties": {"line_id": "CAD_LINE_00071", "length_m": 5.25, "mean_confidence": 1.0, "num_vertices": 2, "is_ground_truth": true, "status": "Ground Truth"}, "geometry": {"type": "LineString", "coordinates": [[6.0105171581611945, 50.815475181365386], [6.010516523879914, 50.815427992609784]]}}, {"id": "71", "type": "Feature", "properties": {"line_id": "CAD_LINE_00072", "length_m": 17.507, "mean_confidence": 1.0, "num_vertices": 3, "is_ground_truth": true, "status": "Ground Truth"}, "geometry": {"type": "LineString", "coordinates": [[6.010544053965943, 50.81536492118791], [6.010545313965028, 50.81532671119919], [6.010549033540179, 50.81520758706614]]}}, {"id": "72", "type": "Feature", "properties": {"line_id": "CAD_LINE_00073", "length_m": 13.502, "mean_confidence": 1.0, "num_vertices": 2, "is_ground_truth": true, "status": "Ground Truth"}, "geometry": {"type": "LineString", "coordinates": [[6.010547769220657, 50.81564131246989], [6.010549685112754, 50.81551995081988]]}}, {"id": "73", "type": "Feature", "properties": {"line_id": "CAD_LINE_00074", "length_m": 5.5, "mean_confidence": 1.0, "num_vertices": 2, "is_ground_truth": true, "status": "Ground Truth"}, "geometry": {"type": "LineString", "coordinates": [[6.010563299138788, 50.81547717968774], [6.010562634604464, 50.81542774384886]]}}, {"id": "74", "type": "Feature", "properties": {"line_id": "CAD_LINE_00075", "length_m": 2.75, "mean_confidence": 1.0, "num_vertices": 2, "is_ground_truth": true, "status": "Ground Truth"}, "geometry": {"type": "LineString", "coordinates": [[6.0105779401718715, 50.8155108093958], [6.010577607896386, 50.81548609147644]]}}, {"id": "75", "type": "Feature", "properties": {"line_id": "CAD_LINE_00076", "length_m": 27.522, "mean_confidence": 1.0, "num_vertices": 4, "is_ground_truth": true, "status": "Ground Truth"}, "geometry": {"type": "LineString", "coordinates": [[6.010590363369545, 50.815643329916846], [6.0105964604998805, 50.8155691378843], [6.010706402068739, 50.81556742103647], [6.010869608908759, 50.81556991107927]]}}, {"id": "76", "type": "Feature", "properties": {"line_id": "CAD_LINE_00077", "length_m": 19.756, "mean_confidence": 1.0, "num_vertices": 4, "is_ground_truth": true, "status": "Ground Truth"}, "geometry": {"type": "LineString", "coordinates": [[6.010592248942674, 50.81551972118269], [6.0106702977352775, 50.815520423682315], [6.010812207383508, 50.81552190509961], [6.010872521253114, 50.815522703180434]]}}, {"id": "77", "type": "Feature", "properties": {"line_id": "CAD_LINE_00078", "length_m": 5.25, "mean_confidence": 1.0, "num_vertices": 2, "is_ground_truth": true, "status": "Ground Truth"}, "geometry": {"type": "LineString", "coordinates": [[6.010605862929375, 50.81547695004561], [6.010605228557827, 50.81542976129068]]}}, {"id": "78", "type": "Feature", "properties": {"line_id": "CAD_LINE_00079", "length_m": 15.003, "mean_confidence": 1.0, "num_vertices": 3, "is_ground_truth": true, "status": "Ground Truth"}, "geometry": {"type": "LineString", "coordinates": [[6.010659007245364, 50.815472168803836], [6.010811542583076, 50.815472469262566], [6.010871856388388, 50.815473267343876]]}}, {"id": "79", "type": "Feature", "properties": {"line_id": "CAD_LINE_00080", "length_m": 5.0, "mean_confidence": 1.0, "num_vertices": 2, "is_ground_truth": true, "status": "Ground Truth"}, "geometry": {"type": "LineString", "coordinates": [[6.010673781432152, 50.815251858920035], [6.010673177206797, 50.815206917249434]]}}, {"id": "80", "type": "Feature", "properties": {"line_id": "CAD_LINE_00081", "length_m": 4.257, "mean_confidence": 1.0, "num_vertices": 2, "is_ground_truth": true, "status": "Ground Truth"}, "geometry": {"type": "LineString", "coordinates": [[6.010716254375195, 50.81524488798707], [6.010719287710483, 50.81520666842639]]}}, {"id": "81", "type": "Feature", "properties": {"line_id": "CAD_LINE_00082", "length_m": 12.779, "mean_confidence": 1.0, "num_vertices": 3, "is_ground_truth": true, "status": "Ground Truth"}, "geometry": {"type": "LineString", "coordinates": [[6.010751337845965, 50.81574358739888], [6.010776136649066, 50.815741206318755], [6.010932265210537, 50.81574485809911]]}}, {"id": "82", "type": "Feature", "properties": {"line_id": "CAD_LINE_00083", "length_m": 65.533, "mean_confidence": 1.0, "num_vertices": 6, "is_ground_truth": true, "status": "Ground Truth"}, "geometry": {"type": "LineString", "coordinates": [[6.010770197730821, 50.8163547366996], [6.010773886582587, 50.816233365472726], [6.010769635287467, 50.816049114192104], [6.0107761552179735, 50.81600638131924], [6.010776810702972, 50.8159232296566], [6.0107764690327485, 50.815765924237574]]}}, {"id": "83", "type": "Feature", "properties": {"line_id": "CAD_LINE_00084", "length_m": 5.006, "mean_confidence": 1.0, "num_vertices": 2, "is_ground_truth": true, "status": "Ground Truth"}, "geometry": {"type": "LineString", "coordinates": [[6.010758908597896, 50.81525139953951], [6.010761851251837, 50.81520643872729]]}}, {"id": "84", "type": "Feature", "properties": {"line_id": "CAD_LINE_00085", "length_m": 23.802, "mean_confidence": 1.0, "num_vertices": 5, "is_ground_truth": true, "status": "Ground Truth"}, "geometry": {"type": "LineString", "coordinates": [[6.010905411254296, 50.815594437536035], [6.010906580292609, 50.815549486293186], [6.010908918362992, 50.81545958380768], [6.010913634372658, 50.81541461341815], [6.010906087077097, 50.81538094545986]]}}, {"id": "85", "type": "Feature", "properties": {"line_id": "CAD_LINE_00086", "length_m": 64.582, "mean_confidence": 1.0, "num_vertices": 7, "is_ground_truth": true, "status": "Ground Truth"}, "geometry": {"type": "LineString", "coordinates": [[6.010915626759955, 50.816353951759304], [6.010915082729172, 50.81631350425586], [6.01092178390692, 50.8162842538757], [6.010919900315043, 50.81601234719746], [6.0109195883813475, 50.8158572888627], [6.01092628949157, 50.8158280384828], [6.010922017110796, 50.815774127626526]]}}, {"id": "86", "type": "Feature", "properties": {"line_id": "CAD_LINE_00087", "length_m": 144.698, "mean_confidence": 1.0, "num_vertices": 22, "is_ground_truth": true, "status": "Ground Truth"}, "geometry": {"type": "LineString", "coordinates": [[6.010212004569909, 50.81560042572008], [6.010214343988685, 50.81551052324615], [6.010222003866783, 50.81542059208407], [6.010278785713503, 50.815422533142474], [6.010456119536077, 50.815420453092074], [6.010583840959402, 50.815422011321], [6.010651248652423, 50.81542277124373], [6.010668832488148, 50.815411440130205], [6.010739787144487, 50.81541218086182], [6.01088171157417, 50.81541478573613], [6.010878950352584, 50.81547322905234], [6.010883464427686, 50.815545116577724], [6.010876702887741, 50.81556987278786], [6.010874243864822, 50.81565078693918], [6.010806866055429, 50.81565227423061], [6.010664956008477, 50.81565079280745], [6.010569156914354, 50.81564906244611], [6.010430808979183, 50.81564868514077], [6.010391731629711, 50.81564440142046], [6.010264054887243, 50.815646213605845], [6.010214351663638, 50.81564311074796], [6.010212004569909, 50.81560042572008]]}}]}