{"type": "FeatureCollection", "features": [{"id": "0", "type": "Feature", "properties": {"line_id": "CAD_LINE_00001", "length_m": 4.95, "mean_confidence": 1.0, "num_vertices": 2, "is_ground_truth": true, "status": "Ground Truth"}, "geometry": {"type": "LineString", "coordinates": [[5.883888185949103, 50.81512486504745], [5.883937507188061, 50.815093191838635]]}}, {"id": "1", "type": "Feature", "properties": {"line_id": "CAD_LINE_00002", "length_m": 3.712, "mean_confidence": 1.0, "num_vertices": 3, "is_ground_truth": true, "status": "Ground Truth"}, "geometry": {"type": "LineString", "coordinates": [[5.883931833378261, 50.815225802579626], [5.88394580482836, 50.81520551747451], [5.883960065141685, 50.81521219784041]]}}, {"id": "2", "type": "Feature", "properties": {"line_id": "CAD_LINE_00003", "length_m": 4.553, "mean_confidence": 1.0, "num_vertices": 3, "is_ground_truth": true, "status": "Ground Truth"}, "geometry": {"type": "LineString", "coordinates": [[5.884148329279669, 50.81490576545701], [5.884162372786725, 50.81489222169416], [5.884162107878845, 50.81486750334503]]}}, {"id": "3", "type": "Feature", "properties": {"line_id": "CAD_LINE_00004", "length_m": 8.388, "mean_confidence": 1.0, "num_vertices": 3, "is_ground_truth": true, "status": "Ground Truth"}, "geometry": {"type": "LineString", "coordinates": [[5.884188777986739, 50.81570110956912], [5.88424532622835, 50.815681764886634], [5.884294828484919, 50.81566694494439]]}}, {"id": "4", "type": "Feature", "properties": {"line_id": "CAD_LINE_00005", "length_m": 2.693, "mean_confidence": 1.0, "num_vertices": 2, "is_ground_truth": true, "status": "Ground Truth"}, "geometry": {"type": "LineString", "coordinates": [[5.884217202649408, 50.81570548174814], [5.884252576916638, 50.81569634066465]]}}, {"id": "5", "type": "Feature", "properties": {"line_id": "CAD_LINE_00006", "length_m": 7.071, "mean_confidence": 1.0, "num_vertices": 4, "is_ground_truth": true, "status": "Ground Truth"}, "geometry": {"type": "LineString", "coordinates": [[5.884230506065547, 50.815291934881685], [5.884248120781126, 50.815280622971585], [5.8842406895101815, 50.81524919377353], [5.884258304207077, 50.8152378818619]]}}, {"id": "6", "type": "Feature", "properties": {"line_id": "CAD_LINE_00007", "length_m": 8.698, "mean_confidence": 1.0, "num_vertices": 3, "is_ground_truth": true, "status": "Ground Truth"}, "geometry": {"type": "LineString", "coordinates": [[5.884301494846095, 50.81529612392326], [5.884281697115676, 50.815269242386954], [5.884332743569416, 50.815233067133846]]}}, {"id": "7", "type": "Feature", "properties": {"line_id": "CAD_LINE_00008", "length_m": 3.021, "mean_confidence": 1.0, "num_vertices": 2, "is_ground_truth": true, "status": "Ground Truth"}, "geometry": {"type": "LineString", "coordinates": [[5.8843266854205645, 50.81532972393117], [5.8843086852665225, 50.81530508189106]]}}, {"id": "8", "type": "Feature", "properties": {"line_id": "CAD_LINE_00009", "length_m": 3.579, "mean_confidence": 1.0, "num_vertices": 2, "is_ground_truth": true, "status": "Ground Truth"}, "geometry": {"type": "LineString", "coordinates": [[5.884316038565778, 50.81566011200778], [5.88436200576587, 50.81564643085984]]}}, {"id": "9", "type": "Feature", "properties": {"line_id": "CAD_LINE_00010", "length_m": 2.574, "mean_confidence": 1.0, "num_vertices": 2, "is_ground_truth": true, "status": "Ground Truth"}, "geometry": {"type": "LineString", "coordinates": [[5.884355423067096, 50.81536330867067], [5.884337471067384, 50.81534316088031]]}}, {"id": "10", "type": "Feature", "properties": {"line_id": "CAD_LINE_00011", "length_m": 6.564, "mean_confidence": 1.0, "num_vertices": 3, "is_ground_truth": true, "status": "Ground Truth"}, "geometry": {"type": "LineString", "coordinates": [[5.884348082549955, 50.815671210260795], [5.884394085892989, 50.81566089978403], [5.884436566254434, 50.81565285167716]]}}, {"id": "11", "type": "Feature", "properties": {"line_id": "CAD_LINE_00012", "length_m": 2.574, "mean_confidence": 1.0, "num_vertices": 2, "is_ground_truth": true, "status": "Ground Truth"}, "geometry": {"type": "LineString", "coordinates": [[5.884391351207357, 50.81540585136562], [5.884373399175531, 50.81538570358082]]}}, {"id": "12", "type": "Feature", "properties": {"line_id": "CAD_LINE_00013", "length_m": 4.432, "mean_confidence": 1.0, "num_vertices": 3, "is_ground_truth": true, "status": "Ground Truth"}, "geometry": {"type": "LineString", "coordinates": [[5.884463617344311, 50.815529137806266], [5.8844314770468085, 50.81550905109477], [5.884413741813707, 50.81550912741983]]}}, {"id": "13", "type": "Feature", "properties": {"line_id": "CAD_LINE_00014", "length_m": 25.132, "mean_confidence": 1.0, "num_vertices": 4, "is_ground_truth": true, "status": "Ground Truth"}, "geometry": {"type": "LineString", "coordinates": [[5.884724751578278, 50.81507182665771], [5.884667914994012, 50.815064206102775], [5.8846128519343015, 50.81505657788455], [5.884438407354178, 50.81516294841765]]}}, {"id": "14", "type": "Feature", "properties": {"line_id": "CAD_LINE_00015", "length_m": 3.64, "mean_confidence": 1.0, "num_vertices": 2, "is_ground_truth": true, "status": "Ground Truth"}, "geometry": {"type": "LineString", "coordinates": [[5.884441009749443, 50.815405637658294], [5.884490571895801, 50.81539643543933]]}}, {"id": "15", "type": "Feature", "properties": {"line_id": "CAD_LINE_00016", "length_m": 47.366, "mean_confidence": 1.0, "num_vertices": 7, "is_ground_truth": true, "status": "Ground Truth"}, "geometry": {"type": "LineString", "coordinates": [[5.884455988353869, 50.81581007393232], [5.884523370625848, 50.815808660296035], [5.884615570326379, 50.81580601616505], [5.884743216594695, 50.81580097209461], [5.884885026990014, 50.81579361964458], [5.885048131808093, 50.815787298878405], [5.8851260949055915, 50.81578022123141]]}}, {"id": "16", "type": "Feature", "properties": {"line_id": "CAD_LINE_00017", "length_m": 3.518, "mean_confidence": 1.0, "num_vertices": 3, "is_ground_truth": true, "status": "Ground Truth"}, "geometry": {"type": "LineString", "coordinates": [[5.884524519675543, 50.81558505632869], [5.884524350971644, 50.81556932647052], [5.884506495217289, 50.81555816719688]]}}, {"id": "17", "type": "Feature", "properties": {"line_id": "CAD_LINE_00018", "length_m": 4.67, "mean_confidence": 1.0, "num_vertices": 2, "is_ground_truth": true, "status": "Ground Truth"}, "geometry": {"type": "LineString", "coordinates": [[5.88450825888635, 50.815391864857325], [5.884571985049392, 50.815380354409484]]}}, {"id": "18", "type": "Feature", "properties": {"line_id": "CAD_LINE_00019", "length_m": 11.776, "mean_confidence": 1.0, "num_vertices": 5, "is_ground_truth": true, "status": "Ground Truth"}, "geometry": {"type": "LineString", "coordinates": [[5.88472036072586, 50.814993192644245], [5.884695483459608, 50.814988805315224], [5.884645644570107, 50.81497216571232], [5.884606482885107, 50.81495885096042], [5.884570880277203, 50.81494664448697]]}}, {"id": "19", "type": "Feature", "properties": {"line_id": "CAD_LINE_00020", "length_m": 3.64, "mean_confidence": 1.0, "num_vertices": 2, "is_ground_truth": true, "status": "Ground Truth"}, "geometry": {"type": "LineString", "coordinates": [[5.884628617109086, 50.81536887446945], [5.884678179178697, 50.81535967217012]]}}, {"id": "20", "type": "Feature", "properties": {"line_id": "CAD_LINE_00021", "length_m": 6.486, "mean_confidence": 1.0, "num_vertices": 2, "is_ground_truth": true, "status": "Ground Truth"}, "geometry": {"type": "LineString", "coordinates": [[5.884629894702351, 50.81548797196495], [5.8847111874202005, 50.81546065522411]]}}, {"id": "21", "type": "Feature", "properties": {"line_id": "CAD_LINE_00022", "length_m": 26.739, "mean_confidence": 1.0, "num_vertices": 7, "is_ground_truth": true, "status": "Ground Truth"}, "geometry": {"type": "LineString", "coordinates": [[5.884692560187446, 50.815377588058126], [5.884692439644653, 50.81536635244548], [5.884685273248859, 50.81535964162421], [5.884688675633755, 50.81534614361586], [5.884669566340601, 50.81521813399583], [5.884683199953676, 50.81516638908661], [5.88469712283983, 50.81514160964613]]}}, {"id": "22", "type": "Feature", "properties": {"line_id": "CAD_LINE_00023", "length_m": 3.64, "mean_confidence": 1.0, "num_vertices": 2, "is_ground_truth": true, "status": "Ground Truth"}, "geometry": {"type": "LineString", "coordinates": [[5.8847040963318165, 50.81513034348651], [5.8847179468672195, 50.815098822676035]]}}, {"id": "23", "type": "Feature", "properties": {"line_id": "CAD_LINE_00024", "length_m": 3.691, "mean_confidence": 1.0, "num_vertices": 2, "is_ground_truth": true, "status": "Ground Truth"}, "geometry": {"type": "LineString", "coordinates": [[5.88473225268201, 50.815440339476204], [5.884707109972306, 50.81541123380213]]}}, {"id": "24", "type": "Feature", "properties": {"line_id": "CAD_LINE_00025", "length_m": 30.936, "mean_confidence": 1.0, "num_vertices": 9, "is_ground_truth": true, "status": "Ground Truth"}, "geometry": {"type": "LineString", "coordinates": [[5.884789005341322, 50.81544009507009], [5.884760122662335, 50.815393027703735], [5.884754609213292, 50.815375073636474], [5.884752666914862, 50.815359351416426], [5.884745476400341, 50.815350393476386], [5.8847307096135735, 50.815296523634615], [5.884728574444683, 50.81526282443404], [5.88472643927898, 50.81522912523345], [5.884739976388881, 50.815168391827555]]}}, {"id": "25", "type": "Feature", "properties": {"line_id": "CAD_LINE_00026", "length_m": 23.577, "mean_confidence": 1.0, "num_vertices": 8, "is_ground_truth": true, "status": "Ground Truth"}, "geometry": {"type": "LineString", "coordinates": [[5.885086401854659, 50.81538712766502], [5.885075784870764, 50.81538942064303], [5.885026029850987, 50.815380646133285], [5.885015412865574, 50.8153829391058], [5.884901811214435, 50.81537443962236], [5.8848875748339315, 50.81537000649536], [5.884876957844062, 50.815372299455156], [5.884759760984908, 50.815359320865944]]}}, {"id": "26", "type": "Feature", "properties": {"line_id": "CAD_LINE_00027", "length_m": 8.535, "mean_confidence": 1.0, "num_vertices": 3, "is_ground_truth": true, "status": "Ground Truth"}, "geometry": {"type": "LineString", "coordinates": [[5.88490779427039, 50.81560138371358], [5.8848794419603365, 50.81560375307192], [5.884787170337644, 50.81559965604524]]}}, {"id": "27", "type": "Feature", "properties": {"line_id": "CAD_LINE_00028", "length_m": 27.376, "mean_confidence": 1.0, "num_vertices": 6, "is_ground_truth": true, "status": "Ground Truth"}, "geometry": {"type": "LineString", "coordinates": [[5.88478548483128, 50.81511201518469], [5.884817203003504, 50.81509277715419], [5.884852540510865, 50.81508026520435], [5.884902234879382, 50.81508342198305], [5.8851152487370095, 50.81510048198495], [5.885154302098785, 50.81510368451346]]}}, {"id": "28", "type": "Feature", "properties": {"line_id": "CAD_LINE_00029", "length_m": 2.704, "mean_confidence": 1.0, "num_vertices": 2, "is_ground_truth": true, "status": "Ground Truth"}, "geometry": {"type": "LineString", "coordinates": [[5.884814799211032, 50.815529873034045], [5.8847932999008155, 50.81550974059177]]}}, {"id": "29", "type": "Feature", "properties": {"line_id": "CAD_LINE_00030", "length_m": 4.95, "mean_confidence": 1.0, "num_vertices": 2, "is_ground_truth": true, "status": "Ground Truth"}, "geometry": {"type": "LineString", "coordinates": [[5.88479125264, 50.81498839289552], [5.884840573116236, 50.814956719302515]]}}, {"id": "30", "type": "Feature", "properties": {"line_id": "CAD_LINE_00031", "length_m": 18.397, "mean_confidence": 1.0, "num_vertices": 5, "is_ground_truth": true, "status": "Ground Truth"}, "geometry": {"type": "LineString", "coordinates": [[5.8851428406265995, 50.81502732821396], [5.885075411255888, 50.81502424796496], [5.8850043986998, 50.81501781227593], [5.884933386163271, 50.81501137654316], [5.884883691869877, 50.81500821977773]]}}, {"id": "31", "type": "Feature", "properties": {"line_id": "CAD_LINE_00032", "length_m": 19.447, "mean_confidence": 1.0, "num_vertices": 4, "is_ground_truth": true, "status": "Ground Truth"}, "geometry": {"type": "LineString", "coordinates": [[5.884904441735385, 50.81528903368857], [5.884909448732641, 50.81525979817672], [5.884919607425079, 50.81521480988715], [5.884941601777954, 50.8151158371754]]}}, {"id": "32", "type": "Feature", "properties": {"line_id": "CAD_LINE_00033", "length_m": 3.953, "mean_confidence": 1.0, "num_vertices": 2, "is_ground_truth": true, "status": "Ground Truth"}, "geometry": {"type": "LineString", "coordinates": [[5.884943192442346, 50.815594489541574], [5.884996277618781, 50.815583024701986]]}}, {"id": "33", "type": "Feature", "properties": {"line_id": "CAD_LINE_00034", "length_m": 4.743, "mean_confidence": 1.0, "num_vertices": 2, "is_ground_truth": true, "status": "Ground Truth"}, "geometry": {"type": "LineString", "coordinates": [[5.885013964630321, 50.815578454042544], [5.8850776667957545, 50.8155646961932]]}}, {"id": "34", "type": "Feature", "properties": {"line_id": "CAD_LINE_00035", "length_m": 5.256, "mean_confidence": 1.0, "num_vertices": 2, "is_ground_truth": true, "status": "Ground Truth"}, "geometry": {"type": "LineString", "coordinates": [[5.8850208189743105, 50.8148952676888], [5.88508799481638, 50.81487475318475]]}}, {"id": "35", "type": "Feature", "properties": {"line_id": "CAD_LINE_00036", "length_m": 30.583, "mean_confidence": 1.0, "num_vertices": 4, "is_ground_truth": true, "status": "Ground Truth"}, "geometry": {"type": "LineString", "coordinates": [[5.885025981601551, 50.815376151888415], [5.88504121950093, 50.815308669438316], [5.88505137807607, 50.815263681137296], [5.8850869088075415, 50.81510397495491]]}}, {"id": "36", "type": "Feature", "properties": {"line_id": "CAD_LINE_00037", "length_m": 7.5, "mean_confidence": 1.0, "num_vertices": 2, "is_ground_truth": true, "status": "Ground Truth"}, "geometry": {"type": "LineString", "coordinates": [[5.885134250694192, 50.81554872176027], [5.885027839212721, 50.81554918031706]]}}, {"id": "37", "type": "Feature", "properties": {"line_id": "CAD_LINE_00038", "length_m": 5.46, "mean_confidence": 1.0, "num_vertices": 2, "is_ground_truth": true, "status": "Ground Truth"}, "geometry": {"type": "LineString", "coordinates": [[5.885025958899136, 50.814713220207274], [5.885046734181568, 50.814665938934425]]}}, {"id": "38", "type": "Feature", "properties": {"line_id": "CAD_LINE_00039", "length_m": 11.35, "mean_confidence": 1.0, "num_vertices": 2, "is_ground_truth": true, "status": "Ground Truth"}, "geometry": {"type": "LineString", "coordinates": [[5.885041955033567, 50.81554237781446], [5.885062151631078, 50.815441165598436]]}}, {"id": "39", "type": "Feature", "properties": {"line_id": "CAD_LINE_00040", "length_m": 3.288, "mean_confidence": 1.0, "num_vertices": 2, "is_ground_truth": true, "status": "Ground Truth"}, "geometry": {"type": "LineString", "coordinates": [[5.885069052698605, 50.81542315804946], [5.885075833125045, 50.81539391488793]]}}, {"id": "40", "type": "Feature", "properties": {"line_id": "CAD_LINE_00041", "length_m": 9.035, "mean_confidence": 1.0, "num_vertices": 2, "is_ground_truth": true, "status": "Ground Truth"}, "geometry": {"type": "LineString", "coordinates": [[5.88512645681989, 50.81482290122437], [5.885250384385954, 50.814802142027595]]}}, {"id": "41", "type": "Feature", "properties": {"line_id": "CAD_LINE_00042", "length_m": 4.031, "mean_confidence": 1.0, "num_vertices": 2, "is_ground_truth": true, "status": "Ground Truth"}, "geometry": {"type": "LineString", "coordinates": [[5.885172134380766, 50.81577328112871], [5.885228839174738, 50.815768542261196]]}}, {"id": "42", "type": "Feature", "properties": {"line_id": "CAD_LINE_00043", "length_m": 2.61, "mean_confidence": 1.0, "num_vertices": 2, "is_ground_truth": true, "status": "Ground Truth"}, "geometry": {"type": "LineString", "coordinates": [[5.88516583571874, 50.81485643990133], [5.885201233283984, 50.81484954565127]]}}, {"id": "43", "type": "Feature", "properties": {"line_id": "CAD_LINE_00044", "length_m": 21.213, "mean_confidence": 1.0, "num_vertices": 3, "is_ground_truth": true, "status": "Ground Truth"}, "geometry": {"type": "LineString", "coordinates": [[5.885199254399803, 50.81466528161832], [5.8853456703783635, 50.81475678670232], [5.885412604445747, 50.81471380078713]]}}, {"id": "44", "type": "Feature", "properties": {"line_id": "CAD_LINE_00045", "length_m": 20.446, "mean_confidence": 1.0, "num_vertices": 5, "is_ground_truth": true, "status": "Ground Truth"}, "geometry": {"type": "LineString", "coordinates": [[5.885491174559182, 50.815423585504504], [5.885484032186065, 50.815419121855236], [5.885249734503017, 50.81540215427935], [5.885235498080893, 50.81539772119525], [5.885207121778795, 50.815397843511356]]}}, {"id": "45", "type": "Feature", "properties": {"line_id": "CAD_LINE_00046", "length_m": 4.204, "mean_confidence": 1.0, "num_vertices": 4, "is_ground_truth": true, "status": "Ground Truth"}, "geometry": {"type": "LineString", "coordinates": [[5.885291959846098, 50.815040168795214], [5.885256465606446, 50.81503807458388], [5.885245776305448, 50.8150336262103], [5.88523515941033, 50.81503591920287]]}}, {"id": "46", "type": "Feature", "properties": {"line_id": "CAD_LINE_00047", "length_m": 20.252, "mean_confidence": 1.0, "num_vertices": 2, "is_ground_truth": true, "status": "Ground Truth"}, "geometry": {"type": "LineString", "coordinates": [[5.885245728035195, 50.81502913196559], [5.885240226103434, 50.81484713034507]]}}, {"id": "47", "type": "Feature", "properties": {"line_id": "CAD_LINE_00048", "length_m": 11.35, "mean_confidence": 1.0, "num_vertices": 2, "is_ground_truth": true, "status": "Ground Truth"}, "geometry": {"type": "LineString", "coordinates": [[5.885269134084595, 50.815226786989975], [5.885289330051222, 50.815125574736165]]}}, {"id": "48", "type": "Feature", "properties": {"line_id": "CAD_LINE_00049", "length_m": 14.416, "mean_confidence": 1.0, "num_vertices": 3, "is_ground_truth": true, "status": "Ground Truth"}, "geometry": {"type": "LineString", "coordinates": [[5.8854773943833125, 50.81513150549679], [5.885416998515033, 50.81512277704664], [5.8852750213004885, 50.81511440028978]]}}, {"id": "49", "type": "Feature", "properties": {"line_id": "CAD_LINE_00050", "length_m": 4.25, "mean_confidence": 1.0, "num_vertices": 2, "is_ground_truth": true, "status": "Ground Truth"}, "geometry": {"type": "LineString", "coordinates": [[5.885282864705032, 50.81551437278045], [5.885335877285917, 50.815496166418]]}}, {"id": "50", "type": "Feature", "properties": {"line_id": "CAD_LINE_00051", "length_m": 2.828, "mean_confidence": 1.0, "num_vertices": 2, "is_ground_truth": true, "status": "Ground Truth"}, "geometry": {"type": "LineString", "coordinates": [[5.885370885555202, 50.81479263360374], [5.885399068347406, 50.81477453426953]]}}, {"id": "51", "type": "Feature", "properties": {"line_id": "CAD_LINE_00052", "length_m": 9.753, "mean_confidence": 1.0, "num_vertices": 2, "is_ground_truth": true, "status": "Ground Truth"}, "geometry": {"type": "LineString", "coordinates": [[5.88543150483126, 50.815812613013875], [5.885434110254266, 50.81572495994578]]}}, {"id": "52", "type": "Feature", "properties": {"line_id": "CAD_LINE_00053", "length_m": 7.77, "mean_confidence": 1.0, "num_vertices": 3, "is_ground_truth": true, "status": "Ground Truth"}, "geometry": {"type": "LineString", "coordinates": [[5.885494088520987, 50.81470446047702], [5.885550876499226, 50.81470758638146], [5.8856040933477, 50.814708480436984]]}}, {"id": "53", "type": "Feature", "properties": {"line_id": "CAD_LINE_00054", "length_m": 2.926, "mean_confidence": 1.0, "num_vertices": 2, "is_ground_truth": true, "status": "Ground Truth"}, "geometry": {"type": "LineString", "coordinates": [[5.885511584708764, 50.81501225503655], [5.885497131055943, 50.814987597884034]]}}, {"id": "54", "type": "Feature", "properties": {"line_id": "CAD_LINE_00055", "length_m": 29.404, "mean_confidence": 1.0, "num_vertices": 7, "is_ground_truth": true, "status": "Ground Truth"}, "geometry": {"type": "LineString", "coordinates": [[5.885501598347941, 50.81540331550977], [5.885503057945009, 50.815374095270634], [5.88550619446527, 50.815335878893144], [5.885509258536248, 50.81529092114867], [5.885513492408483, 50.81518977769753], [5.8855096314625515, 50.815160580406065], [5.885498773076812, 50.81514040219991]]}}, {"id": "55", "type": "Feature", "properties": {"line_id": "CAD_LINE_00056", "length_m": 7.357, "mean_confidence": 1.0, "num_vertices": 2, "is_ground_truth": true, "status": "Ground Truth"}, "geometry": {"type": "LineString", "coordinates": [[5.885508861460958, 50.81541901476951], [5.885611604832816, 50.81540733546042]]}}, {"id": "56", "type": "Feature", "properties": {"line_id": "CAD_LINE_00057", "length_m": 6.255, "mean_confidence": 1.0, "num_vertices": 2, "is_ground_truth": true, "status": "Ground Truth"}, "geometry": {"type": "LineString", "coordinates": [[5.885555652258315, 50.8158120775869], [5.885558595557315, 50.81575588422885]]}}]}