{"type": "FeatureCollection", "features": [{"id": "0", "type": "Feature", "properties": {"line_id": "CAD_LINE_00001", "length_m": 4.243, "mean_confidence": 1.0, "num_vertices": 2, "is_ground_truth": true, "status": "Ground Truth"}, "geometry": {"type": "LineString", "coordinates": [[5.657215750967779, 52.197375392052955], [5.657171708706914, 52.19734852913689]]}}, {"id": "1", "type": "Feature", "properties": {"line_id": "CAD_LINE_00002", "length_m": 3.021, "mean_confidence": 1.0, "num_vertices": 2, "is_ground_truth": true, "status": "Ground Truth"}, "geometry": {"type": "LineString", "coordinates": [[5.657182637556672, 52.19734176319659], [5.657200770582985, 52.197317004956254]]}}, {"id": "2", "type": "Feature", "properties": {"line_id": "CAD_LINE_00003", "length_m": 5.942, "mean_confidence": 1.0, "num_vertices": 3, "is_ground_truth": true, "status": "Ground Truth"}, "geometry": {"type": "LineString", "coordinates": [[5.6572839588200825, 52.197166267112415], [5.657243675436733, 52.19715624793951], [5.657203392071469, 52.19714622875284]]}}, {"id": "3", "type": "Feature", "properties": {"line_id": "CAD_LINE_00004", "length_m": 3.021, "mean_confidence": 1.0, "num_vertices": 2, "is_ground_truth": true, "status": "Ground Truth"}, "geometry": {"type": "LineString", "coordinates": [[5.6572116585610255, 52.19730349817774], [5.657229791555683, 52.197278739932806]]}}, {"id": "4", "type": "Feature", "properties": {"line_id": "CAD_LINE_00005", "length_m": 3.021, "mean_confidence": 1.0, "num_vertices": 2, "is_ground_truth": true, "status": "Ground Truth"}, "geometry": {"type": "LineString", "coordinates": [[5.657242226337359, 52.19812357451161], [5.657260359647827, 52.198098816265315]]}}, {"id": "5", "type": "Feature", "properties": {"line_id": "CAD_LINE_00006", "length_m": 3.021, "mean_confidence": 1.0, "num_vertices": 2, "is_ground_truth": true, "status": "Ground Truth"}, "geometry": {"type": "LineString", "coordinates": [[5.657240679515601, 52.197265233151576], [5.6572588124786005, 52.19724047490204]]}}, {"id": "6", "type": "Feature", "properties": {"line_id": "CAD_LINE_00007", "length_m": 6.527, "mean_confidence": 1.0, "num_vertices": 3, "is_ground_truth": true, "status": "Ground Truth"}, "geometry": {"type": "LineString", "coordinates": [[5.6572660711071965, 52.19723147037949], [5.657289668441762, 52.1972033291506], [5.657331766530719, 52.19721109717598]]}}, {"id": "7", "type": "Feature", "properties": {"line_id": "CAD_LINE_00008", "length_m": 3.021, "mean_confidence": 1.0, "num_vertices": 2, "is_ground_truth": true, "status": "Ground Truth"}, "geometry": {"type": "LineString", "coordinates": [[5.657271247798351, 52.19808530948309], [5.657289381077162, 52.19806055123223]]}}, {"id": "8", "type": "Feature", "properties": {"line_id": "CAD_LINE_00009", "length_m": 3.021, "mean_confidence": 1.0, "num_vertices": 2, "is_ground_truth": true, "status": "Ground Truth"}, "geometry": {"type": "LineString", "coordinates": [[5.657279119622343, 52.198177417478014], [5.657297252934159, 52.198152659226324]]}}, {"id": "9", "type": "Feature", "properties": {"line_id": "CAD_LINE_00010", "length_m": 3.021, "mean_confidence": 1.0, "num_vertices": 2, "is_ground_truth": true, "status": "Ground Truth"}, "geometry": {"type": "LineString", "coordinates": [[5.657308141086619, 52.198139152440795], [5.657326274366776, 52.19811439418448]]}}, {"id": "10", "type": "Feature", "properties": {"line_id": "CAD_LINE_00011", "length_m": 3.691, "mean_confidence": 1.0, "num_vertices": 2, "is_ground_truth": true, "status": "Ground Truth"}, "geometry": {"type": "LineString", "coordinates": [[5.657359174856756, 52.19750988226195], [5.65740661500807, 52.19749404477593]]}}, {"id": "11", "type": "Feature", "properties": {"line_id": "CAD_LINE_00012", "length_m": 5.59, "mean_confidence": 1.0, "num_vertices": 2, "is_ground_truth": true, "status": "Ground Truth"}, "geometry": {"type": "LineString", "coordinates": [[5.657446084377638, 52.197972560291305], [5.657372815705661, 52.1979502583529]]}}, {"id": "12", "type": "Feature", "properties": {"line_id": "CAD_LINE_00013", "length_m": 6.325, "mean_confidence": 1.0, "num_vertices": 2, "is_ground_truth": true, "status": "Ground Truth"}, "geometry": {"type": "LineString", "coordinates": [[5.657470892923868, 52.197239989204654], [5.657383026471128, 52.197222214667796]]}}, {"id": "13", "type": "Feature", "properties": {"line_id": "CAD_LINE_00014", "length_m": 3.509, "mean_confidence": 1.0, "num_vertices": 2, "is_ground_truth": true, "status": "Ground Truth"}, "geometry": {"type": "LineString", "coordinates": [[5.657403885242701, 52.19764684541291], [5.657400037837113, 52.197615396558184]]}}, {"id": "14", "type": "Feature", "properties": {"line_id": "CAD_LINE_00015", "length_m": 17.503, "mean_confidence": 1.0, "num_vertices": 4, "is_ground_truth": true, "status": "Ground Truth"}, "geometry": {"type": "LineString", "coordinates": [[5.657477139797763, 52.19766690038857], [5.657463850939838, 52.1975860396897], [5.657448992846001, 52.1975478751322], [5.657435976699656, 52.197511953329446]]}}, {"id": "15", "type": "Feature", "properties": {"line_id": "CAD_LINE_00016", "length_m": 3.021, "mean_confidence": 1.0, "num_vertices": 2, "is_ground_truth": true, "status": "Ground Truth"}, "geometry": {"type": "LineString", "coordinates": [[5.657466783493656, 52.19776803804389], [5.657484916535043, 52.19774327976177]]}}, {"id": "16", "type": "Feature", "properties": {"line_id": "CAD_LINE_00017", "length_m": 13.21, "mean_confidence": 1.0, "num_vertices": 3, "is_ground_truth": true, "status": "Ground Truth"}, "geometry": {"type": "LineString", "coordinates": [[5.657653065593701, 52.197733906481616], [5.657524811882414, 52.197689260919915], [5.657484507521539, 52.19767587141307]]}}, {"id": "17", "type": "Feature", "properties": {"line_id": "CAD_LINE_00018", "length_m": 3.021, "mean_confidence": 1.0, "num_vertices": 2, "is_ground_truth": true, "status": "Ground Truth"}, "geometry": {"type": "LineString", "coordinates": [[5.657495804530824, 52.19772977295804], [5.657513937540555, 52.197705014671335]]}}, {"id": "18", "type": "Feature", "properties": {"line_id": "CAD_LINE_00019", "length_m": 2.926, "mean_confidence": 1.0, "num_vertices": 2, "is_ground_truth": true, "status": "Ground Truth"}, "geometry": {"type": "LineString", "coordinates": [[5.657562429644893, 52.19726000224097], [5.657522152932109, 52.19725110663597]]}}, {"id": "19", "type": "Feature", "properties": {"line_id": "CAD_LINE_00020", "length_m": 3.021, "mean_confidence": 1.0, "num_vertices": 2, "is_ground_truth": true, "status": "Ground Truth"}, "geometry": {"type": "LineString", "coordinates": [[5.657535686216594, 52.19767350716748], [5.6575538191813255, 52.197648748874364]]}}, {"id": "20", "type": "Feature", "properties": {"line_id": "CAD_LINE_00021", "length_m": 2.926, "mean_confidence": 1.0, "num_vertices": 2, "is_ground_truth": true, "status": "Ground Truth"}, "geometry": {"type": "LineString", "coordinates": [[5.6575853782735335, 52.1974262258941], [5.657545101405917, 52.19741733029726]]}}, {"id": "21", "type": "Feature", "properties": {"line_id": "CAD_LINE_00022", "length_m": 3.021, "mean_confidence": 1.0, "num_vertices": 2, "is_ground_truth": true, "status": "Ground Truth"}, "geometry": {"type": "LineString", "coordinates": [[5.657564707133178, 52.19763524206414], [5.657582840066251, 52.197610483766454]]}}, {"id": "22", "type": "Feature", "properties": {"line_id": "CAD_LINE_00023", "length_m": 2.693, "mean_confidence": 1.0, "num_vertices": 2, "is_ground_truth": true, "status": "Ground Truth"}, "geometry": {"type": "LineString", "coordinates": [[5.657566358960316, 52.19730493276298], [5.657580848834264, 52.197282429789624]]}}, {"id": "23", "type": "Feature", "properties": {"line_id": "CAD_LINE_00024", "length_m": 2.926, "mean_confidence": 1.0, "num_vertices": 2, "is_ground_truth": true, "status": "Ground Truth"}, "geometry": {"type": "LineString", "coordinates": [[5.657573331137453, 52.1972487423742], [5.657587807350875, 52.19722399245465]]}}, {"id": "24", "type": "Feature", "properties": {"line_id": "CAD_LINE_00025", "length_m": 2.795, "mean_confidence": 1.0, "num_vertices": 2, "is_ground_truth": true, "status": "Ground Truth"}, "geometry": {"type": "LineString", "coordinates": [[5.657635342604931, 52.197223883492136], [5.657598708828232, 52.197212732585484]]}}, {"id": "25", "type": "Feature", "properties": {"line_id": "CAD_LINE_00026", "length_m": 17.889, "mean_confidence": 1.0, "num_vertices": 2, "is_ground_truth": true, "status": "Ground Truth"}, "geometry": {"type": "LineString", "coordinates": [[5.65787134449532, 52.19815134341858], [5.657636883382505, 52.19807997790323]]}}, {"id": "26", "type": "Feature", "properties": {"line_id": "CAD_LINE_00027", "length_m": 3.021, "mean_confidence": 1.0, "num_vertices": 2, "is_ground_truth": true, "status": "Ground Truth"}, "geometry": {"type": "LineString", "coordinates": [[5.657693915831573, 52.19783717372637], [5.657712048774787, 52.197812415409715]]}}, {"id": "27", "type": "Feature", "properties": {"line_id": "CAD_LINE_00028", "length_m": 4.697, "mean_confidence": 1.0, "num_vertices": 2, "is_ground_truth": true, "status": "Ground Truth"}, "geometry": {"type": "LineString", "coordinates": [[5.657698513918619, 52.1979922045362], [5.657727534902344, 52.19795393939497]]}}, {"id": "28", "type": "Feature", "properties": {"line_id": "CAD_LINE_00029", "length_m": 3.808, "mean_confidence": 1.0, "num_vertices": 2, "is_ground_truth": true, "status": "Ground Truth"}, "geometry": {"type": "LineString", "coordinates": [[5.657698882174696, 52.197450682426044], [5.657720630596165, 52.19741917488692]]}}, {"id": "29", "type": "Feature", "properties": {"line_id": "CAD_LINE_00030", "length_m": 3.021, "mean_confidence": 1.0, "num_vertices": 2, "is_ground_truth": true, "status": "Ground Truth"}, "geometry": {"type": "LineString", "coordinates": [[5.65772293671855, 52.1977989085853], [5.657741069630107, 52.19777415026402]]}}, {"id": "30", "type": "Feature", "properties": {"line_id": "CAD_LINE_00031", "length_m": 2.926, "mean_confidence": 1.0, "num_vertices": 2, "is_ground_truth": true, "status": "Ground Truth"}, "geometry": {"type": "LineString", "coordinates": [[5.657755573215369, 52.197753894215985], [5.657770049491111, 52.197729144276266]]}}, {"id": "31", "type": "Feature", "properties": {"line_id": "CAD_LINE_00032", "length_m": 2.693, "mean_confidence": 1.0, "num_vertices": 2, "is_ground_truth": true, "status": "Ground Truth"}, "geometry": {"type": "LineString", "coordinates": [[5.657801703107663, 52.19752234985693], [5.6577650826918315, 52.19751344594774]]}}, {"id": "32", "type": "Feature", "properties": {"line_id": "CAD_LINE_00033", "length_m": 5.942, "mean_confidence": 1.0, "num_vertices": 3, "is_ground_truth": true, "status": "Ground Truth"}, "geometry": {"type": "LineString", "coordinates": [[5.657770677308864, 52.19783250374097], [5.657786981904592, 52.19780774960618], [5.657803286482233, 52.19778299546896]]}}, {"id": "33", "type": "Feature", "properties": {"line_id": "CAD_LINE_00034", "length_m": 2.795, "mean_confidence": 1.0, "num_vertices": 2, "is_ground_truth": true, "status": "Ground Truth"}, "geometry": {"type": "LineString", "coordinates": [[5.657818948578011, 52.19735154009621], [5.657782314650501, 52.19734038924692]]}}, {"id": "34", "type": "Feature", "properties": {"line_id": "CAD_LINE_00035", "length_m": 2.795, "mean_confidence": 1.0, "num_vertices": 2, "is_ground_truth": true, "status": "Ground Truth"}, "geometry": {"type": "LineString", "coordinates": [[5.657822154675032, 52.19727738252091], [5.657785520807709, 52.19726623167244]]}}, {"id": "35", "type": "Feature", "properties": {"line_id": "CAD_LINE_00036", "length_m": 4.138, "mean_confidence": 1.0, "num_vertices": 2, "is_ground_truth": true, "status": "Ground Truth"}, "geometry": {"type": "LineString", "coordinates": [[5.657866390808165, 52.197937892055585], [5.6578114460078766, 52.197922289274125]]}}, {"id": "36", "type": "Feature", "properties": {"line_id": "CAD_LINE_00037", "length_m": 4.809, "mean_confidence": 1.0, "num_vertices": 2, "is_ground_truth": true, "status": "Ground Truth"}, "geometry": {"type": "LineString", "coordinates": [[5.6578882349277, 52.19792211310188], [5.657920912315002, 52.19788383952233]]}}, {"id": "37", "type": "Feature", "properties": {"line_id": "CAD_LINE_00038", "length_m": 5.368, "mean_confidence": 1.0, "num_vertices": 2, "is_ground_truth": true, "status": "Ground Truth"}, "geometry": {"type": "LineString", "coordinates": [[5.657889532084851, 52.19813557285495], [5.657925838944423, 52.19809279699547]]}}, {"id": "38", "type": "Feature", "properties": {"line_id": "CAD_LINE_00039", "length_m": 3.021, "mean_confidence": 1.0, "num_vertices": 2, "is_ground_truth": true, "status": "Ground Truth"}, "geometry": {"type": "LineString", "coordinates": [[5.657927020574769, 52.19708390193511], [5.657886730294848, 52.19707275950903]]}}, {"id": "39", "type": "Feature", "properties": {"line_id": "CAD_LINE_00040", "length_m": 8.702, "mean_confidence": 1.0, "num_vertices": 3, "is_ground_truth": true, "status": "Ground Truth"}, "geometry": {"type": "LineString", "coordinates": [[5.65800827053211, 52.19721628705561], [5.65800097107716, 52.19721855078852], [5.657887481256023, 52.19719634149085]]}}, {"id": "40", "type": "Feature", "properties": {"line_id": "CAD_LINE_00041", "length_m": 13.752, "mean_confidence": 1.0, "num_vertices": 3, "is_ground_truth": true, "status": "Ground Truth"}, "geometry": {"type": "LineString", "coordinates": [[5.658073410602101, 52.19770597834365], [5.658018459185216, 52.19768925218538], [5.657893895965638, 52.19765021599231]]}}, {"id": "41", "type": "Feature", "properties": {"line_id": "CAD_LINE_00042", "length_m": 2.61, "mean_confidence": 1.0, "num_vertices": 2, "is_ground_truth": true, "status": "Ground Truth"}, "geometry": {"type": "LineString", "coordinates": [[5.658024768294388, 52.19752408494507], [5.657988161491782, 52.19751742805004]]}}, {"id": "42", "type": "Feature", "properties": {"line_id": "CAD_LINE_00043", "length_m": 2.926, "mean_confidence": 1.0, "num_vertices": 2, "is_ground_truth": true, "status": "Ground Truth"}, "geometry": {"type": "LineString", "coordinates": [[5.6580047275307015, 52.19783646065008], [5.658019203694767, 52.197811710680234]]}}, {"id": "43", "type": "Feature", "properties": {"line_id": "CAD_LINE_00044", "length_m": 3.913, "mean_confidence": 1.0, "num_vertices": 2, "is_ground_truth": true, "status": "Ground Truth"}, "geometry": {"type": "LineString", "coordinates": [[5.658057472598331, 52.19749030521524], [5.658006184861837, 52.19747469412726]]}}, {"id": "44", "type": "Feature", "properties": {"line_id": "CAD_LINE_00045", "length_m": 6.088, "mean_confidence": 1.0, "num_vertices": 2, "is_ground_truth": true, "status": "Ground Truth"}, "geometry": {"type": "LineString", "coordinates": [[5.658037295461853, 52.1977802114791], [5.658066234038212, 52.19772846458425]]}}, {"id": "45", "type": "Feature", "properties": {"line_id": "CAD_LINE_00046", "length_m": 3.021, "mean_confidence": 1.0, "num_vertices": 2, "is_ground_truth": true, "status": "Ground Truth"}, "geometry": {"type": "LineString", "coordinates": [[5.658042126990582, 52.19797344033744], [5.658060259795572, 52.197948681967986]]}}, {"id": "46", "type": "Feature", "properties": {"line_id": "CAD_LINE_00047", "length_m": 3.021, "mean_confidence": 1.0, "num_vertices": 2, "is_ground_truth": true, "status": "Ground Truth"}, "geometry": {"type": "LineString", "coordinates": [[5.658071147666966, 52.19793517511179], [5.658089280440299, 52.197910416737734]]}}, {"id": "47", "type": "Feature", "properties": {"line_id": "CAD_LINE_00048", "length_m": 9.398, "mean_confidence": 1.0, "num_vertices": 4, "is_ground_truth": true, "status": "Ground Truth"}, "geometry": {"type": "LineString", "coordinates": [[5.658196074086724, 52.198033755150554], [5.6581594326700815, 52.19802148094772], [5.658119127818367, 52.19800809165871], [5.658075159537891, 52.19799358727966]]}}, {"id": "48", "type": "Feature", "properties": {"line_id": "CAD_LINE_00049", "length_m": 3.482, "mean_confidence": 1.0, "num_vertices": 2, "is_ground_truth": true, "status": "Ground Truth"}, "geometry": {"type": "LineString", "coordinates": [[5.658123632681208, 52.197546327700174], [5.6580760287671925, 52.19753520213495]]}}, {"id": "49", "type": "Feature", "properties": {"line_id": "CAD_LINE_00050", "length_m": 3.579, "mean_confidence": 1.0, "num_vertices": 2, "is_ground_truth": true, "status": "Ground Truth"}, "geometry": {"type": "LineString", "coordinates": [[5.658127070607946, 52.19751036818363], [5.658079453067819, 52.197496995674676]]}}, {"id": "50", "type": "Feature", "properties": {"line_id": "CAD_LINE_00051", "length_m": 3.881, "mean_confidence": 1.0, "num_vertices": 2, "is_ground_truth": true, "status": "Ground Truth"}, "geometry": {"type": "LineString", "coordinates": [[5.658141013594233, 52.19739798734384], [5.658086110355857, 52.197389125523344]]}}, {"id": "51", "type": "Feature", "properties": {"line_id": "CAD_LINE_00052", "length_m": 8.28, "mean_confidence": 1.0, "num_vertices": 2, "is_ground_truth": true, "status": "Ground Truth"}, "geometry": {"type": "LineString", "coordinates": [[5.658098452083884, 52.19821598442685], [5.658156561944313, 52.198150688667056]]}}, {"id": "52", "type": "Feature", "properties": {"line_id": "CAD_LINE_00053", "length_m": 3.021, "mean_confidence": 1.0, "num_vertices": 2, "is_ground_truth": true, "status": "Ground Truth"}, "geometry": {"type": "LineString", "coordinates": [[5.658096793115471, 52.19734191448846], [5.658114925633804, 52.19731715610805]]}}, {"id": "53", "type": "Feature", "properties": {"line_id": "CAD_LINE_00054", "length_m": 2.926, "mean_confidence": 1.0, "num_vertices": 2, "is_ground_truth": true, "status": "Ground Truth"}, "geometry": {"type": "LineString", "coordinates": [[5.658154101760836, 52.19774623861007], [5.658113824490779, 52.19773734320809]]}}, {"id": "54", "type": "Feature", "properties": {"line_id": "CAD_LINE_00055", "length_m": 3.021, "mean_confidence": 1.0, "num_vertices": 2, "is_ground_truth": true, "status": "Ground Truth"}, "geometry": {"type": "LineString", "coordinates": [[5.658125813334709, 52.19730364924545], [5.658143945821389, 52.19727889086044]]}}, {"id": "55", "type": "Feature", "properties": {"line_id": "CAD_LINE_00056", "length_m": 3.579, "mean_confidence": 1.0, "num_vertices": 2, "is_ground_truth": true, "status": "Ground Truth"}, "geometry": {"type": "LineString", "coordinates": [[5.658189341844916, 52.197528200965436], [5.658141724267089, 52.19751482848169]]}}, {"id": "56", "type": "Feature", "properties": {"line_id": "CAD_LINE_00057", "length_m": 3.913, "mean_confidence": 1.0, "num_vertices": 2, "is_ground_truth": true, "status": "Ground Truth"}, "geometry": {"type": "LineString", "coordinates": [[5.658198937856108, 52.19790342395532], [5.658147649594542, 52.197887812930304]]}}, {"id": "57", "type": "Feature", "properties": {"line_id": "CAD_LINE_00058", "length_m": 2.926, "mean_confidence": 1.0, "num_vertices": 2, "is_ground_truth": true, "status": "Ground Truth"}, "geometry": {"type": "LineString", "coordinates": [[5.6582088550793275, 52.197730384004934], [5.6581685778127095, 52.197721488621596]]}}, {"id": "58", "type": "Feature", "properties": {"line_id": "CAD_LINE_00059", "length_m": 5.368, "mean_confidence": 1.0, "num_vertices": 2, "is_ground_truth": true, "status": "Ground Truth"}, "geometry": {"type": "LineString", "coordinates": [[5.658171079131422, 52.198132679513996], [5.658207385718277, 52.19808990356808]]}}, {"id": "59", "type": "Feature", "properties": {"line_id": "CAD_LINE_00060", "length_m": 7.852, "mean_confidence": 1.0, "num_vertices": 4, "is_ground_truth": true, "status": "Ground Truth"}, "geometry": {"type": "LineString", "coordinates": [[5.65818766054129, 52.19725182673317], [5.658227828018603, 52.197242746550785], [5.658257080493721, 52.197242679340576], [5.658297357345099, 52.19725157469474]]}}, {"id": "60", "type": "Feature", "properties": {"line_id": "CAD_LINE_00061", "length_m": 9.179, "mean_confidence": 1.0, "num_vertices": 2, "is_ground_truth": true, "status": "Ground Truth"}, "geometry": {"type": "LineString", "coordinates": [[5.658316884621674, 52.197456004670954], [5.658199628106077, 52.19741582851878]]}}, {"id": "61", "type": "Feature", "properties": {"line_id": "CAD_LINE_00062", "length_m": 3.579, "mean_confidence": 1.0, "num_vertices": 2, "is_ground_truth": true, "status": "Ground Truth"}, "geometry": {"type": "LineString", "coordinates": [[5.658258939972951, 52.19754826385584], [5.65821132235285, 52.19753489140026]]}}, {"id": "62", "type": "Feature", "properties": {"line_id": "CAD_LINE_00063", "length_m": 3.579, "mean_confidence": 1.0, "num_vertices": 2, "is_ground_truth": true, "status": "Ground Truth"}, "geometry": {"type": "LineString", "coordinates": [[5.658268536574671, 52.19792348683834], [5.658220918550625, 52.1979101143878]]}}, {"id": "63", "type": "Feature", "properties": {"line_id": "CAD_LINE_00064", "length_m": 8.385, "mean_confidence": 1.0, "num_vertices": 2, "is_ground_truth": true, "status": "Ground Truth"}, "geometry": {"type": "LineString", "coordinates": [[5.658346351292715, 52.198091831221895], [5.658236447343806, 52.198058379136775]]}}, {"id": "64", "type": "Feature", "properties": {"line_id": "CAD_LINE_00065", "length_m": 2.574, "mean_confidence": 1.0, "num_vertices": 2, "is_ground_truth": true, "status": "Ground Truth"}, "geometry": {"type": "LineString", "coordinates": [[5.658292150070321, 52.197597621022545], [5.658259172409917, 52.19758646191908]]}}, {"id": "65", "type": "Feature", "properties": {"line_id": "CAD_LINE_00066", "length_m": 4.138, "mean_confidence": 1.0, "num_vertices": 2, "is_ground_truth": true, "status": "Ground Truth"}, "geometry": {"type": "LineString", "coordinates": [[5.658342298025887, 52.1980266782304], [5.6582873529499, 52.198011075670884]]}}, {"id": "66", "type": "Feature", "properties": {"line_id": "CAD_LINE_00067", "length_m": 4.963, "mean_confidence": 1.0, "num_vertices": 3, "is_ground_truth": true, "status": "Ground Truth"}, "geometry": {"type": "LineString", "coordinates": [[5.658304383291994, 52.19720437204304], [5.658286018466969, 52.19719093238737], [5.6582895109323434, 52.19716396064411]]}}, {"id": "67", "type": "Feature", "properties": {"line_id": "CAD_LINE_00068", "length_m": 2.85, "mean_confidence": 1.0, "num_vertices": 2, "is_ground_truth": true, "status": "Ground Truth"}, "geometry": {"type": "LineString", "coordinates": [[5.658307588571213, 52.1971302144532], [5.658318407790271, 52.1971054728471]]}}, {"id": "68", "type": "Feature", "properties": {"line_id": "CAD_LINE_00069", "length_m": 4.697, "mean_confidence": 1.0, "num_vertices": 2, "is_ground_truth": true, "status": "Ground Truth"}, "geometry": {"type": "LineString", "coordinates": [[5.658335769275964, 52.19755482822759], [5.658364789428224, 52.19751656292728]]}}, {"id": "69", "type": "Feature", "properties": {"line_id": "CAD_LINE_00070", "length_m": 3.913, "mean_confidence": 1.0, "num_vertices": 2, "is_ground_truth": true, "status": "Ground Truth"}, "geometry": {"type": "LineString", "coordinates": [[5.658408240376083, 52.19804674943479], [5.658356951876356, 52.19803113850121]]}}, {"id": "70", "type": "Feature", "properties": {"line_id": "CAD_LINE_00071", "length_m": 3.579, "mean_confidence": 1.0, "num_vertices": 2, "is_ground_truth": true, "status": "Ground Truth"}, "geometry": {"type": "LineString", "coordinates": [[5.658406219664499, 52.197114258907746], [5.658358602464217, 52.19710088651026]]}}, {"id": "71", "type": "Feature", "properties": {"line_id": "CAD_LINE_00072", "length_m": 2.926, "mean_confidence": 1.0, "num_vertices": 2, "is_ground_truth": true, "status": "Ground Truth"}, "geometry": {"type": "LineString", "coordinates": [[5.658399891504478, 52.19727605576185], [5.658359614610571, 52.19726716044274]]}}, {"id": "72", "type": "Feature", "properties": {"line_id": "CAD_LINE_00073", "length_m": 3.723, "mean_confidence": 1.0, "num_vertices": 3, "is_ground_truth": true, "status": "Ground Truth"}, "geometry": {"type": "LineString", "coordinates": [[5.658412065063196, 52.19747376169847], [5.658397452429676, 52.197476042268676], [5.658360831933238, 52.19746713854425]]}}, {"id": "73", "type": "Feature", "properties": {"line_id": "CAD_LINE_00074", "length_m": 5.154, "mean_confidence": 1.0, "num_vertices": 2, "is_ground_truth": true, "status": "Ground Truth"}, "geometry": {"type": "LineString", "coordinates": [[5.658432595342293, 52.19724227592696], [5.658363011292189, 52.1972244600826]]}}, {"id": "74", "type": "Feature", "properties": {"line_id": "CAD_LINE_00075", "length_m": 7.401, "mean_confidence": 1.0, "num_vertices": 3, "is_ground_truth": true, "status": "Ground Truth"}, "geometry": {"type": "LineString", "coordinates": [[5.658448203287142, 52.19800396500782], [5.658459145786459, 52.19799944589487], [5.65837125008608, 52.197977178207914]]}}, {"id": "75", "type": "Feature", "properties": {"line_id": "CAD_LINE_00076", "length_m": 10.992, "mean_confidence": 1.0, "num_vertices": 3, "is_ground_truth": true, "status": "Ground Truth"}, "geometry": {"type": "LineString", "coordinates": [[5.658375239387065, 52.19743115380469], [5.658405950909955, 52.19737041484129], [5.658422200260552, 52.19733667283722]]}}, {"id": "76", "type": "Feature", "properties": {"line_id": "CAD_LINE_00077", "length_m": 2.574, "mean_confidence": 1.0, "num_vertices": 2, "is_ground_truth": true, "status": "Ground Truth"}, "geometry": {"type": "LineString", "coordinates": [[5.658390955861128, 52.198210818425395], [5.6584091159297305, 52.19819055389271]]}}, {"id": "77", "type": "Feature", "properties": {"line_id": "CAD_LINE_00078", "length_m": 5.368, "mean_confidence": 1.0, "num_vertices": 2, "is_ground_truth": true, "status": "Ground Truth"}, "geometry": {"type": "LineString", "coordinates": [[5.658399914801942, 52.197880492338335], [5.65843622096407, 52.19783771632041]]}}, {"id": "78", "type": "Feature", "properties": {"line_id": "CAD_LINE_00079", "length_m": 3.579, "mean_confidence": 1.0, "num_vertices": 2, "is_ground_truth": true, "status": "Ground Truth"}, "geometry": {"type": "LineString", "coordinates": [[5.658475817243222, 52.19713432167213], [5.6584282000006665, 52.19712094930277]]}}, {"id": "79", "type": "Feature", "properties": {"line_id": "CAD_LINE_00080", "length_m": 3.25, "mean_confidence": 1.0, "num_vertices": 2, "is_ground_truth": true, "status": "Ground Truth"}, "geometry": {"type": "LineString", "coordinates": [[5.658495140017324, 52.19730504744811], [5.658451192832196, 52.1972939136244]]}}, {"id": "80", "type": "Feature", "properties": {"line_id": "CAD_LINE_00081", "length_m": 4.07, "mean_confidence": 1.0, "num_vertices": 2, "is_ground_truth": true, "status": "Ground Truth"}, "geometry": {"type": "LineString", "coordinates": [[5.65846645902929, 52.19799942907857], [5.658524923912702, 52.19799255369787]]}}, {"id": "81", "type": "Feature", "properties": {"line_id": "CAD_LINE_00082", "length_m": 5.368, "mean_confidence": 1.0, "num_vertices": 2, "is_ground_truth": true, "status": "Ground Truth"}, "geometry": {"type": "LineString", "coordinates": [[5.658536892922298, 52.198156555426834], [5.658467280035606, 52.19813424575859]]}}, {"id": "82", "type": "Feature", "properties": {"line_id": "CAD_LINE_00083", "length_m": 3.021, "mean_confidence": 1.0, "num_vertices": 2, "is_ground_truth": true, "status": "Ground Truth"}, "geometry": {"type": "LineString", "coordinates": [[5.658475608943023, 52.197700560201305], [5.6584937413963665, 52.197675801764326]]}}, {"id": "83", "type": "Feature", "properties": {"line_id": "CAD_LINE_00084", "length_m": 3.579, "mean_confidence": 1.0, "num_vertices": 2, "is_ground_truth": true, "status": "Ground Truth"}, "geometry": {"type": "LineString", "coordinates": [[5.6585439461310685, 52.198113846657776], [5.658496327821116, 52.198100474318984]]}}, {"id": "84", "type": "Feature", "properties": {"line_id": "CAD_LINE_00085", "length_m": 3.808, "mean_confidence": 1.0, "num_vertices": 2, "is_ground_truth": true, "status": "Ground Truth"}, "geometry": {"type": "LineString", "coordinates": [[5.658549071436608, 52.19715437598457], [5.65849779759971, 52.19714101205414]]}}, {"id": "85", "type": "Feature", "properties": {"line_id": "CAD_LINE_00086", "length_m": 7.077, "mean_confidence": 1.0, "num_vertices": 2, "is_ground_truth": true, "status": "Ground Truth"}, "geometry": {"type": "LineString", "coordinates": [[5.658518078461738, 52.19746902397124], [5.658548789815912, 52.197408284971196]]}}, {"id": "86", "type": "Feature", "properties": {"line_id": "CAD_LINE_00087", "length_m": 7.826, "mean_confidence": 1.0, "num_vertices": 2, "is_ground_truth": true, "status": "Ground Truth"}, "geometry": {"type": "LineString", "coordinates": [[5.658622899654899, 52.197868744626284], [5.658520322951211, 52.19783752292224]]}}, {"id": "87", "type": "Feature", "properties": {"line_id": "CAD_LINE_00088", "length_m": 4.67, "mean_confidence": 1.0, "num_vertices": 2, "is_ground_truth": true, "status": "Ground Truth"}, "geometry": {"type": "LineString", "coordinates": [[5.658524173556464, 52.19726902905211], [5.658542209999355, 52.197228541990995]]}}, {"id": "88", "type": "Feature", "properties": {"line_id": "CAD_LINE_00089", "length_m": 7.09, "mean_confidence": 1.0, "num_vertices": 3, "is_ground_truth": true, "status": "Ground Truth"}, "geometry": {"type": "LineString", "coordinates": [[5.658605562526806, 52.19742388320488], [5.658552446388809, 52.19740827656037], [5.658561423565754, 52.19738129219374]]}}, {"id": "89", "type": "Feature", "properties": {"line_id": "CAD_LINE_00090", "length_m": 3.579, "mean_confidence": 1.0, "num_vertices": 2, "is_ground_truth": true, "status": "Ground Truth"}, "geometry": {"type": "LineString", "coordinates": [[5.658613545333311, 52.19813390933625], [5.658565926981085, 52.19812053702562]]}}, {"id": "90", "type": "Feature", "properties": {"line_id": "CAD_LINE_00091", "length_m": 10.25, "mean_confidence": 1.0, "num_vertices": 2, "is_ground_truth": true, "status": "Ground Truth"}, "geometry": {"type": "LineString", "coordinates": [[5.658721216995884, 52.1972011663978], [5.658574831563253, 52.197181280446486]]}}, {"id": "91", "type": "Feature", "properties": {"line_id": "CAD_LINE_00092", "length_m": 2.926, "mean_confidence": 1.0, "num_vertices": 2, "is_ground_truth": true, "status": "Ground Truth"}, "geometry": {"type": "LineString", "coordinates": [[5.6585758992732025, 52.19735654215399], [5.658590374964598, 52.197331792112294]]}}, {"id": "92", "type": "Feature", "properties": {"line_id": "CAD_LINE_00093", "length_m": 3.021, "mean_confidence": 1.0, "num_vertices": 2, "is_ground_truth": true, "status": "Ground Truth"}, "geometry": {"type": "LineString", "coordinates": [[5.658589006035452, 52.19710709761381], [5.658607138184952, 52.19708233915704]]}}, {"id": "93", "type": "Feature", "properties": {"line_id": "CAD_LINE_00094", "length_m": 3.953, "mean_confidence": 1.0, "num_vertices": 2, "is_ground_truth": true, "status": "Ground Truth"}, "geometry": {"type": "LineString", "coordinates": [[5.658667600591732, 52.19800346034226], [5.6586126828123025, 52.19799235182353]]}}, {"id": "94", "type": "Feature", "properties": {"line_id": "CAD_LINE_00095", "length_m": 3.579, "mean_confidence": 1.0, "num_vertices": 2, "is_ground_truth": true, "status": "Ground Truth"}, "geometry": {"type": "LineString", "coordinates": [[5.658675160678764, 52.19744394585019], [5.658627543045601, 52.19743057356229]]}}, {"id": "95", "type": "Feature", "properties": {"line_id": "CAD_LINE_00096", "length_m": 2.926, "mean_confidence": 1.0, "num_vertices": 2, "is_ground_truth": true, "status": "Ground Truth"}, "geometry": {"type": "LineString", "coordinates": [[5.6586741058977115, 52.19787087377653], [5.658633828411529, 52.19786197855232]]}}, {"id": "96", "type": "Feature", "properties": {"line_id": "CAD_LINE_00097", "length_m": 5.256, "mean_confidence": 1.0, "num_vertices": 2, "is_ground_truth": true, "status": "Ground Truth"}, "geometry": {"type": "LineString", "coordinates": [[5.658707316619043, 52.19732028814373], [5.658637718645834, 52.19730022551679]]}}, {"id": "97", "type": "Feature", "properties": {"line_id": "CAD_LINE_00098", "length_m": 3.579, "mean_confidence": 1.0, "num_vertices": 2, "is_ground_truth": true, "status": "Ground Truth"}, "geometry": {"type": "LineString", "coordinates": [[5.658683363708377, 52.19818992308709], [5.658705125488815, 52.19816066231546]]}}, {"id": "98", "type": "Feature", "properties": {"line_id": "CAD_LINE_00099", "length_m": 3.288, "mean_confidence": 1.0, "num_vertices": 2, "is_ground_truth": true, "status": "Ground Truth"}, "geometry": {"type": "LineString", "coordinates": [[5.658734693143641, 52.19761233206363], [5.658687130090098, 52.197607947579534]]}}, {"id": "99", "type": "Feature", "properties": {"line_id": "CAD_LINE_00100", "length_m": 3.021, "mean_confidence": 1.0, "num_vertices": 2, "is_ground_truth": true, "status": "Ground Truth"}, "geometry": {"type": "LineString", "coordinates": [[5.6587301051906875, 52.19745954823112], [5.658689814370776, 52.197448406080284]]}}, {"id": "100", "type": "Feature", "properties": {"line_id": "CAD_LINE_00101", "length_m": 2.574, "mean_confidence": 1.0, "num_vertices": 2, "is_ground_truth": true, "status": "Ground Truth"}, "geometry": {"type": "LineString", "coordinates": [[5.658708768325686, 52.19755846430101], [5.658741609106805, 52.19754715383059]]}}, {"id": "101", "type": "Feature", "properties": {"line_id": "CAD_LINE_00102", "length_m": 8.963, "mean_confidence": 1.0, "num_vertices": 4, "is_ground_truth": true, "status": "Ground Truth"}, "geometry": {"type": "LineString", "coordinates": [[5.658842801375916, 52.19735143391453], [5.6588098922624, 52.19735150968887], [5.658787918604975, 52.19734594283774], [5.658721970273589, 52.197324748369915]]}}, {"id": "102", "type": "Feature", "properties": {"line_id": "CAD_LINE_00103", "length_m": 9.254, "mean_confidence": 1.0, "num_vertices": 3, "is_ground_truth": true, "status": "Ground Truth"}, "geometry": {"type": "LineString", "coordinates": [[5.65872536693095, 52.19788199068334], [5.658811400061342, 52.19789864495478], [5.658827697252158, 52.19787276720454]]}}, {"id": "103", "type": "Feature", "properties": {"line_id": "CAD_LINE_00104", "length_m": 3.354, "mean_confidence": 1.0, "num_vertices": 2, "is_ground_truth": true, "status": "Ground Truth"}, "geometry": {"type": "LineString", "coordinates": [[5.658788720018791, 52.197477389113146], [5.658744758893318, 52.19746400845437]]}}, {"id": "104", "type": "Feature", "properties": {"line_id": "CAD_LINE_00105", "length_m": 6.313, "mean_confidence": 1.0, "num_vertices": 3, "is_ground_truth": true, "status": "Ground Truth"}, "geometry": {"type": "LineString", "coordinates": [[5.658761699371478, 52.19724376576797], [5.658781639210667, 52.19721563265883], [5.658823669064844, 52.1972121654272]]}}, {"id": "105", "type": "Feature", "properties": {"line_id": "CAD_LINE_00106", "length_m": 6.712, "mean_confidence": 1.0, "num_vertices": 3, "is_ground_truth": true, "status": "Ground Truth"}, "geometry": {"type": "LineString", "coordinates": [[5.658858937095036, 52.19819850681532], [5.65880765511342, 52.19818401955055], [5.658771013405102, 52.1981717455381]]}}, {"id": "106", "type": "Feature", "properties": {"line_id": "CAD_LINE_00107", "length_m": 2.943, "mean_confidence": 1.0, "num_vertices": 4, "is_ground_truth": true, "status": "Ground Truth"}, "geometry": {"type": "LineString", "coordinates": [[5.658795787850044, 52.19803686993525], [5.658806675519915, 52.19802336301157], [5.6587993348729615, 52.198018885959684], [5.658802964095165, 52.19801438365177]]}}, {"id": "107", "type": "Feature", "properties": {"line_id": "CAD_LINE_00108", "length_m": 5.236, "mean_confidence": 1.0, "num_vertices": 3, "is_ground_truth": true, "status": "Ground Truth"}, "geometry": {"type": "LineString", "coordinates": [[5.658821355203876, 52.19743237444749], [5.658824861065142, 52.197407649634656], [5.658799169156178, 52.19739197995303]]}}, {"id": "108", "type": "Feature", "properties": {"line_id": "CAD_LINE_00109", "length_m": 18.965, "mean_confidence": 1.0, "num_vertices": 6, "is_ground_truth": true, "status": "Ground Truth"}, "geometry": {"type": "LineString", "coordinates": [[5.658838023087817, 52.19776713554439], [5.65887827997279, 52.197772660282006], [5.658889160700953, 52.1977580298778], [5.658879621777708, 52.19769288953333], [5.658874082068193, 52.19768391438574], [5.658811687034325, 52.19764585946295]]}}, {"id": "109", "type": "Feature", "properties": {"line_id": "CAD_LINE_00110", "length_m": 9.398, "mean_confidence": 1.0, "num_vertices": 4, "is_ground_truth": true, "status": "Ground Truth"}, "geometry": {"type": "LineString", "coordinates": [[5.658934904060556, 52.19806351328709], [5.658890935460465, 52.19804900921229], [5.6588506303645545, 52.19803562017325], [5.6588139887665, 52.19802334617375]]}}, {"id": "110", "type": "Feature", "properties": {"line_id": "CAD_LINE_00111", "length_m": 7.295, "mean_confidence": 1.0, "num_vertices": 4, "is_ground_truth": true, "status": "Ground Truth"}, "geometry": {"type": "LineString", "coordinates": [[5.658851635496484, 52.19760082795217], [5.65882594346664, 52.19758515827695], [5.65882040378136, 52.19757618312668], [5.658818369973646, 52.19754248316403]]}}, {"id": "111", "type": "Feature", "properties": {"line_id": "CAD_LINE_00112", "length_m": 4.743, "mean_confidence": 1.0, "num_vertices": 2, "is_ground_truth": true, "status": "Ground Truth"}, "geometry": {"type": "LineString", "coordinates": [[5.658845788472346, 52.197841267880214], [5.65886748145863, 52.19780077235346]]}}, {"id": "112", "type": "Feature", "properties": {"line_id": "CAD_LINE_00113", "length_m": 2.512, "mean_confidence": 1.0, "num_vertices": 2, "is_ground_truth": true, "status": "Ground Truth"}, "geometry": {"type": "LineString", "coordinates": [[5.6588455261921515, 52.19719863323972], [5.658882078044303, 52.197196302089544]]}}, {"id": "113", "type": "Feature", "properties": {"line_id": "CAD_LINE_00114", "length_m": 2.926, "mean_confidence": 1.0, "num_vertices": 2, "is_ground_truth": true, "status": "Ground Truth"}, "geometry": {"type": "LineString", "coordinates": [[5.658847334893779, 52.19749522996595], [5.658861810479287, 52.1974704798917]]}}, {"id": "114", "type": "Feature", "properties": {"line_id": "CAD_LINE_00115", "length_m": 2.795, "mean_confidence": 1.0, "num_vertices": 2, "is_ground_truth": true, "status": "Ground Truth"}, "geometry": {"type": "LineString", "coordinates": [[5.65891755294693, 52.198216347630265], [5.658880918034001, 52.198205197124366]]}}, {"id": "115", "type": "Feature", "properties": {"line_id": "CAD_LINE_00116", "length_m": 2.926, "mean_confidence": 1.0, "num_vertices": 2, "is_ground_truth": true, "status": "Ground Truth"}, "geometry": {"type": "LineString", "coordinates": [[5.658908033047524, 52.19785460639193], [5.658922508715665, 52.19782985631176]]}}, {"id": "116", "type": "Feature", "properties": {"line_id": "CAD_LINE_00117", "length_m": 18.729, "mean_confidence": 1.0, "num_vertices": 7, "is_ground_truth": true, "status": "Ground Truth"}, "geometry": {"type": "LineString", "coordinates": [[5.658922492038731, 52.19722766667983], [5.658918657304342, 52.19719846481793], [5.658911303076666, 52.1971917408273], [5.658914932220357, 52.197187238515376], [5.6588852412493384, 52.19711540364967], [5.6588923761883185, 52.19708617652224], [5.658917876072526, 52.19707038895469]]}}, {"id": "117", "type": "Feature", "properties": {"line_id": "CAD_LINE_00118", "length_m": 4.326, "mean_confidence": 1.0, "num_vertices": 3, "is_ground_truth": true, "status": "Ground Truth"}, "geometry": {"type": "LineString", "coordinates": [[5.658923410349104, 52.19737821198822], [5.658959838972271, 52.197355658310045], [5.658970794969143, 52.19735338609416]]}}, {"id": "118", "type": "Feature", "properties": {"line_id": "CAD_LINE_00119", "length_m": 4.138, "mean_confidence": 1.0, "num_vertices": 2, "is_ground_truth": true, "status": "Ground Truth"}, "geometry": {"type": "LineString", "coordinates": [[5.659002885526046, 52.1978184362686], [5.658947940476227, 52.197802834016]]}}, {"id": "119", "type": "Feature", "properties": {"line_id": "CAD_LINE_00120", "length_m": 3.988, "mean_confidence": 1.0, "num_vertices": 3, "is_ground_truth": true, "status": "Ground Truth"}, "geometry": {"type": "LineString", "coordinates": [[5.659016524756814, 52.19765662254878], [5.6590019532251805, 52.197665644028014], [5.658968975337072, 52.19765448512311]]}}, {"id": "120", "type": "Feature", "properties": {"line_id": "CAD_LINE_00121", "length_m": 4.243, "mean_confidence": 1.0, "num_vertices": 2, "is_ground_truth": true, "status": "Ground Truth"}, "geometry": {"type": "LineString", "coordinates": [[5.659013110771187, 52.19709713327913], [5.658969067703588, 52.19707027103293]]}}, {"id": "121", "type": "Feature", "properties": {"line_id": "CAD_LINE_00122", "length_m": 3.281, "mean_confidence": 1.0, "num_vertices": 3, "is_ground_truth": true, "status": "Ground Truth"}, "geometry": {"type": "LineString", "coordinates": [[5.659017100619535, 52.19775099422737], [5.658984122664456, 52.19773983532692], [5.6589914084449315, 52.197735324588706]]}}]}