{"type": "FeatureCollection", "features": [{"id": "0", "type": "Feature", "properties": {"line_id": "CAD_LINE_00001", "length_m": 2.55, "mean_confidence": 1.0, "num_vertices": 2, "is_ground_truth": true, "status": "Ground Truth"}, "geometry": {"type": "LineString", "coordinates": [[5.649694360715843, 52.20362772217128], [5.649730905078834, 52.20362314690988]]}}, {"id": "1", "type": "Feature", "properties": {"line_id": "CAD_LINE_00002", "length_m": 88.208, "mean_confidence": 1.0, "num_vertices": 13, "is_ground_truth": true, "status": "Ground Truth"}, "geometry": {"type": "LineString", "coordinates": [[5.649709917855884, 52.20316481105361], [5.649750138753685, 52.20316359806471], [5.649794010072313, 52.20316125345032], [5.6498890667889, 52.2031565478872], [5.650035308871907, 52.20314948125172], [5.650144993719985, 52.2031447428922], [5.650218121362167, 52.20314233291052], [5.650470391078825, 52.203130535363115], [5.650616632983005, 52.20312346800759], [5.650726317704286, 52.20311872910799], [5.6507994452717, 52.203116318766256], [5.650909129955643, 52.20311157969685], [5.650996879016751, 52.203108013062305]]}}, {"id": "2", "type": "Feature", "properties": {"line_id": "CAD_LINE_00003", "length_m": 33.918, "mean_confidence": 1.0, "num_vertices": 8, "is_ground_truth": true, "status": "Ground Truth"}, "geometry": {"type": "LineString", "coordinates": [[5.6497454274513155, 52.20360513880714], [5.6497229286699095, 52.20351081599678], [5.649763096892553, 52.20350061522814], [5.649836198638848, 52.20349371159521], [5.649891021620354, 52.20348797210488], [5.649905663169608, 52.20349018647613], [5.649920264956259, 52.20348566001424], [5.650055510372121, 52.20347412389676]]}}, {"id": "3", "type": "Feature", "properties": {"line_id": "CAD_LINE_00004", "length_m": 7.215, "mean_confidence": 1.0, "num_vertices": 3, "is_ground_truth": true, "status": "Ground Truth"}, "geometry": {"type": "LineString", "coordinates": [[5.6498062063647865, 52.203989235946054], [5.6497932209837565, 52.20395780722599], [5.649780235621076, 52.2039263785043]]}}, {"id": "4", "type": "Feature", "properties": {"line_id": "CAD_LINE_00005", "length_m": 3.335, "mean_confidence": 1.0, "num_vertices": 2, "is_ground_truth": true, "status": "Ground Truth"}, "geometry": {"type": "LineString", "coordinates": [[5.649861010081841, 52.203980126054326], [5.649849866471971, 52.20395094021307]]}}, {"id": "5", "type": "Feature", "properties": {"line_id": "CAD_LINE_00006", "length_m": 2.809, "mean_confidence": 1.0, "num_vertices": 2, "is_ground_truth": true, "status": "Ground Truth"}, "geometry": {"type": "LineString", "coordinates": [[5.649889895902099, 52.20391714649391], [5.649924558907614, 52.20390358746965]]}}, {"id": "6", "type": "Feature", "properties": {"line_id": "CAD_LINE_00007", "length_m": 4.653, "mean_confidence": 1.0, "num_vertices": 4, "is_ground_truth": true, "status": "Ground Truth"}, "geometry": {"type": "LineString", "coordinates": [[5.649895222084567, 52.20358008865622], [5.649884091805678, 52.2035531497598], [5.649884065299915, 52.20354865587229], [5.649894996776045, 52.20354189061243]]}}, {"id": "7", "type": "Feature", "properties": {"line_id": "CAD_LINE_00008", "length_m": 3.989, "mean_confidence": 1.0, "num_vertices": 4, "is_ground_truth": true, "status": "Ground Truth"}, "geometry": {"type": "LineString", "coordinates": [[5.649920490286069, 52.203523858058325], [5.649927751419307, 52.20351485399542], [5.649905729439361, 52.20350142119499], [5.649905689677505, 52.203494680363676]]}}, {"id": "8", "type": "Feature", "properties": {"line_id": "CAD_LINE_00009", "length_m": 22.518, "mean_confidence": 1.0, "num_vertices": 7, "is_ground_truth": true, "status": "Ground Truth"}, "geometry": {"type": "LineString", "coordinates": [[5.650050901528842, 52.20393251670194], [5.6500105274623, 52.203907889942315], [5.6499958791412555, 52.20390455211251], [5.649970259499236, 52.20390123871756], [5.649930044569507, 52.203903575253555], [5.649927990676609, 52.203865381284075], [5.649933012392423, 52.203786726040406]]}}, {"id": "9", "type": "Feature", "properties": {"line_id": "CAD_LINE_00010", "length_m": 27.178, "mean_confidence": 1.0, "num_vertices": 8, "is_ground_truth": true, "status": "Ground Truth"}, "geometry": {"type": "LineString", "coordinates": [[5.649943453448891, 52.203696823860284], [5.650031263412476, 52.20370336918963], [5.6501080291724755, 52.20369758071298], [5.6502213326423725, 52.20368609330141], [5.650287120442523, 52.2036792056954], [5.650312713431212, 52.20367802513449], [5.650327315237944, 52.20367349862232], [5.65033464269149, 52.2036757292529]]}}, {"id": "10", "type": "Feature", "properties": {"line_id": "CAD_LINE_00011", "length_m": 12.555, "mean_confidence": 1.0, "num_vertices": 3, "is_ground_truth": true, "status": "Ground Truth"}, "geometry": {"type": "LineString", "coordinates": [[5.650137756833792, 52.20377728201169], [5.650057260903035, 52.20377072046582], [5.649954875443158, 52.20377319551109]]}}, {"id": "11", "type": "Feature", "properties": {"line_id": "CAD_LINE_00012", "length_m": 5.46, "mean_confidence": 1.0, "num_vertices": 2, "is_ground_truth": true, "status": "Ground Truth"}, "geometry": {"type": "LineString", "coordinates": [[5.6500728176653565, 52.20392797392543], [5.650149537374331, 52.203914321119186]]}}, {"id": "12", "type": "Feature", "properties": {"line_id": "CAD_LINE_00013", "length_m": 60.392, "mean_confidence": 1.0, "num_vertices": 14, "is_ground_truth": true, "status": "Ground Truth"}, "geometry": {"type": "LineString", "coordinates": [[5.650106669596898, 52.203467268982344], [5.650113997005496, 52.20346949962671], [5.650132255836051, 52.20346496498871], [5.6502163353149735, 52.20345916014068], [5.650289436922566, 52.203452256227116], [5.650395425582096, 52.20344078495866], [5.650468527131607, 52.203433880934234], [5.650541628658391, 52.20342697686457], [5.6506147301624425, 52.20342007274962], [5.650662265401384, 52.20341884311898], [5.650673210020058, 52.20341432473069], [5.650695145778765, 52.203413152254], [5.65076824723619, 52.20340624804402], [5.650976586930546, 52.20338668314439]]}}, {"id": "13", "type": "Feature", "properties": {"line_id": "CAD_LINE_00014", "length_m": 15.454, "mean_confidence": 1.0, "num_vertices": 4, "is_ground_truth": true, "status": "Ground Truth"}, "geometry": {"type": "LineString", "coordinates": [[5.65017012674841, 52.20368508396254], [5.65016078502029, 52.203651400186054], [5.6501420883406475, 52.20358178568645], [5.650132746655507, 52.203548101907096]]}}, {"id": "14", "type": "Feature", "properties": {"line_id": "CAD_LINE_00015", "length_m": 13.195, "mean_confidence": 1.0, "num_vertices": 3, "is_ground_truth": true, "status": "Ground Truth"}, "geometry": {"type": "LineString", "coordinates": [[5.650192056019552, 52.203682788107486], [5.650182687739393, 52.20364461044535], [5.650158452340145, 52.20356602040127]]}}, {"id": "15", "type": "Feature", "properties": {"line_id": "CAD_LINE_00016", "length_m": 13.869, "mean_confidence": 1.0, "num_vertices": 3, "is_ground_truth": true, "status": "Ground Truth"}, "geometry": {"type": "LineString", "coordinates": [[5.650187669176877, 52.20355921435695], [5.650290054131864, 52.20355673911003], [5.65030869793475, 52.20361736581163]]}}, {"id": "16", "type": "Feature", "properties": {"line_id": "CAD_LINE_00017", "length_m": 2.795, "mean_confidence": 1.0, "num_vertices": 2, "is_ground_truth": true, "status": "Ground Truth"}, "geometry": {"type": "LineString", "coordinates": [[5.65023668425657, 52.20380851911566], [5.650229224082245, 52.20378381904296]]}}, {"id": "17", "type": "Feature", "properties": {"line_id": "CAD_LINE_00018", "length_m": 14.303, "mean_confidence": 1.0, "num_vertices": 4, "is_ground_truth": true, "status": "Ground Truth"}, "geometry": {"type": "LineString", "coordinates": [[5.650292615917894, 52.20399039922673], [5.6502852618681185, 52.203983674706706], [5.6502778016373805, 52.203958974637914], [5.650255301549363, 52.20386465193579]]}}, {"id": "18", "type": "Feature", "properties": {"line_id": "CAD_LINE_00019", "length_m": 9.709, "mean_confidence": 1.0, "num_vertices": 3, "is_ground_truth": true, "status": "Ground Truth"}, "geometry": {"type": "LineString", "coordinates": [[5.650299545201883, 52.203925221553234], [5.650286506398528, 52.20388480511305], [5.650269783971016, 52.20383990293866]]}}, {"id": "19", "type": "Feature", "properties": {"line_id": "CAD_LINE_00020", "length_m": 6.644, "mean_confidence": 1.0, "num_vertices": 4, "is_ground_truth": true, "status": "Ground Truth"}, "geometry": {"type": "LineString", "coordinates": [[5.650288016390652, 52.20383087438962], [5.650342859642482, 52.2038285051049], [5.650357461495422, 52.20382397858914], [5.650383074482582, 52.20382616842833]]}}, {"id": "20", "type": "Feature", "properties": {"line_id": "CAD_LINE_00021", "length_m": 7.721, "mean_confidence": 1.0, "num_vertices": 3, "is_ground_truth": true, "status": "Ground Truth"}, "geometry": {"type": "LineString", "coordinates": [[5.650306952341557, 52.203940933846674], [5.650323601830946, 52.20397347782556], [5.650380253895922, 52.20396773402995]]}}, {"id": "21", "type": "Feature", "properties": {"line_id": "CAD_LINE_00022", "length_m": 4.791, "mean_confidence": 1.0, "num_vertices": 2, "is_ground_truth": true, "status": "Ground Truth"}, "geometry": {"type": "LineString", "coordinates": [[5.650319270942358, 52.20354993303312], [5.650386860508959, 52.203538547406026]]}}, {"id": "22", "type": "Feature", "properties": {"line_id": "CAD_LINE_00023", "length_m": 2.512, "mean_confidence": 1.0, "num_vertices": 2, "is_ground_truth": true, "status": "Ground Truth"}, "geometry": {"type": "LineString", "coordinates": [[5.650323631598807, 52.20366901289144], [5.650319841761239, 52.203646551611165]]}}, {"id": "23", "type": "Feature", "properties": {"line_id": "CAD_LINE_00024", "length_m": 41.652, "mean_confidence": 1.0, "num_vertices": 8, "is_ground_truth": true, "status": "Ground Truth"}, "geometry": {"type": "LineString", "coordinates": [[5.6503574349417125, 52.203819484701974], [5.650349868486932, 52.20377680908831], [5.650470532777254, 52.203773169425666], [5.650642409693452, 52.20377166226764], [5.650649697304171, 52.203767152047895], [5.6506826311129865, 52.20377044896078], [5.650755812939882, 52.203777026419836], [5.6508838712111995, 52.20378685165634]]}}, {"id": "24", "type": "Feature", "properties": {"line_id": "CAD_LINE_00025", "length_m": 15.203, "mean_confidence": 1.0, "num_vertices": 3, "is_ground_truth": true, "status": "Ground Truth"}, "geometry": {"type": "LineString", "coordinates": [[5.650362571699848, 52.20345096962766], [5.650392346125751, 52.20353853516849], [5.650469144760462, 52.20353836381625]]}}, {"id": "25", "type": "Feature", "properties": {"line_id": "CAD_LINE_00026", "length_m": 3.26, "mean_confidence": 1.0, "num_vertices": 2, "is_ground_truth": true, "status": "Ground Truth"}, "geometry": {"type": "LineString", "coordinates": [[5.650408700751684, 52.20383060520552], [5.650404871019634, 52.20380140309792]]}}, {"id": "26", "type": "Feature", "properties": {"line_id": "CAD_LINE_00027", "length_m": 32.472, "mean_confidence": 1.0, "num_vertices": 6, "is_ground_truth": true, "status": "Ground Truth"}, "geometry": {"type": "LineString", "coordinates": [[5.65046799804453, 52.20396304431615], [5.650471668439877, 52.20396528309884], [5.650493584549469, 52.20396074024424], [5.650537463256163, 52.203959518825144], [5.650705643893045, 52.203951278907006], [5.650939712342148, 52.203953002855656]]}}, {"id": "27", "type": "Feature", "properties": {"line_id": "CAD_LINE_00028", "length_m": 2.5, "mean_confidence": 1.0, "num_vertices": 2, "is_ground_truth": true, "status": "Ground Truth"}, "geometry": {"type": "LineString", "coordinates": [[5.650480355086926, 52.203578784319305], [5.650480222257426, 52.203556314882654]]}}, {"id": "28", "type": "Feature", "properties": {"line_id": "CAD_LINE_00029", "length_m": 8.913, "mean_confidence": 1.0, "num_vertices": 4, "is_ground_truth": true, "status": "Ground Truth"}, "geometry": {"type": "LineString", "coordinates": [[5.650498388099178, 52.203536051582375], [5.650502058460843, 52.2035382903643], [5.650534945589713, 52.2035337230158], [5.650626359234694, 52.20353127196528]]}}, {"id": "29", "type": "Feature", "properties": {"line_id": "CAD_LINE_00030", "length_m": 36.893, "mean_confidence": 1.0, "num_vertices": 4, "is_ground_truth": true, "status": "Ground Truth"}, "geometry": {"type": "LineString", "coordinates": [[5.65063737033888, 52.20353798829866], [5.65063090013258, 52.203680685550765], [5.6505211808053195, 52.203679807003105], [5.650513149255643, 52.20355848837125]]}}, {"id": "30", "type": "Feature", "properties": {"line_id": "CAD_LINE_00031", "length_m": 7.044, "mean_confidence": 1.0, "num_vertices": 3, "is_ground_truth": true, "status": "Ground Truth"}, "geometry": {"type": "LineString", "coordinates": [[5.65064197108458, 52.20369751312967], [5.650693157062542, 52.20369515184842], [5.650686028988501, 52.2037266253938]]}}, {"id": "31", "type": "Feature", "properties": {"line_id": "CAD_LINE_00032", "length_m": 21.78, "mean_confidence": 1.0, "num_vertices": 7, "is_ground_truth": true, "status": "Ground Truth"}, "geometry": {"type": "LineString", "coordinates": [[5.650766059521726, 52.203654543485996], [5.650769583633321, 52.20363206588], [5.650776844612502, 52.2036230617651], [5.650776565356438, 52.20357587594934], [5.6507690384346, 52.20353994119176], [5.650761671090321, 52.20353096975723], [5.650648301697912, 52.20353122296911]]}}, {"id": "32", "type": "Feature", "properties": {"line_id": "CAD_LINE_00033", "length_m": 10.957, "mean_confidence": 1.0, "num_vertices": 3, "is_ground_truth": true, "status": "Ground Truth"}, "geometry": {"type": "LineString", "coordinates": [[5.650781179902744, 52.203737647717055], [5.650931120759819, 52.20373731263145], [5.650938408335674, 52.20373280239391]]}}, {"id": "33", "type": "Feature", "properties": {"line_id": "CAD_LINE_00034", "length_m": 8.754, "mean_confidence": 1.0, "num_vertices": 3, "is_ground_truth": true, "status": "Ground Truth"}, "geometry": {"type": "LineString", "coordinates": [[5.650802457504609, 52.20362525151346], [5.650860977513542, 52.20362624423234], [5.650930468780061, 52.203627212397365]]}}, {"id": "34", "type": "Feature", "properties": {"line_id": "CAD_LINE_00035", "length_m": 8.404, "mean_confidence": 1.0, "num_vertices": 2, "is_ground_truth": true, "status": "Ground Truth"}, "geometry": {"type": "LineString", "coordinates": [[5.650860172735243, 52.20349030414378], [5.650973369020852, 52.2034608404613]]}}, {"id": "35", "type": "Feature", "properties": {"line_id": "CAD_LINE_00036", "length_m": 128.109, "mean_confidence": 1.0, "num_vertices": 25, "is_ground_truth": true, "status": "Ground Truth"}, "geometry": {"type": "LineString", "coordinates": [[5.650947239471954, 52.203988937599554], [5.65094702656563, 52.20395298650459], [5.650954194412177, 52.203928253775175], [5.650955623755418, 52.20386084138331], [5.650953502451059, 52.20381141271448], [5.65096077672948, 52.203804655532075], [5.6509623125176995, 52.203755218686865], [5.650965623618433, 52.203696789978856], [5.650969014556341, 52.20365184293163], [5.650972418795268, 52.20360914282746], [5.650975836335682, 52.20356868966648], [5.650979240561864, 52.20352598956152], [5.650982631473349, 52.20348104251249], [5.650985942527712, 52.203422613801216], [5.6509839010610605, 52.20338666679108], [5.650991042179367, 52.20335744016968], [5.650992577919485, 52.20330800332014], [5.651002763853863, 52.20317540910921], [5.651006154715578, 52.20313046205674], [5.651009439095001, 52.20306753945361], [5.651012723465306, 52.203004616849654], [5.651016114304288, 52.20295966979556], [5.65101950513651, 52.20291472274105], [5.651022895961974, 52.20286977568605], [5.651028208462267, 52.20284055314873]]}}, {"id": "36", "type": "Feature", "properties": {"line_id": "CAD_LINE_00037", "length_m": 126.908, "mean_confidence": 1.0, "num_vertices": 23, "is_ground_truth": true, "status": "Ground Truth"}, "geometry": {"type": "LineString", "coordinates": [[5.6510678710048925, 52.203979679967595], [5.651067644688597, 52.203941481929434], [5.651074759214115, 52.203907761418954], [5.651072677714088, 52.203865073583145], [5.651075935425716, 52.2037976570994], [5.65107932625985, 52.20375271004985], [5.651082717087229, 52.203707762999784], [5.651086107907845, 52.20366281594935], [5.651089498721704, 52.20361786889844], [5.6510928895288055, 52.20357292184707], [5.651096280329144, 52.20352797479524], [5.651099671122724, 52.20348302774296], [5.651102928766622, 52.20341561125395], [5.6511061864008445, 52.20334819476407], [5.651109577171079, 52.20330324771005], [5.651119842646525, 52.2031841351515], [5.651123233390798, 52.203139188095854], [5.651126624128313, 52.20309424103976], [5.65113001485907, 52.203049293983184], [5.651133405583066, 52.20300434692614], [5.651136796300303, 52.20295939986869], [5.651140226958694, 52.20292119364224], [5.651137919074476, 52.202840307754734]]}}, {"id": "37", "type": "Feature", "properties": {"line_id": "CAD_LINE_00038", "length_m": 2.693, "mean_confidence": 1.0, "num_vertices": 2, "is_ground_truth": true, "status": "Ground Truth"}, "geometry": {"type": "LineString", "coordinates": [[5.651198927734021, 52.20387827298242], [5.651235445504831, 52.2038692033686]]}}, {"id": "38", "type": "Feature", "properties": {"line_id": "CAD_LINE_00039", "length_m": 2.926, "mean_confidence": 1.0, "num_vertices": 2, "is_ground_truth": true, "status": "Ground Truth"}, "geometry": {"type": "LineString", "coordinates": [[5.651399775289329, 52.203828389966425], [5.651439950078944, 52.20381931209955]]}}]}