{"type": "FeatureCollection", "features": [{"id": "0", "type": "Feature", "properties": {"building_id": "BLD_001", "type": "Residential", "layer": "Supporting Building Footprint"}, "geometry": {"type": "Polygon", "coordinates": [[[5.658267583879321, 52.19175778306086], [5.6582692243954895, 52.19202741671797], [5.65783048859249, 52.19202842412078], [5.657828850729909, 52.19175879045583], [5.658267583879321, 52.19175778306086]]]}}, {"id": "1", "type": "Feature", "properties": {"building_id": "BLD_002", "type": "Outbuilding", "layer": "Supporting Building Footprint"}, "geometry": {"type": "Polygon", "coordinates": [[[5.658707686312436, 52.191981468743606], [5.6587087817691115, 52.19216122450409], [5.658416290367007, 52.19216189737707], [5.658415196089714, 52.19198214161308], [5.658707686312436, 52.191981468743606]]]}}], "layer_info": "Supporting Building Footprints (Context Layer)"}