{"type": "FeatureCollection", "features": [{"id": "0", "type": "Feature", "properties": {"building_id": "BLD_001", "type": "Residential", "layer": "Supporting Building Footprint"}, "geometry": {"type": "Polygon", "coordinates": [[[6.018176735752055, 50.86507984422301], [6.0181804099453435, 50.86534949430488], [6.0177543143238434, 50.86535181871001], [6.017750642610723, 50.86508216861027], [6.018176735752055, 50.86507984422301]]]}}, {"id": "1", "type": "Feature", "properties": {"building_id": "BLD_002", "type": "Outbuilding", "layer": "Supporting Building Footprint"}, "geometry": {"type": "Polygon", "coordinates": [[[6.018605892734938, 50.865302226652645], [6.01860834387261, 50.86548199336269], [6.018324279336756, 50.8654835441929], [6.01832182930139, 50.86530377747494], [6.018605892734938, 50.865302226652645]]]}}], "layer_info": "Supporting Building Footprints (Context Layer)"}