{"type": "FeatureCollection", "features": [{"id": "0", "type": "Feature", "properties": {"building_id": "BLD_001", "type": "Residential", "layer": "Supporting Building Footprint"}, "geometry": {"type": "Polygon", "coordinates": [[[4.66094102771326, 52.29467315556921], [4.660936622806754, 52.29494276898463], [4.660496896179753, 52.29494006732961], [4.660501303753375, 52.29467045393536], [4.66094102771326, 52.29467315556921]]]}}, {"id": "1", "type": "Feature", "properties": {"building_id": "BLD_002", "type": "Outbuilding", "layer": "Supporting Building Footprint"}, "geometry": {"type": "Polygon", "coordinates": [[[4.661377083206079, 52.29490053343237], [4.661374148352505, 52.29508027571717], [4.6610809963309645, 52.29507847587882], [4.661083932369935, 52.29489873360343], [4.661377083206079, 52.29490053343237]]]}}], "layer_info": "Supporting Building Footprints (Context Layer)"}