{"type": "FeatureCollection", "features": [{"id": "0", "type": "Feature", "properties": {"building_id": "BLD_001", "type": "Residential", "layer": "Supporting Building Footprint"}, "geometry": {"type": "Polygon", "coordinates": [[[4.618287149121203, 52.265641623831804], [4.618282489428887, 52.26591123660158], [4.61784305328612, 52.26590837684544], [4.617847715641458, 52.26563876409805], [4.618287149121203, 52.265641623831804]]]}}, {"id": "1", "type": "Feature", "properties": {"building_id": "BLD_002", "type": "Outbuilding", "layer": "Supporting Building Footprint"}, "geometry": {"type": "Polygon", "coordinates": [[[4.618722701812713, 52.26586915925932], [4.618719597097646, 52.26604890111462], [4.618426638730897, 52.26604699587397], [4.618429744629543, 52.26586725402861], [4.618722701812713, 52.26586915925932]]]}}], "layer_info": "Supporting Building Footprints (Context Layer)"}