{"type": "FeatureCollection", "features": [{"id": "0", "type": "Feature", "properties": {"building_id": "BLD_001", "type": "Residential", "layer": "Supporting Building Footprint"}, "geometry": {"type": "Polygon", "coordinates": [[[5.650847951177735, 52.2032791159558], [5.650849547353928, 52.20354874919642], [5.650410697912184, 52.20354972909329], [5.650409104391164, 52.203280095844946], [5.650847951177735, 52.2032791159558]]]}}, {"id": "1", "type": "Feature", "properties": {"building_id": "BLD_002", "type": "Outbuilding", "layer": "Supporting Building Footprint"}, "geometry": {"type": "Polygon", "coordinates": [[[5.6512881303000055, 52.20350282879691], [5.65128919619748, 52.20368258427982], [5.650996629035208, 52.2036832388158], [5.650995564317821, 52.2035034833295], [5.6512881303000055, 52.20350282879691]]]}}], "layer_info": "Supporting Building Footprints (Context Layer)"}