{"type": "FeatureCollection", "features": [{"id": "0", "type": "Feature", "properties": {"building_id": "BLD_001", "type": "Residential", "layer": "Supporting Building Footprint"}, "geometry": {"type": "Polygon", "coordinates": [[[6.017085863063878, 51.18552623490945], [6.017089564576548, 51.18579588499878], [6.016660497393823, 51.18579821046262], [6.016656798401545, 51.185528560355394], [6.017085863063878, 51.18552623490945]]]}}, {"id": "1", "type": "Feature", "properties": {"building_id": "BLD_002", "type": "Outbuilding", "layer": "Supporting Building Footprint"}, "geometry": {"type": "Polygon", "coordinates": [[[6.017518014366633, 51.185748616272456], [6.017520483744377, 51.185928382985836], [6.017234438154879, 51.185929934533114], [6.0172319698973205, 51.185750167811754], [6.017518014366633, 51.185748616272456]]]}}], "layer_info": "Supporting Building Footprints (Context Layer)"}