{"type": "FeatureCollection", "features": [{"id": "0", "type": "Feature", "properties": {"building_id": "BLD_001", "type": "Residential", "layer": "Supporting Building Footprint"}, "geometry": {"type": "Polygon", "coordinates": [[[6.0235042574718465, 50.855845906091616], [6.023507961705821, 50.856115555889], [6.023081951358054, 50.856117899772165], [6.023078249603091, 50.85584824995679], [6.0235042574718465, 50.855845906091616]]]}}, {"id": "1", "type": "Feature", "properties": {"building_id": "BLD_002", "type": "Outbuilding", "layer": "Supporting Building Footprint"}, "geometry": {"type": "Polygon", "coordinates": [[[6.023933354214678, 50.85606826880655], [6.02393582537888, 50.8562480353269], [6.023651817692871, 50.85624959914223], [6.023649347630459, 50.8560698326139], [6.023933354214678, 50.85606826880655]]]}}], "layer_info": "Supporting Building Footprints (Context Layer)"}