{"type": "FeatureCollection", "features": [{"id": "0", "type": "Feature", "properties": {"building_id": "BLD_001", "type": "Residential", "layer": "Supporting Building Footprint"}, "geometry": {"type": "Polygon", "coordinates": [[[5.974950609497188, 51.18344586021994], [5.974954063270347, 51.183715512026296], [5.974525012825178, 51.18371768189406], [5.974521561572215, 51.18344803007104], [5.974950609497188, 51.18344586021994]]]}}, {"id": "1", "type": "Feature", "properties": {"building_id": "BLD_002", "type": "Outbuilding", "layer": "Supporting Building Footprint"}, "geometry": {"type": "Polygon", "coordinates": [[[5.9753825376164285, 51.183668398609676], [5.975384841832869, 51.18384816646857], [5.9750988073991875, 51.18384961428469], [5.975096504302843, 51.18366984641838], [5.9753825376164285, 51.183668398609676]]]}}], "layer_info": "Supporting Building Footprints (Context Layer)"}