{"type": "FeatureCollection", "features": [{"id": "0", "type": "Feature", "properties": {"building_id": "BLD_001", "type": "Residential", "layer": "Supporting Building Footprint"}, "geometry": {"type": "Polygon", "coordinates": [[[5.6617491716645, 52.14918280558756], [5.661750831175034, 52.14945244116302], [5.661312514023984, 52.14945346122171], [5.661310857161212, 52.14918382563828], [5.6617491716645, 52.14918280558756]]]}}, {"id": "1", "type": "Feature", "properties": {"building_id": "BLD_002", "type": "Outbuilding", "layer": "Supporting Building Footprint"}, "geometry": {"type": "Polygon", "coordinates": [[[5.662188871275015, 52.149406480215134], [5.662189979390821, 52.149586237254624], [5.661897767092142, 52.14958691856327], [5.661896660153131, 52.1494071615202], [5.662188871275015, 52.149406480215134]]]}}], "layer_info": "Supporting Building Footprints (Context Layer)"}