{"type": "FeatureCollection", "features": [{"id": "0", "type": "Feature", "properties": {"building_id": "BLD_001", "type": "Residential", "layer": "Supporting Building Footprint"}, "geometry": {"type": "Polygon", "coordinates": [[[5.658302586512149, 52.19750996496261], [5.658304227515688, 52.197779598345704], [5.657865435093952, 52.197780605916776], [5.657863796744793, 52.19751097252577], [5.658302586512149, 52.19750996496261]]]}}, {"id": "1", "type": "Feature", "properties": {"building_id": "BLD_002", "type": "Outbuilding", "layer": "Supporting Building Footprint"}, "geometry": {"type": "Polygon", "coordinates": [[[5.658742745969997, 52.1977336502485], [5.658743841752114, 52.197913405826256], [5.65845131260393, 52.197914078811614], [5.6584502180015495, 52.19773432323036], [5.658742745969997, 52.1977336502485]]]}}], "layer_info": "Supporting Building Footprints (Context Layer)"}