{"type": "FeatureCollection", "features": [{"id": "0", "type": "Feature", "properties": {"building_id": "BLD_001", "type": "Residential", "layer": "Supporting Building Footprint"}, "geometry": {"type": "Polygon", "coordinates": [[[6.010239241012857, 50.815647471034204], [6.010242863908157, 50.81591712108034], [6.009817221917709, 50.81591941546611], [6.009813601496464, 50.815649765402426], [6.010239241012857, 50.815647471034204]]]}}, {"id": "1", "type": "Feature", "properties": {"building_id": "BLD_002", "type": "Outbuilding", "layer": "Supporting Building Footprint"}, "geometry": {"type": "Polygon", "coordinates": [[[6.010667901618187, 50.815869883455484], [6.010670318552797, 50.81604965014213], [6.010386556439096, 50.81605118095768], [6.010384140604075, 50.81587141426323], [6.010667901618187, 50.815869883455484]]]}}], "layer_info": "Supporting Building Footprints (Context Layer)"}