{"type": "FeatureCollection", "features": [{"id": "0", "type": "Feature", "properties": {"building_id": "BLD_001", "type": "Residential", "layer": "Supporting Building Footprint"}, "geometry": {"type": "Polygon", "coordinates": [[[4.686026325192947, 52.48853006892203], [4.68602204820564, 52.48879967275759], [4.685580391940195, 52.4887970610809], [4.685584671621636, 52.48852745726589], [4.686026325192947, 52.48853006892203]]]}}, {"id": "1", "type": "Feature", "properties": {"building_id": "BLD_002", "type": "Outbuilding", "layer": "Supporting Building Footprint"}, "geometry": {"type": "Polygon", "coordinates": [[[4.686464416917433, 52.48875734881461], [4.686461567362004, 52.48893708471149], [4.686167128906996, 52.488935344866086], [4.686169979659828, 52.48875560897836], [4.686464416917433, 52.48875734881461]]]}}], "layer_info": "Supporting Building Footprints (Context Layer)"}