{"type": "FeatureCollection", "features": [{"id": "0", "type": "Feature", "properties": {"building_id": "BLD_001", "type": "Residential", "layer": "Supporting Building Footprint"}, "geometry": {"type": "Polygon", "coordinates": [[[5.884916652067414, 50.81510470852675], [5.884919546394981, 50.81537436322248], [5.884493902043202, 50.81537619606886], [5.884491010189804, 50.81510654135909], [5.884916652067414, 50.81510470852675]]]}}, {"id": "1", "type": "Feature", "properties": {"building_id": "BLD_002", "type": "Outbuilding", "layer": "Supporting Building Footprint"}, "geometry": {"type": "Polygon", "coordinates": [[[5.88534470790477, 50.81532758636146], [5.8853466391232745, 50.815507356150235], [5.885062875427683, 50.81550857927165], [5.885060945308822, 50.81532880947667], [5.88534470790477, 50.81532758636146]]]}}], "layer_info": "Supporting Building Footprints (Context Layer)"}