{"type": "FeatureCollection", "features": [{"id": "0", "type": "Feature", "properties": {"building_id": "BLD_001", "type": "Residential", "layer": "Supporting Building Footprint"}, "geometry": {"type": "Polygon", "coordinates": [[[6.007006969457899, 50.84558020656746], [6.007010576629276, 50.84584985697998], [6.006584659560394, 50.845852139930926], [6.006581054866784, 50.84558248950089], [6.007006969457899, 50.84558020656746]]]}}, {"id": "1", "type": "Feature", "properties": {"building_id": "BLD_002", "type": "Outbuilding", "layer": "Supporting Building Footprint"}, "geometry": {"type": "Polygon", "coordinates": [[[6.00743589203796, 50.845802630727604], [6.007438298492349, 50.84598239765841], [6.007154352991652, 50.84598392085172], [6.007151947638504, 50.84580415391314], [6.00743589203796, 50.845802630727604]]]}}], "layer_info": "Supporting Building Footprints (Context Layer)"}