{"type": "FeatureCollection", "features": [{"id": "0", "type": "Feature", "properties": {"building_id": "BLD_001", "type": "Residential", "layer": "Supporting Building Footprint"}, "geometry": {"type": "Polygon", "coordinates": [[[5.892155877094571, 50.81277213527455], [5.89215881331036, 50.813041789709935], [5.891733190740275, 50.81304364918707], [5.89173025699836, 50.81277399473744], [5.892155877094571, 50.81277213527455]]]}}, {"id": "1", "type": "Feature", "properties": {"building_id": "BLD_002", "type": "Outbuilding", "layer": "Supporting Building Footprint"}, "geometry": {"type": "Polygon", "coordinates": [[[5.892583946056536, 50.81299498626175], [5.892585905200569, 50.813174755876815], [5.892302156026641, 50.813175996752086], [5.8923001979821175, 50.812996227130675], [5.892583946056536, 50.81299498626175]]]}}], "layer_info": "Supporting Building Footprints (Context Layer)"}