{"type": "FeatureCollection", "features": [{"id": "0", "type": "Feature", "properties": {"building_id": "BLD_001", "type": "Residential", "layer": "Supporting Building Footprint"}, "geometry": {"type": "Polygon", "coordinates": [[[5.607770956595751, 52.20106662377622], [5.607772292049953, 52.201336257818966], [5.6073334632633, 52.20133707756573], [5.607332130464, 52.2010674435166], [5.607770956595751, 52.20106662377622]]]}}, {"id": "1", "type": "Feature", "properties": {"building_id": "BLD_002", "type": "Outbuilding", "layer": "Supporting Building Footprint"}, "geometry": {"type": "Polygon", "coordinates": [[[5.608210897798533, 52.20129049743569], [5.6082117898795465, 52.20147025345418], [5.607919236484602, 52.201470801222946], [5.607918345583553, 52.201291045201664], [5.608210897798533, 52.20129049743569]]]}}], "layer_info": "Supporting Building Footprints (Context Layer)"}